name,website,description,phone,email,whatsapp,social_media,address,city,state,country,zip_code,latitude,longitude,working_hours,services,materials_accepted,pricing_info,certifications,years_in_business,languages,payment_methods,additional_services,search_query,search_page,source,data_completeness,scraped_at
"ᐉ Scrap Metal Yards and Dealers in [acf field='city'] – Prices, Locations",https://metalrecap.com/chicago-il/,Scrap Metal Yards and Dealers in Chicago. Where to Sell Scrap for a High Price: ✓ Locations ✓ PRICES per lb ✓ Business Hours ☎ Phone Numbers.,(773) 721-1100,admin-contacted@proton.me,,,9331 S Ewing Ave,Chicago,Illinois,United States,60617,,,,"['pickup', 'collection', 'demolition', 'dismantling', 'processing', 'commercial']","['copper', 'aluminum', 'steel', 'iron', 'brass', 'bronze', 'stainless steel', 'lead', 'zinc', 'nickel', 'tin', 'titanium', 'carbide', 'tungsten', 'car batteries', 'radiators', 'electric motors', 'transformers', 'wire', 'cable', 'cast iron', 'turnings']","['copper/""><img src=""/wp-content/uploads/2024/05/2024-05-28-13-33-54-1-150x150.png"" style=""height: 30px; border-radius: 5px; margin-right: 10px; vertical-align: middle;""> #1 Copper</a></div><div>$3.62', 'copper/""><img src=""/wp-content/uploads/2024/05/2-copper-1-150x150.png"" style=""height: 30px; border-radius: 5px; margin-right: 10px; vertical-align: middle;""> #2 Copper</a></div><div>$3.38', 'aluminum/""><img src=""/wp-content/uploads/2024/05/cast-aluminum-150x150.png"" style=""height: 30px; border-radius: 5px; margin-right: 10px; vertical-align: middle;""> Cast Aluminum</a></div><div>$0.51', 'brass/""><img src=""/wp-content/uploads/2024/05/red-brass-scrap-150x150.png"" style=""height: 30px; border-radius: 5px; margin-right: 10px; vertical-align: middle;""> Red Brass</a></div><div>$2.63', 'brass/""><img src=""/wp-content/uploads/2024/05/yellow-brass-scrap-150x150.png"" style=""height: 30px; border-radius: 5px; margin-right: 10px; vertical-align: middle;""> Yellow Brass</a></div><div>$2.15']",,,""":""en-US""},{""@type"":""ImageObject"",""inLanguage"":""en",['check'],,scrap metal dealers Chicago IL,2,Bing,91,2025-07-12T00:39:21.019087
ᐉ [acf field='name'],https://metalrecap.com/t-z-metals-inc-chicago/,"Company T & Z Metals Inc. - Scrap Metal Yard and Dealer at 4009 W Parker Ave, Chicago. Where to Sell Scrap for a High Price: ✓ PRICES per lb ✓ Business Hours ☎ Phone Numbers.",(773) 799-8945,admin-contacted@proton.me,,,4009 W Parker Ave,Chicago,Illinois,United States,60639,,,,"['collection', 'processing']","['copper', 'aluminum', 'steel', 'iron', 'brass', 'stainless steel', 'lead', 'zinc', 'nickel', 'tin', 'titanium', 'carbide', 'tungsten', 'car batteries', 'radiators', 'electric motors', 'transformers', 'wire', 'cable', 'cast iron', 'turnings']","['copper/""><img src=""/wp-content/uploads/2024/05/2024-05-28-13-33-54-1-150x150.png"" style=""height: 30px; border-radius: 5px; margin-right: 10px; vertical-align: middle;""> #1 Copper</a></div><div>$3.62', 'copper/""><img src=""/wp-content/uploads/2024/05/2-copper-1-150x150.png"" style=""height: 30px; border-radius: 5px; margin-right: 10px; vertical-align: middle;""> #2 Copper</a></div><div>$3.38', 'aluminum/""><img src=""/wp-content/uploads/2024/05/cast-aluminum-150x150.png"" style=""height: 30px; border-radius: 5px; margin-right: 10px; vertical-align: middle;""> Cast Aluminum</a></div><div>$0.51', 'brass/""><img src=""/wp-content/uploads/2024/05/red-brass-scrap-150x150.png"" style=""height: 30px; border-radius: 5px; margin-right: 10px; vertical-align: middle;""> Red Brass</a></div><div>$2.63', 'brass/""><img src=""/wp-content/uploads/2024/05/yellow-brass-scrap-150x150.png"" style=""height: 30px; border-radius: 5px; margin-right: 10px; vertical-align: middle;""> Yellow Brass</a></div><div>$2.15']",,,""":""en-US"",""potentialAction"":[{""@type"":""ReadAction""",,,scrap metal dealers Chicago IL,4,Bing,91,2025-07-12T00:39:24.916298
Used Auto Parts,https://allamericanautosalvage.com/auto-salvage-vehicle-scrap-junk-yard/,Looking for a reliable vehicle scrap junk yard in the New York City area? All American Auto Salvage is stocked with a wide variety of used auto parts for just about any make and model of vehicle. All of our parts are tested for quality. Click now for details!,(732) 574-1945,king.george.auto@gmail.com,,{'facebook': 'facebook.com/AllAmericanAutoSalvage'},"192 Leesville Ave, Rahway, NJ, 07065",,,United States,,,,Monday:8:00 am-5:00 pmTuesday:8:00 am-5:00 pmWednesday:8:00 am-5:00 pmThursday:8:00 am-5:00 pmFriday:8:00 am-5:00 pmSaturday:9:00 am-3:00 pmSunday:Closed,['processing'],"['tin', 'silver']",,,1983,""":""en-US"",""potentialAction"":[{""@type"":""ReadAction""",['check'],,scrap yard New York NY,3,Bing,83,2025-07-12T00:39:02.460765
CNY Resource Recovery North,https://www.cnyresourcerecoverynorth.com/,"CNY Resource Recovery North in Adams Center, NY, is an expert metal recycling company that offers competitive prices. Call 315-583-5554 for more information.",(315) 583-5554,cnyresourcerecovery@yahoo.com,,,"12521 US-11, Adams Center, NY, 13606",,,United States,,,,,['collection'],"['copper', 'aluminum', 'brass', 'lead', 'zinc', 'nickel', 'tin', 'titanium', 'silver']",,,,"'en',
        currentLocale: 'en',
        NavItem","['cash', 'check', 'terms']",,metal recycling center New York NY,3,Bing,75,2025-07-12T00:38:59.768641
General Metal Recycling Co.,https://www.gmrecycling.com/,"General Metal Recycling Co. in Montebello, CA, has your ferrous and nonferrous metal recycling needs covered. Call us at 323-722-9995 today.",(323) 722-9995,info@gmrecycling.com,,,"1505 Washington Blvd, Montebello, CA, 90640",,,United States,,,,,"['collection', 'processing', 'commercial']","['copper', 'aluminum', 'steel', 'iron', 'brass', 'stainless steel', 'tin', 'silver', 'radiators', 'wire']",,,1952,"'en',
        currentLocale: 'en',
        NavItem","['check', 'terms']","['offer a public recycling facility, using advanced technology to sort, shred, and process metal waste into reusable materials']",metal recycling center Los Angeles CA,2,Bing,75,2025-07-12T00:39:07.839829
Bridgeport Metals,https://www.recyclingmonster.com/recycling-center/bridgeport-metals/53367,"Bridgeport Metals, Recycling Center at Bridgeport Metals, 3850 S Racine Ave, Chicago, Illinois, United States - Open hours, accepting materials, scrap prices, phone number and location address",(312) 722-6880,info@bridgeportmetals.com,,"{'facebook': 'facebook.com/RecyclingMonstercom', 'twitter': 'twitter.com/recyclingmonstr""', 'instagram': 'instagram.com/recyclingmonster', 'youtube': 'youtube.com/@RecyclingMonster_com""'}","Bridgeport Metals, Chicago, Illinois, 60609",,,United States,,,,,['processing'],"['copper', 'aluminum', 'steel', 'iron', 'tin']",,,,"=""javascript"">$(document)","['cash', 'check', 'terms']",,metal recycling center Chicago IL,5,Bing,75,2025-07-12T00:39:27.329850
"Junkyards in Chicago, Illinois",https://junkcarsus.com/salvage-yards/chicago-il,Find top car scrap yards in Chicago with JunkCarsUs! ✅ Get the best auto recyclers and auto wreckers without the hassle.,(773) 722-1882,support@junkcarsus.com,,,,,Illinois,United States,,,,,"['pickup', 'dismantling', 'processing', 'cash payment', 'commercial', 'same day', 'environmental']","['iron', 'tin']",,,,"=""company_phone_1"">
                    <span clas","['cash', 'check']",,junk yard auto parts Chicago IL,3,Bing,75,2025-07-12T00:39:34.054147
MET Metals,https://www.recyclingmonster.com/recycling-center/met-metals-queensny/33093,"MET Metals-Queens,NY, Recycling Center at 119-06 28th Ave College Point, Queens, New York, United States - Open hours, accepting materials, scrap prices, phone number and location address",(718) 899-4400,metmetalsny@gmail.com,,"{'facebook': 'facebook.com/RecyclingMonstercom', 'twitter': 'twitter.com/recyclingmonstr""', 'instagram': 'instagram.com/recyclingmonster', 'youtube': 'youtube.com/@RecyclingMonster_com""'}","119-06 28th Ave College Point, Queens, New York, 11354",,,United States,,,,,,"['copper', 'aluminum', 'steel', 'iron', 'brass', 'lead', 'tin']",,,,"=""javascript"">$(document)","['cash', 'check', 'terms']",,metal recycling center New York NY,2,Bing,66,2025-07-12T00:38:59.837701
"Transforming Scrap into Treasures, Unlocking Value",https://www.canosrecycling.com/,"Explore a journey of over 20 years of expertise, transforming materials with innovation. Discover the essence of responsible material handling with our unique services.",(845) 331-7600,info@canosrecycling.com,,"{'facebook': 'facebook.com/canosrec2018', 'instagram': 'instagram.com/canosrecycling'}",,,,United States,,,,,"['commercial', 'licensed', 'environmental']","['iron', 'lead', 'tin', 'gold']",,['Licensed under'],,"ONLY-->      <meta name=""viewport"" content=""width=","['cash', 'check']",,metal recycling center New York NY,2,Bing,66,2025-07-12T00:39:00.313828
Shulman Co Inc,https://www.recyclingmonster.com/recycling-center/shulman-co-inc/12672,"Shulman Co Inc, Recycling Center at 197 E Washington Ave,  Elmira, New York, United States - Open hours, accepting materials, scrap prices, phone number and location address",(607) 733-7111,info@shulmancompany.com,,"{'facebook': 'facebook.com/RecyclingMonstercom', 'twitter': 'twitter.com/recyclingmonstr""', 'instagram': 'instagram.com/recyclingmonster', 'youtube': 'youtube.com/@RecyclingMonster_com""'}","197 E Washington Ave,  Elmira, New York, 14901",,,United States,,,,,,"['copper', 'aluminum', 'steel', 'brass', 'tin', 'radiators', 'electric motors', 'transformers', 'wire']",,,,"=""javascript"">$(document)","['cash', 'check', 'terms']",,metal recycling center New York NY,3,Bing,66,2025-07-12T00:39:00.605172
Scrap Prices in New York,https://www.scrapmonster.com/scrap-yards/prices/new-york/state/3397,"Scrap Prices in New York. United States Scrap Metal Prices,Copper Scrap Price, Bronze Scrap, Aluminum Prices. Scrap Yards in New York",(961) 323-5326,info@scrapmonster.com,,"{'facebook': 'facebook.com/ScrapMonster""', 'twitter': 'twitter.com/scrapindustry""', 'instagram': 'instagram.com/scrapmonster_com', 'linkedin': 'linkedin.com/company', 'youtube': 'youtube.com/@ScrapMonster_com""', 'tiktok': 'tiktok.com/@scrapmonster.com""'}",,,,United States,,,,,['pickup'],"['copper', 'aluminum', 'steel', 'iron', 'brass', 'bronze', 'stainless steel', 'lead', 'zinc', 'nickel', 'tin', 'precious metals', 'gold', 'radiators', 'electric motors', 'wire', 'cast iron']",,,,,"['check', 'terms']",,scrap yard New York NY,3,Bing,66,2025-07-12T00:39:03.063400
Allocco Recycling,https://www.alloccorecycling.com/,"Allocco is New York's leading center for aggregate, scrap metal and construction debris recycling services. Our state-of-the-art, technology-driven facilities are equipped to handle your recycling needs quickly and efficiently.",(718) 349-3094,info@alloccorecycling.com,,,,,,United States,,,,,"['demolition', 'processing', 'environmental']","['aluminum', 'iron', 'lead', 'tin', 'electronic scrap']",,,40,(e,,,scrap yard New York NY,3,Bing,66,2025-07-12T00:39:03.181885
City Metal Traders,https://www.citymetaltraders.com/,"City Metal Traders guarantees highest price pickup, weigh and pay on your 
construction job or dropped off at our warehouse. Call 212-777-4100 today. 
We buy all grades of Copper, Insulated Wire, Brass, Aluminum and Stainless 
Steel. Guaranteed Highest Prices. Scrap Metal Pick up, Scrap Metal 
Recycling. We buy your Metal. Throughout NYC, 5 Boroughs, Westchester, Long 
Island, and New Jersey",(212) 777-4100,info@citymetaltraders.com,,"{'facebook': 'facebook.com/2008', 'instagram': 'instagram.com/citymetaltraders?igshid=YmMyMTA2M2Y="",""iconEnabled"":true,""serviceName"":""instagram-unauth""},{""serviceId"":60,""screenname"":""Facebook"",""addedOn"":1752012312332,""profileUrl"":""http:'}",,,,United States,,,,,"['pickup', 'collection', 'processing']","['copper', 'aluminum', 'steel', 'brass', 'stainless steel', 'tin', 'wire']",,,,""":""en-US"",""timeZone"":""America/New_York"",""machineTi","['check', 'terms']",,scrap metal merchants New York NY,4,Bing,66,2025-07-12T00:39:04.462716
Ekco Metals,https://www.ekcometals.com/,"With locations in Los Angeles and San Diego, Ekco Metals is a trusted scrap yard offering processing and recycling of ferrous and non-ferrous metals.",(323) 264-1615,,,"{'facebook': 'facebook.com/EKCO-METALS-310920582285152', 'linkedin': 'linkedin.com/company'}","2777 E Washington Blvd, Los Angeles, CA, 90023",,,United States,,,,,"['collection', 'roll-off', 'demolition', 'processing', 'commercial', 'industrial', 'licensed']","['copper', 'aluminum', 'steel', 'iron', 'brass', 'tin']",,['Licensed under'],1966,""":""en-US"",""potentialAction"":[{""@type"":""ReadAction""","['check', 'terms']",['provide pick-up service with our own fleet of trucks and bins of all sizes'],metal recycling center Los Angeles CA,2,Bing,66,2025-07-12T00:39:07.743802
Scrap Stop,https://myscrapstop.com/,"Scrap Stop is a licensed scrap yard located in LA County. Services that our recycling center provides are custom fit for businesses with non-ferrous metal scrap. Drop off your scrap at 20749 Prairie St Chatsworth, CA.",(818) 734-6654,vince@myscrapstop.com,,"{'facebook': 'facebook.com/scrapstop.recycling', 'linkedin': 'linkedin.com/in', 'youtube': 'youtube.com/embed'}",,,,United States,,,,,"['pickup', 'demolition', 'dismantling', 'commercial', 'industrial', 'licensed']","['copper', 'aluminum', 'steel', 'brass', 'bronze', 'stainless steel', 'tin', 'radiators', 'transformers', 'wire', 'computer scrap', 'coils']",,"['licensed scrap', 'licensed scrap']",,,"['cash', 'check']",,metal recycling center Los Angeles CA,2,Bing,66,2025-07-12T00:39:08.479473
Belson Steel Center Scrap Inc.,https://belsonsteel.com/,"Located in Bourbonnais, Illinois, Belson Steel Center Scrap, Inc. is a full-service scrap processor and recycling center.",(815) 932-7416,,,"{'facebook': 'facebook.com/BELSONSTEEL""', 'twitter': 'twitter.com/BelsonScrap""', 'youtube': 'youtube.com/embed'}","1685 N State Route 50, Bourbonnais, IL, 60914",,,United States,,,,,"['pickup', 'collection', 'container rental', 'demolition', 'residential', 'industrial']","['aluminum', 'steel', 'iron', 'lead', 'tin', 'electronic scrap']",,,,,"['cash', 'check', 'credit card']",['offer numerous aluminum products as well'],metal recycling center Chicago IL,5,Bing,66,2025-07-12T00:39:27.390922
Metal Scrap Yard,https://www.scrapmanchicago.com/metal-scrap-yard-chicago-heights-il,"Contact American Scrap Metal at (708) 239-0101 for top-quality metal recycling services. Get the best prices at our metal scrap yard near Chicago Heights, IL!",(708) 239-0101,americanscrapmetal@comcast.net,,"{'facebook': 'facebook.com/Scrapmanchicago', 'instagram': 'instagram.com/scrapmanchicago'}",,,,United States,,,,,"['pickup', 'collection', 'processing', 'sorting', 'industrial', 'environmental']","['copper', 'iron', 'tin']",,,,"'en',
        currentLocale: 'en',
        NavItem","['cash', 'check', 'terms']",,scrap yard Chicago IL,3,Bing,66,2025-07-12T00:39:28.402324
C&Y Global Holdings LLC,https://www.cyglobalusa.com/locations/scrap-metal-recycling-chicago.php,Pro Metal Recycling near Chicago focuses on the wholesale collection and export of all types of non-ferrous scrap metals.,(713) 534-6500,marketing@cyglobalusa.com,,,,,,United States,,,,,"['collection', 'processing', 'industrial']","['copper', 'aluminum', 'steel', 'brass', 'stainless steel', 'lead', 'tin', 'radiators', 'wire']",,,,,['check'],,copper scrap buyers Chicago IL,4,Bing,66,2025-07-12T00:39:34.891590
Home,https://www.empirerecycling.com/syracuse/,,(315) 476-0800,joep@empirerecycling.com,,"{'facebook': 'facebook.com/empireseneca', 'twitter': 'twitter.com/empiresyrprices""'}",,,,United States,,,,,['commercial'],"['copper', 'aluminum', 'steel', 'brass', 'tin', 'pipes']",,,,,"['cash', 'check']",,metal recycling center New York NY,3,Bing,58,2025-07-12T00:39:01.422590
Adam Weitsman,https://www.adamweitsman.com/recycling,"Adam Weitsman is the CEO of Upstate Shredding — Weitsman Recycling, the 
East Coast’s largest privately held scrap metal processor.",(607) 687-7777,,,"{'facebook': 'facebook.com/2008', 'twitter': 'twitter.com/AdamWeitsman"",""iconEnabled"":true,""serviceName"":""twitter-unauth""},{""serviceId"":65,""screenname"":""LinkedIn"",""addedOn"":1678245491131,""profileUrl"":""https:', 'instagram': 'instagram.com/adamweitsman"",""iconEnabled"":true,""serviceName"":""instagram-unauth""},{""serviceId"":60,""screenname"":""Facebook"",""addedOn"":1678021333624,""profileUrl"":""https:', 'linkedin': 'linkedin.com/in', 'youtube': 'youtube.com/@theadamweitsman"",""iconEnabled"":true,""serviceName"":""youtube-unauth""}],""typekitId"":"""",""statsMigrated"":false,""imageMetadataProcessingEnabled"":false,""screenshotId"":""6c6bccdd5b39132f0d5a1a1220f5edff262743c792eade96e2ef2446d07aeee0"",""captchaSettings"":{""enabledForDonations"":false},""showOwnerLogin"":false},""websiteSettings"":{""id"":""640492d5e7688f799b5e2e9c"",""websiteId"":""640492d5e7688f799b5e2e98"",""subjects"":[],""country"":""US"",""state"":""NY"",""simpleLikingEnabled"":true,""mobileInfoBarSettings"":{""isContactEmailEnabled"":false,""isContactPhoneNumberEnabled"":false,""isLocationEnabled"":false,""isBusinessHoursEnabled"":false},""commentLikesAllowed"":true,""commentAnonAllowed"":true,""commentThreaded"":true,""commentApprovalRequired"":false,""commentAvatarsOn"":true,""commentSortType"":2,""commentFlagThreshold"":0,""commentFlagsAllowed"":true,""commentEnableByDefault"":true,""commentDisableAfterDaysDefault"":0,""disqusShortname"":"""",""commentsEnabled"":false,""storeSettings"":{""returnPolicy"":null,""termsOfService"":null,""privacyPolicy"":null,""expressCheckout"":false,""continueShoppingLinkUrl"":""', 'tiktok': 'tiktok.com/@adamweitsman"",""iconEnabled"":true,""serviceName"":""tiktok-unauth""},{""serviceId"":83,""screenname"":""Threads"",""addedOn"":1701117619112,""profileUrl"":""https:'}",,,,United States,,,,,"['collection', 'processing', 'commercial', 'environmental']","['steel', 'iron', 'lead', 'tin']",,"['certified company', 'EPA and']",,""":""en-US"",""timeZone"":""America/New_York"",""machineTi","['check', 'terms']",,scrap yard New York NY,3,Bing,58,2025-07-12T00:39:02.300507
North Shore Recycling,https://www.nsrecycling.com/about-us/,"Scrap Metal Prices, scrap iron, aluminum, copper, brass, tin cans, copper bearing scrap, electric motors, fuel storage tanks, appliances, steel, scrap yards",(516) 623-4521,,,"{'facebook': 'facebook.com/nsrecyclinginc"">', 'twitter': 'twitter.com/NorthShoreRecyc"">'}",,,,United States,,,,,"['processing', 'commercial', 'industrial']","['copper', 'aluminum', 'steel', 'iron', 'brass', 'stainless steel', 'lead', 'zinc', 'nickel', 'tin', 'electric motors']",,,,""":""en"",""potentialAction"":[{""@type"":""ReadAction"",""t",['check'],['offer box truck pick up for all commercial nonferrous metals'],metal recycling center New York NY,3,Bing,58,2025-07-12T00:39:02.373945
Wilbert's U,https://www.wilberts.com/u-pull-it/,"Wilbert's U-Pull It is an auto salvage yard in Williamson NY, outside of Rochester NY. It is a self service U-pull it used auto parts salvage yard.",(315) 589-2222,,,"{'facebook': 'facebook.com/tr?id=1081204589566731&amp;ev=PageView&amp;noscript=1""', 'instagram': 'instagram.com/wilbertsupullit""', 'youtube': 'youtube.com/iframe_api"";', 'tiktok': 'tiktok.com/@wilbertsupullit""'}",,,,United States,,,,,"['collection', 'same day', 'licensed']",['tin'],,['Licensed under'],,""":""en-US"",""potentialAction"":[{""@type"":""ReadAction""","['cash', 'check']",,scrap yard New York NY,3,Bing,58,2025-07-12T00:39:04.369495
Department of Environmental Conservation,https://dec.ny.gov/environmental-protection/waste-management/solid-waste-management-facilities/household-hazardous-waste-collection-facilities,"Conservationistis packed with informative articles, first-rate photography and stunning artwork.",(518) 402-8678,,,"{'facebook': 'facebook.com/sharer', 'instagram': 'instagram.com/nysdec', 'linkedin': 'linkedin.com/company', 'youtube': 'youtube.com/user'}",,,,United States,,,,,"['collection', 'demolition', 'dismantling', 'processing', 'commercial', 'environmental', 'hazardous waste']","['iron', 'tin']",,,,=en&amp;theme=gesso&amp;include=eJxFjVkOQiEQBC9EHk,['check'],,waste metal collection New York NY,5,Bing,58,2025-07-12T00:39:04.566287
Department of Environmental Conservation,https://dec.ny.gov/environmental-protection/recycling-composting/electronic-waste-recycling,"NYS consumers are required to recycle many electronic waste items, such as computers, computer peripherals, televisions, small scale servers, and small electronic equipment, etc., in an environmentally responsible manner.",(518) 402-8706,,,"{'facebook': 'facebook.com/sharer', 'instagram': 'instagram.com/nysdec', 'linkedin': 'linkedin.com/company', 'youtube': 'youtube.com/user'}",,,,United States,,,,,"['collection', 'commercial', 'environmental', 'hazardous waste']","['iron', 'tin', 'wire']",,,,=en&amp;theme=gesso&amp;include=eJxFjW0KQyEMBC8kzy,['check'],,waste metal collection New York NY,5,Bing,58,2025-07-12T00:39:05.098146
Department of Environmental Conservation,https://dec.ny.gov/environmental-protection/waste-management/solid-waste-types/used-electronic-equipment/hazardous-waste-notification-forms,"Conservationistis packed with informative articles, first-rate photography and stunning artwork.",(518) 402-8652,,,"{'facebook': 'facebook.com/sharer', 'instagram': 'instagram.com/nysdec', 'linkedin': 'linkedin.com/company', 'youtube': 'youtube.com/user'}",,,,United States,,,,,"['collection', 'dismantling', 'processing', 'commercial', 'environmental', 'hazardous waste']","['steel', 'iron', 'lead', 'tin', 'precious metals', 'circuit boards', 'pipes']",,['EPA in'],,=en&amp;theme=gesso&amp;include=eJwtzEsOgCAMRdENEV,['check'],,waste metal collection New York NY,5,Bing,58,2025-07-12T00:39:07.537144
Copper Recycling,https://atlasironandmetal.com/copper-recycling/,Get top payouts and expert service with copper recycling at Atlas Iron & Metal. We handle all project sizes at our Los Angeles facility or your location.,(323) 566-5184,,,"{'facebook': 'facebook.com/AtlasIronMetal?ref=hl""', 'twitter': 'twitter.com/Atlas_IronMetal""', 'instagram': 'instagram.com/atlasironandmetal', 'youtube': 'youtube.com/channel'}",,,,United States,,,,,"['demolition', 'processing', 'weighing', 'industrial', 'environmental']","['copper', 'aluminum', 'aluminium', 'steel', 'iron', 'lead', 'tin', 'transformers', 'wire']",,,1949,""":""en-US"",""potentialAction"":[{""@type"":""ReadAction""","['check', 'terms']",,metal recycling center Los Angeles CA,3,Bing,58,2025-07-12T00:39:14.769126
sarecycling,https://www.sarecycling.com/,Your car still has VALUE. If you have an old car or damaged car that you’re ready to get rid of. WE WILL PAY CASH FOR IT TODAY!,(214) 748-3647,,,"{'facebook': 'facebook.com/tr?id=816163284051407&amp;ev=PageView&amp;noscript=1""', 'twitter': 'twitter.com/1800GotScrap""', 'instagram': 'instagram.com/sarecycling', 'linkedin': 'linkedin.com/company', 'youtube': 'youtube.com/channel'}",,,,United States,,,,,"['collection', 'demolition', 'dismantling', 'processing', 'industrial']","['copper', 'aluminum', 'steel', 'iron', 'brass', 'lead', 'tin']",,"['Certified Destruction', 'Certified Destruction', 'Certified Destruction']",,""":""en-US"",""potentialAction"":{""@type"":""SearchAction","['cash', 'check', 'terms']",,metal scrap dealers Los Angeles CA,5,Bing,58,2025-07-12T00:39:19.893930
"Windy City Metal Recycling & Resources, LLC Home",https://www.recycleinme.com/rim-windycity/home,"Windy City Metal Recycling is a scrap metal yard located in Chicago, IL. We are conveniently located just west of downtown Chicago, at Division and...",(890) 399-4012,,,,,,,United States,,,,,['demolition'],"['copper', 'aluminum', 'aluminium', 'steel', 'brass', 'stainless steel', 'lead', 'tin', 'carbide', 'electric motors', 'transformers', 'wire', 'circuit boards', 'electronic scrap']","['copperprices.get"":{""uri"":""copperprices\\/{category}\\/{subcategory}"",""methods"":[""GET"",""HEAD"",""POST"",""PUT"",""PATCH"",""DELETE"",""OPTIONS""],""parameters"":[""category"",""subcategory""]},""freepricelisting"":{""uri"":""freepricelisting\\/{type}"",""methods"":[""GET"",""HEAD"",""POST"",""PUT"",""PATCH"",""DELETE"",""OPTIONS""],""parameters"":[""type""]},""scrappricelisting"":{""uri"":""scrappricelisting\\/{type}"",""methods"":[""GET"",""HEAD"",""POST"",""PUT"",""PATCH"",""DELETE"",""OPTIONS""],""parameters"":[""type""]},""metalpricelisting"":{""uri"":""metalpricelisting\\/{type}"",""methods"":[""GET"",""HEAD"",""POST"",""PUT"",""PATCH"",""DELETE"",""OPTIONS""],""parameters"":[""type""]},""plasticpricelisting"":{""uri"":""plasticpricelisting\\/{type}"",""methods"":[""GET"",""HEAD"",""POST"",""PUT"",""PATCH"",""DELETE"",""OPTIONS""],""parameters"":[""type""]},""freepricedetails.get"":{""uri"":""freepricedetailedlisting\\/{category}\\/{subcategory}\\/{psect}"",""methods"":[""GET"",""HEAD"",""POST"",""PUT"",""PATCH"",""DELETE"",""OPTIONS""],""parameters"":[""category"",""subcategory"",""psect""]},""scrappricedetails.get"":{""uri"":""scrappricedetailedlisting\\/{category}\\/{subcategory}\\/{psect}"",""methods"":[""GET"",""HEAD"",""POST"",""PUT"",""PATCH"",""DELETE"",""OPTIONS""],""parameters"":[""category"",""subcategory"",""psect""]},""metalpricedetails.get"":{""uri"":""MetalPriceDetailedListing\\/{category}\\/{subcategory}\\/{psect}"",""methods"":[""GET"",""HEAD"",""POST"",""PUT"",""PATCH"",""DELETE"",""OPTIONS""],""parameters"":[""category"",""subcategory"",""psect""]},""plasticpricedetails.get"":{""uri"":""plasticpricedetailedlisting\\/{category}\\/{subcategory}\\/{psect}"",""methods"":[""GET"",""HEAD"",""POST"",""PUT"",""PATCH"",""DELETE"",""OPTIONS""],""parameters"":[""category"",""subcategory"",""psect""]},""mypage"":{""uri"":""mypage"",""methods"":[""GET"",""HEAD"",""POST"",""PUT"",""PATCH"",""DELETE"",""OPTIONS""]},""mypage.foryou"":{""uri"":""mypage\\/foryou"",""methods"":[""GET"",""HEAD"",""POST"",""PUT"",""PATCH"",""DELETE"",""OPTIONS""]},""admin.impersonate"":{""uri"":""admin\\/impersonate\\/{username}"",""methods"":[""GET"",""HEAD""],""parameters"":[""username""]},""myoffer.selloffer"":{""uri"":""selloffers\\/myoffer"",""methods"":[""GET"",""HEAD"",""POST"",""PUT"",""PATCH"",""DELETE"",""OPTIONS""]},""myoffer.buyoffer"":{""uri"":""buyoffers\\/myoffer"",""methods"":[""GET"",""HEAD"",""POST"",""PUT"",""PATCH"",""DELETE"",""OPTIONS""]},""mypage.mybuyerresponse"":{""uri"":""mypage\\/mybuyerresponses"",""methods"":[""GET"",""HEAD"",""POST"",""PUT"",""PATCH"",""DELETE"",""OPTIONS""]},""mypage.mysellerresponse"":{""uri"":""mypage\\/mysellerresponses"",""methods"":[""GET"",""HEAD"",""POST"",""PUT"",""PATCH"",""DELETE"",""OPTIONS""]},""mypage.mybuyerinquiries"":{""uri"":""mypage\\/mybuyerinquiries"",""methods"":[""GET"",""HEAD"",""POST"",""PUT"",""PATCH"",""DELETE"",""OPTIONS""]},""mypage.mysellerinquiries"":{""uri"":""mypage\\/mysellerinquiries"",""methods"":[""GET"",""HEAD"",""POST"",""PUT"",""PATCH"",""DELETE"",""OPTIONS""]},""buyerresponsedetails.get"":{""uri"":""mypage\\/buyerresponsedetails\\/{id}"",""methods"":[""GET"",""HEAD"",""POST"",""PUT"",""PATCH"",""DELETE"",""OPTIONS""],""parameters"":[""id""]},""sellerresponsedetails.get"":{""uri"":""mypage\\/sellerresponsedetails\\/{id}"",""methods"":[""GET"",""HEAD"",""POST"",""PUT"",""PATCH"",""DELETE"",""OPTIONS""],""parameters"":[""id""]},""buyerinquirydetails.get"":{""uri"":""mypage\\/buyerinquirydetails\\/{id}"",""methods"":[""GET"",""HEAD"",""POST"",""PUT"",""PATCH"",""DELETE"",""OPTIONS""],""parameters"":[""id""]},""sellerinquirydetails.get"":{""uri"":""mypage\\/sellerinquirydetails\\/{id}"",""methods"":[""GET"",""HEAD"",""POST"",""PUT"",""PATCH"",""DELETE"",""OPTIONS""],""parameters"":[""id""]},""mypage.myenquiries"":{""uri"":""mypage\\/myenquiries"",""methods"":[""GET"",""HEAD"",""POST"",""PUT"",""PATCH"",""DELETE"",""OPTIONS""]},""companyresponsedetails.get"":{""uri"":""mypage\\/enquirydetails\\/{id}"",""methods"":[""GET"",""HEAD"",""POST"",""PUT"",""PATCH"",""DELETE"",""OPTIONS""],""parameters"":[""id""]},""mypage.myinquiries"":{""uri"":""mypage\\/myinquiries"",""methods"":[""GET"",""HEAD"",""POST"",""PUT"",""PATCH"",""DELETE"",""OPTIONS""]},""companyinquirydetails.get"":{""uri"":""mypage\\/inquirydetails\\/{id}"",""methods"":[""GET"",""HEAD"",""POST"",""PUT"",""PATCH"",""DELETE"",""OPTIONS""],""parameters"":[""id""]},""mypage.managebuyalerts"":{""uri"":""mypage\\/managebuyalerts"",""methods"":[""GET"",""HEAD"",""POST"",""PUT"",""PATCH"",""DELETE"",""OPTIONS""]},""mypage.managesellalerts"":{""uri"":""mypage\\/modifysellalerts"",""methods"":[""GET"",""HEAD"",""POST"",""PUT"",""PATCH"",""DELETE"",""OPTIONS""]},""mypage.advancedprofile"":{""uri"":""mypage\\/advancedprofile\\/{username?}"",""methods"":[""GET"",""HEAD"",""POST"",""PUT"",""PATCH"",""DELETE"",""OPTIONS""],""parameters"":[""username""]},""mypage.myprofile"":{""uri"":""mypage\\/myprofile\\/{username?}"",""methods"":[""GET"",""HEAD"",""POST"",""PUT"",""PATCH"",""DELETE"",""OPTIONS""],""parameters"":[""username""]},""basicprofile.update"":{""uri"":""updatebasiceprofile"",""methods"":[""POST""]},""advancedprofile.update"":{""uri"":""updateadvancedprofile"",""methods"":[""POST""]},""mypage.companylogo"":{""uri"":""mypage\\/companylogo"",""methods"":[""GET"",""HEAD"",""POST"",""PUT"",""PATCH"",""DELETE"",""OPTIONS""]},""companylogo.remove"":{""uri"":""removecompanylogo"",""methods"":[""POST""]},""companylogo.upload"":{""uri"":""updatecompanylogo"",""methods"":[""POST""]},""mypage.updatesocial"":{""uri"":""mypage\\/socialmedia"",""methods"":[""GET"",""HEAD"",""POST"",""PUT"",""PATCH"",""DELETE"",""OPTIONS""]},""socialmedia.update"":{""uri"":""updatesocialmedia"",""methods"":[""POST""]},""mycredential.add"":{""uri"":""mypage\\/mycredential"",""methods"":[""GET"",""HEAD"",""POST"",""PUT"",""PATCH"",""DELETE"",""OPTIONS""]},""mydocuments.add"":{""uri"":""mypage\\/mydocuments"",""methods"":[""GET"",""HEAD"",""POST"",""PUT"",""PATCH"",""DELETE"",""OPTIONS""]},""myscraphome"":{""uri"":""mypage\\/scraphome"",""methods"":[""GET"",""HEAD"",""POST"",""PUT"",""PATCH"",""DELETE"",""OPTIONS""]},""changepassword"":{""uri"":""mypage\\/changepassword"",""methods"":[""GET"",""HEAD"",""POST"",""PUT"",""PATCH"",""DELETE"",""OPTIONS""]},""sellalerts.update"":{""uri"":""updatesellalerts"",""methods"":[""POST""]},""buyalerts.update"":{""uri"":""updatebuyalerts"",""methods"":[""POST""]},""mypage.notifications"":{""uri"":""mypage\\/notifications"",""methods"":[""GET"",""HEAD"",""POST"",""PUT"",""PATCH"",""DELETE"",""OPTIONS""]},""mypage.profileimage"":{""uri"":""mypage\\/profileimage"",""methods"":[""GET"",""HEAD"",""POST"",""PUT"",""PATCH"",""DELETE"",""OPTIONS""]},""profile.remove"":{""uri"":""removeprofile"",""methods"":[""POST""]},""profile.upload"":{""uri"":""updateprofile"",""methods"":[""POST""]},""mypage.choosescrapfavourites"":{""uri"":""mypage\\/choosescrapfavourites"",""methods"":[""GET"",""HEAD"",""POST"",""PUT"",""PATCH"",""DELETE"",""OPTIONS""]},""sellerresponse.sendmessage"":{""uri"":""mypage\\/sendselleresponsepmb"",""methods"":[""GET"",""HEAD"",""POST"",""PUT"",""PATCH"",""DELETE"",""OPTIONS""]},""buyerresponse.sendmessage"":{""uri"":""mypage\\/sendbuyeresponsepmb"",""methods"":[""GET"",""HEAD"",""POST"",""PUT"",""PATCH"",""DELETE"",""OPTIONS""]},""buyerinquiry.sendmessage"":{""uri"":""mypage\\/sendbuyerinquirypmb"",""methods"":[""GET"",""HEAD"",""POST"",""PUT"",""PATCH"",""DELETE"",""OPTIONS""]},""sellerinquiry.sendmessage"":{""uri"":""mypage\\/sendsellerinquirypmb"",""methods"":[""GET"",""HEAD"",""POST"",""PUT"",""PATCH"",""DELETE"",""OPTIONS""]},""inquiry.sendmessage"":{""uri"":""mypage\\/sendinquirypmb"",""methods"":[""GET"",""HEAD"",""POST"",""PUT"",""PATCH"",""DELETE"",""OPTIONS""]},""profile.calc"":{""uri"":""calprofile"",""methods"":[""GET"",""HEAD"",""POST"",""PUT"",""PATCH"",""DELETE"",""OPTIONS""]},""download"":{""uri"":""get\\/{file_name}"",""methods"":[""GET"",""HEAD""],""parameters"":[""file_name""]},""download.attachments"":{""uri"":""attachments\\/{file_name}"",""methods"":[""GET"",""HEAD""],""parameters"":[""file_name""]},""buyoffer.save"":{""uri"":""buyoffers\\/preview"",""methods"":[""GET"",""HEAD"",""POST"",""PUT"",""PATCH"",""DELETE"",""OPTIONS""]},""aboutus"":{""uri"":""home\\/aboutus"",""methods"":[""GET"",""HEAD"",""POST"",""PUT"",""PATCH"",""DELETE"",""OPTIONS""]},""scamalert"":{""uri"":""home\\/scamalert"",""methods"":[""GET"",""HEAD"",""POST"",""PUT"",""PATCH"",""DELETE"",""OPTIONS""]},""privacy"":{""uri"":""home\\/privacy"",""methods"":[""GET"",""HEAD"",""POST"",""PUT"",""PATCH"",""DELETE"",""OPTIONS""]},""termsofservice"":{""uri"":""home\\/termsofservice"",""methods"":[""GET"",""HEAD"",""POST"",""PUT"",""PATCH"",""DELETE"",""OPTIONS""]},""refund"":{""uri"":""home\\/refund"",""methods"":[""GET"",""HEAD"",""POST"",""PUT"",""PATCH"",""DELETE"",""OPTIONS""]},""inquire.selloffer"":{""uri"":""inquiry\\/inquireselloffer"",""methods"":[""GET"",""HEAD"",""POST"",""PUT"",""PATCH"",""DELETE"",""OPTIONS""]},""inquireselloffer.save"":{""uri"":""inquiry\\/inquireselloffer\\/save"",""methods"":[""GET"",""HEAD"",""POST"",""PUT"",""PATCH"",""DELETE"",""OPTIONS""]},""inquire.Buyoffer"":{""uri"":""inquiry\\/inquirebuyoffer"",""methods"":[""GET"",""HEAD"",""POST"",""PUT"",""PATCH"",""DELETE"",""OPTIONS""]},""inquirebuyoffer.save"":{""uri"":""inquiry\\/inquirebuyoffer\\/save"",""methods"":[""GET"",""HEAD"",""POST"",""PUT"",""PATCH"",""DELETE"",""OPTIONS""]},""inquire.company"":{""uri"":""inquiry\\/inquirecompany"",""methods"":[""GET"",""HEAD"",""POST"",""PUT"",""PATCH"",""DELETE"",""OPTIONS""]},""inquire.company_save"":{""uri"":""inquiry\\/company\\/save"",""methods"":[""GET"",""HEAD"",""POST"",""PUT"",""PATCH"",""DELETE"",""OPTIONS""]},""sendmail"":{""uri"":""testmail"",""methods"":[""GET"",""HEAD"",""POST"",""PUT"",""PATCH"",""DELETE"",""OPTIONS""]},""whatsappprice.get"":{""uri"":""netadmin\\/whatsappprice"",""methods"":[""GET"",""HEAD"",""POST"",""PUT"",""PATCH"",""DELETE"",""OPTIONS""]},""southindianprice.get"":{""uri"":""netadmin\\/southindianprice"",""methods"":[""GET"",""HEAD"",""POST"",""PUT"",""PATCH"",""DELETE"",""OPTIONS""]},""northindianprice.get"":{""uri"":""netadmin\\/northindianprice"",""methods"":[""GET"",""HEAD"",""POST"",""PUT"",""PATCH"",""DELETE"",""OPTIONS""]},""usscrapprice.get"":{""uri"":""netadmin\\/usscrapprice"",""methods"":[""GET"",""HEAD"",""POST"",""PUT"",""PATCH"",""DELETE"",""OPTIONS""]},""hmswhatsappprice.get"":{""uri"":""netadmin\\/hmswhatsappprice"",""methods"":[""GET"",""HEAD"",""POST"",""PUT"",""PATCH"",""DELETE"",""OPTIONS""]},""copperwhatsappprice.get"":{""uri"":""netadmin\\/copperwhatsappprice"",""methods"":[""GET"",""HEAD"",""POST"",""PUT"",""PATCH"",""DELETE"",""OPTIONS""]},""notfollowedppmembers"":{""uri"":""netadmin\\/nonfollowedppcompanies"",""methods"":[""GET"",""HEAD"",""POST"",""PUT"",""PATCH"",""DELETE"",""OPTIONS""]},""notfollowedrenewmembers"":{""uri"":""netadmin\\/nonfollowedexpiredcompanies"",""methods"":[""GET"",""HEAD"",""POST"",""PUT"",""PATCH"",""DELETE"",""OPTIONS""]},""notfollowednmenquiries"":{""uri"":""netadmin\\/nonfollowednmenquiries"",""methods"":[""GET"",""HEAD"",""POST"",""PUT"",""PATCH"",""DELETE"",""OPTIONS""]},""image.resize"":{""uri"":""imagecheck"",""methods"":[""GET"",""HEAD""]},""image.show"":{""uri"":""imageshow"",""methods"":[""GET"",""HEAD""]},""scrapnews.latest"":{""uri"":""scrap-news"",""methods"":[""GET"",""HEAD""]},""scrapnews.general"":{""uri"":""scrap-news\\/General_news"",""methods"":[""GET"",""HEAD""]},""scrapnews.metal"":{""uri"":""scrap-news\\/Metal_news"",""methods"":[""GET"",""HEAD""]},""scrapnews.isricodes"":{""uri"":""scrap-news\\/ISRICodes_news"",""methods"":[""GET"",""HEAD""]},""scrapnews.all"":{""uri"":""scrap-news\\/allNews"",""methods"":[""GET"",""HEAD""]},""scrapnews.details"":{""uri"":""scrap-news\\/newsdetails-{id}"",""methods"":[""GET"",""HEAD""],""parameters"":[""id""]},""scrapresearch.prices"":{""uri"":""scrap-news\\/allResearchPrices"",""methods"":[""GET"",""HEAD""]},""scrapnews.imports"":{""uri"":""scrap-news\\/allimports"",""methods"":[""GET"",""HEAD""]},""scrapnews.authorprofile"":{""uri"":""scrap-news\\/author-{username}"",""methods"":[""GET"",""HEAD""],""parameters"":[""username""]},""rating.post"":{""uri"":""postrating"",""methods"":[""POST""]},""scrapprice.details"":{""uri"":""scrap-news\\/ResearchPriceDetails-{id}"",""methods"":[""GET"",""HEAD""],""parameters"":[""id""]},""scrapimport.details"":{""uri"":""scrap-news\\/importdetails-{id}"",""methods"":[""GET"",""HEAD""],""parameters"":[""id""]},""scrapnews.login"":{""uri"":""scrap-news\\/login"",""methods"":[""GET"",""HEAD"",""POST"",""PUT"",""PATCH"",""DELETE"",""OPTIONS""]},""scrapnews.logout"":{""uri"":""scrap-news-logout"",""methods"":[""POST""]},""author.authenticate"":{""uri"":""scrap-news-authenticate"",""methods"":[""POST""]},""scrap.mynews"":{""uri"":""scrap-my-news"",""methods"":[""GET"",""HEAD"",""POST"",""PUT"",""PATCH"",""DELETE"",""OPTIONS""]},""scrap.myprice"":{""uri"":""scrap-my-price"",""methods"":[""GET"",""HEAD"",""POST"",""PUT"",""PATCH"",""DELETE"",""OPTIONS""]},""scrap.myimports"":{""uri"":""scrap-my-imports"",""methods"":[""GET"",""HEAD"",""POST"",""PUT"",""PATCH"",""DELETE"",""OPTIONS""]},""scrap.mytickers"":{""uri"":""scrap-my-tickers"",""methods"":[""GET"",""HEAD"",""POST"",""PUT"",""PATCH"",""DELETE"",""OPTIONS""]},""scrap.unapprovedcomments"":{""uri"":""scrap-unapproved-comments"",""methods"":[""GET"",""HEAD"",""POST"",""PUT"",""PATCH"",""DELETE"",""OPTIONS""]},""scrap.destroysunapprovedcomments"":{""uri"":""scrap-destroysunapprovedcomments\\/{id}"",""methods"":[""GET"",""HEAD"",""POST"",""PUT"",""PATCH"",""DELETE"",""OPTIONS""],""parameters"":[""id""]},""scrap.adminapprovedComments"":{""uri"":""scrap-adminapproved-comments\\/{id}"",""methods"":[""DELETE""],""parameters"":[""id""]},""scrap.adminunapprovedComments"":{""uri"":""scrap-adminunapproved-comments\\/{id}"",""methods"":[""DELETE""],""parameters"":[""id""]},""admin.realscrapnews"":{""uri"":""scrap-admin\\/realtimenews"",""methods"":[""GET"",""HEAD"",""POST"",""PUT"",""PATCH"",""DELETE"",""OPTIONS""]},""scrapcategory.details"":{""uri"":""scrap-news\\/{Category}_news"",""methods"":[""GET"",""HEAD""],""parameters"":[""Category""]},""author.profile"":{""uri"":""author-profile"",""methods"":[""GET"",""HEAD""]},""author.changepassword"":{""uri"":""author-changepassword"",""methods"":[""GET"",""HEAD""]},""author.changeprofileimage"":{""uri"":""author-changeprofileimage"",""methods"":[""GET"",""HEAD""]},""scrapnews.addnews"":{""uri"":""add-news"",""methods"":[""GET"",""HEAD""]},""scrap.storeNews"":{""uri"":""scrap-storeNews"",""methods"":[""POST""]},""scrap.editnews"":{""uri"":""scrap-edit-news"",""methods"":[""GET"",""HEAD"",""POST"",""PUT"",""PATCH"",""DELETE"",""OPTIONS""]},""scrap.updateNews"":{""uri"":""scrap-updateNews\\/{newsID}"",""methods"":[""POST""],""parameters"":[""newsID""]},""scrap.destroyNews"":{""uri"":""scrap-destroyNews\\/{newsID}"",""methods"":[""DELETE""],""parameters"":[""newsID""]},""scrapnews.addresearchprice"":{""uri"":""add-research-price"",""methods"":[""GET"",""HEAD""]},""scrap.storeResearchPrice"":{""uri"":""scrap-storeResearchPrice"",""methods"":[""POST""]},""scrap.editprice"":{""uri"":""scrap-edit-price"",""methods"":[""GET"",""HEAD"",""POST"",""PUT"",""PATCH"",""DELETE"",""OPTIONS""]},""scrap.updatePrice"":{""uri"":""scrap-updatePrice\\/{id}"",""methods"":[""PUT""],""parameters"":[""id""]},""scrap.destroyPrice"":{""uri"":""scrap-destroyPrice\\/{id}"",""methods"":[""DELETE""],""parameters"":[""id""]},""scrapnews.addimports"":{""uri"":""add-imports"",""methods"":[""GET"",""HEAD""]},""scrap.storeImport"":{""uri"":""scrap-storeImport"",""methods"":[""POST""]},""scrapnews.editimports"":{""uri"":""edit-imports"",""methods"":[""GET"",""HEAD""]},""scrap.destroyImports"":{""uri"":""scrap-destroyImports\\/{id}"",""methods"":[""DELETE""],""parameters"":[""id""]},""scrapnews.addticker"":{""uri"":""add-ticker"",""methods"":[""GET"",""HEAD""]},""scrap.storeTicker"":{""uri"":""scrap-storeTicker"",""methods"":[""POST""]},""author.register"":{""uri"":""scrap-news\\/register"",""methods"":[""GET"",""HEAD""]},""scrap.authorstore"":{""uri"":""scrap-authorstore"",""methods"":[""POST""]},""scrap.authorupdate"":{""uri"":""scrap-authorupdate\\/{id}"",""methods"":[""POST""],""parameters"":[""id""]},""scrap.updatePassword"":{""uri"":""scrap-updatePassword\\/{id}"",""methods"":[""POST""],""parameters"":[""id""]},""scrap.updateProfileImage"":{""uri"":""scrap-updateProfileImage\\/{id}"",""methods"":[""POST""],""parameters"":[""id""]},""scrap.myisris"":{""uri"":""scrap-my-isri-codes"",""methods"":[""GET"",""HEAD"",""POST"",""PUT"",""PATCH"",""DELETE"",""OPTIONS""]},""scrap.editmyisris"":{""uri"":""scrap-edit-my-isri-codes"",""methods"":[""GET"",""HEAD"",""POST"",""PUT"",""PATCH"",""DELETE"",""OPTIONS""]},""scrap.updatemyisris"":{""uri"":""scrap-update-my-isri-codes\\/{id}"",""methods"":[""GET"",""HEAD"",""POST"",""PUT"",""PATCH"",""DELETE"",""OPTIONS""],""parameters"":[""id""]},""check-scrap-news-username"":{""uri"":""check-scrap-news-username"",""methods"":[""POST""]},""scrap.destroyTickers"":{""uri"":""scrap-destroyTickers\\/{ID}"",""methods"":[""DELETE""],""parameters"":[""ID""]},""admin.allnews"":{""uri"":""scrap-admin-news"",""methods"":[""GET"",""HEAD"",""POST"",""PUT"",""PATCH"",""DELETE"",""OPTIONS""]},""admin.updateapprovalstatus"":{""uri"":""update-approval-status"",""methods"":[""POST""]},""admin.updateunapprovalstatus"":{""uri"":""update-unapproval-status"",""methods"":[""POST""]},""admin.allresearchprices"":{""uri"":""scrap-admin-prices"",""methods"":[""GET"",""HEAD"",""POST"",""PUT"",""PATCH"",""DELETE"",""OPTIONS""]},""scrap.admineditprice"":{""uri"":""scrap-adminedit-price"",""methods"":[""GET"",""HEAD"",""POST"",""PUT"",""PATCH"",""DELETE"",""OPTIONS""]},""admin.unapprovedcomments"":{""uri"":""scrap-admin-unapproved-comments"",""methods"":[""GET"",""HEAD"",""POST"",""PUT"",""PATCH"",""DELETE"",""OPTIONS""]},""admin.editunapproveddetails"":{""uri"":""scrap-admin-editunapproved-details"",""methods"":[""GET"",""HEAD"",""POST"",""PUT"",""PATCH"",""DELETE"",""OPTIONS""]},""admin.updateadminunapprovalstatus"":{""uri"":""update-adminunapproval-status"",""methods"":[""POST""]},""scrap.bulkDeleteunapprovedcomments"":{""uri"":""scrap-bulk-delete-unapprovedcomments"",""methods"":[""POST""]},""scrap.bulkDeleteapprovedcomments"":{""uri"":""scrap-bulk-delete-approvedcomments"",""methods"":[""POST""]},""unapproved.details"":{""uri"":""unapproved-details"",""methods"":[""GET"",""HEAD""]},""admin.approvedcomments"":{""uri"":""scrap-admin-approved-comments"",""methods"":[""GET"",""HEAD"",""POST"",""PUT"",""PATCH"",""DELETE"",""OPTIONS""]},""admin.updateadminunapprovalcomment"":{""uri"":""update-adminunapproval-comment"",""methods"":[""POST""]},""admin.updateauthorapprovalcomment"":{""uri"":""update-Authorapproval-comment"",""methods"":[""POST""]},""admin.editapproveddetails"":{""uri"":""scrap-admin-editapproved-details"",""methods"":[""GET"",""HEAD"",""POST"",""PUT"",""PATCH"",""DELETE"",""OPTIONS""]},""admin.subscribers"":{""uri"":""scrap-admin-subscribers"",""methods"":[""GET"",""HEAD"",""POST"",""PUT"",""PATCH"",""DELETE"",""OPTIONS""]},""scrap.DeleteSubscribers"":{""uri"":""scrap-delete-subscribers\\/{id}"",""methods"":[""DELETE""],""parameters"":[""id""]},""scrap.bulkDeleteSubscribers"":{""uri"":""scrap-bulk-delete-subscribers"",""methods"":[""POST""]},""admin.editsubscribers"":{""uri"":""scrap-adminedit-subscribers"",""methods"":[""GET"",""HEAD"",""POST"",""PUT"",""PATCH"",""DELETE"",""OPTIONS""]},""admin.updatesubscribers"":{""uri"":""scrap-adminupdate-subscribers\\/{id}"",""methods"":[""POST""],""parameters"":[""id""]},""admin.unapprovedsubscribers"":{""uri"":""scrap-admin-unapproved-subscribers"",""methods"":[""GET"",""HEAD"",""POST"",""PUT"",""PATCH"",""DELETE"",""OPTIONS""]},""admin.updateunapprovedsubscribers"":{""uri"":""scrap-adminupdate-unapprovedsubscribers\\/{id}"",""methods"":[""PUT""],""parameters"":[""id""]},""admin.approvednews"":{""uri"":""scrap-admin-approved-news"",""methods"":[""GET"",""HEAD"",""POST"",""PUT"",""PATCH"",""DELETE"",""OPTIONS""]},""admin.unapprovednews"":{""uri"":""scrap-admin-unapproved-news"",""methods"":[""GET"",""HEAD"",""POST"",""PUT"",""PATCH"",""DELETE"",""OPTIONS""]},""admin.approvedauthors"":{""uri"":""scrap-admin-approved-authors"",""methods"":[""GET"",""HEAD"",""POST"",""PUT"",""PATCH"",""DELETE"",""OPTIONS""]},""author.editapproved"":{""uri"":""author-editapproved-authors"",""methods"":[""GET"",""HEAD""]},""admin.updateauthorapprovalstatus"":{""uri"":""update-Authorapproval-status"",""methods"":[""POST""]},""author.editapproveddetalis"":{""uri"":""author-editapproveddetalis"",""methods"":[""GET"",""HEAD""]},""admin.unapprovedauthors"":{""uri"":""scrap-admin-unapproved-authors"",""methods"":[""GET"",""HEAD"",""POST"",""PUT"",""PATCH"",""DELETE"",""OPTIONS""]},""author.editunapproved"":{""uri"":""author-editunapproved-authors"",""methods"":[""GET"",""HEAD""]},""admin.alltickers"":{""uri"":""scrap-admin-all-tickers"",""methods"":[""GET"",""HEAD"",""POST"",""PUT"",""PATCH"",""DELETE"",""OPTIONS""]},""scrapnews.edittickers"":{""uri"":""scrap-admin-edit-tickers"",""methods"":[""GET"",""HEAD""]},""admin.updateticker"":{""uri"":""scrap-adminupdate-ticker\\/{id}"",""methods"":[""POST""],""parameters"":[""id""]},""scrap.destroyTicker"":{""uri"":""scrap-destroyTicker\\/{ID}"",""methods"":[""DELETE""],""parameters"":[""ID""]},""author.articles"":{""uri"":""scrap-news\\/{author}_articles"",""methods"":[""GET"",""HEAD""],""parameters"":[""author""]},""update.UpdateScrapPrices"":{""uri"":""netadmin\\/PriceUpdate\\/UpdateScrapPrices"",""methods"":[""POST""]},""price.destroy"":{""uri"":""netadmin\\/destroy-price\\/{id}"",""methods"":[""DELETE""],""parameters"":[""id""]},""update.SouthIndianScrapPrices"":{""uri"":""netadmin\\/PriceUpdate\\/UpdateSouthIndianScrapPrices"",""methods"":[""POST""]},""update.USplasticprices"":{""uri"":""netadmin\\/PriceUpdate\\/UpdateUSplasticprices"",""methods"":[""POST""]},""update.UKscrapprices"":{""uri"":""netadmin\\/PriceUpdate\\/UpdateUKscrapprices"",""methods"":[""POST""]},""update.USscrapprices"":{""uri"":""netadmin\\/PriceUpdate\\/UpdateUSscrapprices"",""methods"":[""POST""]},""update.ShanghaiSpotprices"":{""uri"":""netadmin\\/PriceUpdate\\/UpdateShanghaiSpotprices"",""methods"":[""POST""]},""update.EastIndianScrapPrices"":{""uri"":""netadmin\\/PriceUpdate\\/UpdateEastIndianScrapPrices"",""methods"":[""POST""]},""update.NorthIndianScrapPrices"":{""uri"":""netadmin\\/PriceUpdate\\/UpdateNorthIndianScrapPrices"",""methods"":[""POST""]},""update.WestIndianScrapPrices"":{""uri"":""netadmin\\/PriceUpdate\\/UpdateWestIndianScrapPrices"",""methods"":[""POST""]},""update.SteelPrices"":{""uri"":""netadmin\\/PriceUpdate\\/SteelPrices"",""methods"":[""GET"",""HEAD""]},""update.UpdateUSSteelPrices"":{""uri"":""netadmin\\/PriceUpdate\\/UpdateUSSteelPrices"",""methods"":[""POST""]},""update.UpdateUKSteelPrices"":{""uri"":""netadmin\\/PriceUpdate\\/UpdateUKSteelPrices"",""methods"":[""POST""]},""sitemap"":{""uri"":""netadmin\\/sitemap"",""methods"":[""GET"",""HEAD""]},""xml.sitemap"":{""uri"":""netadmin\\/generate-xmlsitemap"",""methods"":[""GET"",""HEAD"",""POST"",""PUT"",""PATCH"",""DELETE"",""OPTIONS""]},""image.sitemap"":{""uri"":""netadmin\\/generate-imagesitemap"",""methods"":[""GET"",""HEAD"",""POST"",""PUT"",""PATCH"",""DELETE"",""OPTIONS""]},""xml.sitemap.status"":{""uri"":""netadmin\\/sitemap-status"",""methods"":[""GET"",""HEAD""]},""machinery.home"":{""uri"":""machinery\\/home"",""methods"":[""GET"",""HEAD""]},""machinery.login"":{""uri"":""machinery\\/login"",""methods"":[""GET"",""HEAD"",""POST"",""PUT"",""PATCH"",""DELETE"",""OPTIONS""]},""machinery.register"":{""uri"":""machinery\\/register"",""methods"":[""GET"",""HEAD"",""POST"",""PUT"",""PATCH"",""DELETE"",""OPTIONS""]},""machinery.forgotpassword"":{""uri"":""machinery\\/forgotpassword"",""methods"":[""GET"",""HEAD"",""POST"",""PUT"",""PATCH"",""DELETE"",""OPTIONS""]},""machinery.ChangePassword"":{""uri"":""machinery\\/changepassword"",""methods"":[""GET"",""HEAD"",""POST"",""PUT"",""PATCH"",""DELETE"",""OPTIONS""]},""machinery.editprofile"":{""uri"":""machinery\\/editprofile"",""methods"":[""GET"",""HEAD"",""POST"",""PUT"",""PATCH"",""DELETE"",""OPTIONS""]},""machinery.updateprofiledetails"":{""uri"":""machinery\\/update-profile"",""methods"":[""GET"",""HEAD"",""POST"",""PUT"",""PATCH"",""DELETE"",""OPTIONS""]},""machinery.check-username"":{""uri"":""machinery\\/check-username"",""methods"":[""POST""]},""machinery.check-email"":{""uri"":""machinery\\/check-email"",""methods"":[""POST""]},""machinery.registerstep"":{""uri"":""machinery\\/registerstep"",""methods"":[""GET"",""HEAD"",""POST"",""PUT"",""PATCH"",""DELETE"",""OPTIONS""]},""machinery.firststep"":{""uri"":""machinery\\/registerstep1"",""methods"":[""POST""]},""machinery.buyerRegisterStep"":{""uri"":""machinery\\/buyerRegisterStep"",""methods"":[""GET"",""HEAD"",""POST"",""PUT"",""PATCH"",""DELETE"",""OPTIONS""]},""machinery.buyerfirststep"":{""uri"":""machinery\\/buyerregisterstep1"",""methods"":[""POST""]},""machinery.registerconfirm"":{""uri"":""machinery\\/registerconfirm\\/{userID}"",""methods"":[""GET"",""HEAD"",""POST"",""PUT"",""PATCH"",""DELETE"",""OPTIONS""],""parameters"":[""userID""]},""machinery.validate"":{""uri"":""machinery\\/user\\/validate"",""methods"":[""GET"",""HEAD"",""POST"",""PUT"",""PATCH"",""DELETE"",""OPTIONS""]},""machinery.authenticate"":{""uri"":""machinery\\/user\\/authenticate"",""methods"":[""GET"",""HEAD"",""POST"",""PUT"",""PATCH"",""DELETE"",""OPTIONS""]},""machinery.addmachinery"":{""uri"":""machinery\\/addmachinery"",""methods"":[""GET"",""HEAD""]},""machinery.store"":{""uri"":""machinery\\/store"",""methods"":[""POST""]},""machinery.edit"":{""uri"":""machinery\\/edit"",""methods"":[""GET"",""HEAD"",""POST"",""PUT"",""PATCH"",""DELETE"",""OPTIONS""]},""machinery.update"":{""uri"":""machinery\\/update\\/{id}"",""methods"":[""GET"",""HEAD"",""POST"",""PUT"",""PATCH"",""DELETE"",""OPTIONS""],""parameters"":[""id""]},""machinery.view"":{""uri"":""machinery\\/view\\/{id}"",""methods"":[""GET"",""HEAD""],""parameters"":[""id""]},""machinery.modify"":{""uri"":""machinery\\/modifyMachineryDetails\\/{id}"",""methods"":[""POST""],""parameters"":[""id""]},""machineryapprove.modify"":{""uri"":""machinery\\/modifyMachineryApproveDetails\\/{id}"",""methods"":[""POST""],""parameters"":[""id""]},""machinery.destroy"":{""uri"":""machinery\\/destroy\\/{id}"",""methods"":[""DELETE""],""parameters"":[""id""]},""machinery.banner"":{""uri"":""machinery\\/sitebanner"",""methods"":[""GET"",""HEAD""]},""machineryrazorpay.success"":{""uri"":""machineryrazorpayment.success"",""methods"":[""GET"",""HEAD""]},""machineryrazorpay.capture"":{""uri"":""razorpayment\\/capture"",""methods"":[""POST""]},""machinerypayment.success"":{""uri"":""machinery\\/paymentsuccess"",""methods"":[""GET"",""HEAD"",""POST"",""PUT"",""PATCH"",""DELETE"",""OPTIONS""]},""machineryrazorpay.subscriptioncapture"":{""uri"":""subscription-capture"",""methods"":[""GET"",""HEAD"",""POST"",""PUT"",""PATCH"",""DELETE"",""OPTIONS""]},""machinery.supplierlist"":{""uri"":""machinery\\/supplierList"",""methods"":[""GET"",""HEAD""]},""inquire.machinery"":{""uri"":""machinery\\/inquiremachinery"",""methods"":[""GET"",""HEAD"",""POST"",""PUT"",""PATCH"",""DELETE"",""OPTIONS""]},""inquiremachinery.save"":{""uri"":""machinery\\/inquiremachinery\\/save"",""methods"":[""POST""]},""machinery.inquire"":{""uri"":""machinery\\/inquire"",""methods"":[""GET"",""HEAD"",""POST"",""PUT"",""PATCH"",""DELETE"",""OPTIONS""]},""inquiry.view"":{""uri"":""inquiry\\/view\\/{id}"",""methods"":[""GET"",""HEAD""],""parameters"":[""id""]},""machineryinquiry.sendmessage"":{""uri"":""inquiry\\/sendinquiry"",""methods"":[""GET"",""HEAD"",""POST"",""PUT"",""PATCH"",""DELETE"",""OPTIONS""]},""machinery.contactus"":{""uri"":""machinery\\/contactus"",""methods"":[""GET"",""HEAD"",""POST"",""PUT"",""PATCH"",""DELETE"",""OPTIONS""]},""machinery.dmregister"":{""uri"":""machinery\\/dmregister"",""methods"":[""POST""]},""machineryDM.edit"":{""uri"":""machinery\\/editdm"",""methods"":[""GET"",""HEAD"",""POST"",""PUT"",""PATCH"",""DELETE"",""OPTIONS""]},""machinery.updatedm"":{""uri"":""machinery\\/updatedm\\/{id}"",""methods"":[""GET"",""HEAD"",""POST"",""PUT"",""PATCH"",""DELETE"",""OPTIONS""],""parameters"":[""id""]},""machinery.modifydm"":{""uri"":""machinery\\/modifyAssignDMDetails\\/{id}"",""methods"":[""POST""],""parameters"":[""id""]},""manage.category"":{""uri"":""machinery\\/manage\\/category"",""methods"":[""GET"",""HEAD""]},""machinery.updatecategory"":{""uri"":""machinery\\/updatemanage\\/category"",""methods"":[""POST""]},""machinery.uploadbanner"":{""uri"":""machinery\\/uploadbanner"",""methods"":[""GET"",""HEAD"",""POST"",""PUT"",""PATCH"",""DELETE"",""OPTIONS""]},""machinery.addMultipleToCart"":{""uri"":""machinery\\/add-multiple-to-cart"",""methods"":[""POST""]},""machinery.admin-home"":{""uri"":""machinery\\/dashboard"",""methods"":[""GET"",""HEAD""]},""nonmemmachinery.inquire"":{""uri"":""machinery\\/non-memberinquire"",""methods"":[""GET"",""HEAD"",""POST"",""PUT"",""PATCH"",""DELETE"",""OPTIONS""]},""supplier.inquire"":{""uri"":""machinery\\/supplierinquire"",""methods"":[""GET"",""HEAD"",""POST"",""PUT"",""PATCH"",""DELETE"",""OPTIONS""]},""suppliernonmemmachinery.inquire"":{""uri"":""machinery\\/suppliernon-memberinquire"",""methods"":[""GET"",""HEAD"",""POST"",""PUT"",""PATCH"",""DELETE"",""OPTIONS""]},""machinery.revenueoverview"":{""uri"":""machinery\\/revenue-overview"",""methods"":[""GET"",""HEAD""]},""machinery.logo"":{""uri"":""machinery\\/logo"",""methods"":[""GET"",""HEAD""]},""machinery.uploadlogo"":{""uri"":""machinery\\/uploadlogo"",""methods"":[""GET"",""HEAD"",""POST"",""PUT"",""PATCH"",""DELETE"",""OPTIONS""]},""rim.machinery"":{""uri"":""machinery\\/rim-machinery"",""methods"":[""GET"",""HEAD"",""POST"",""PUT"",""PATCH"",""DELETE"",""OPTIONS""]},""browse.plans"":{""uri"":""machinery\\/price-plans"",""methods"":[""GET"",""HEAD"",""POST"",""PUT"",""PATCH"",""DELETE"",""OPTIONS""]},""machinery.logout"":{""uri"":""machinery\\/logout"",""methods"":[""GET"",""HEAD"",""POST"",""PUT"",""PATCH"",""DELETE"",""OPTIONS""]},""machinery.carts"":{""uri"":""machinery\\/carts"",""methods"":[""GET"",""HEAD"",""POST"",""PUT"",""PATCH"",""DELETE"",""OPTIONS""]},""machinery.addcart"":{""uri"":""machinery\\/add-cart"",""methods"":[""POST""]},""machinery.deletecart"":{""uri"":""machinery\\/delete-cart\\/{id}"",""methods"":[""DELETE""],""parameters"":[""id""]},""machinery.item"":{""uri"":""recycleinme-machinery-{username}\\/offer-{id}"",""methods"":[""GET"",""HEAD""],""parameters"":[""username"",""id""]},""machinery.seller"":{""uri"":""machinery\\/cart-items"",""methods"":[""GET"",""HEAD""]},""machinery.approve"":{""uri"":""machinery\\/admin\\/machine-approve"",""methods"":[""POST""]},""machinery.unapprove"":{""uri"":""machinery\\/admin\\/machine-unapprove"",""methods"":[""POST""]},""machinery.userslist"":{""uri"":""machinery\\/admin\\/users-list"",""methods"":[""GET"",""HEAD""]},""machinery.sellermachines"":{""uri"":""machinery\\/admin\\/seller-machines\\/{id}"",""methods"":[""GET"",""HEAD""],""parameters"":[""id""]},""machinery.processCheckout"":{""uri"":""machinery\\/cart\\/order"",""methods"":[""POST""]},""machinery.orderdetails"":{""uri"":""machinery\\/orders"",""methods"":[""GET"",""HEAD""]},""machinery.sellersorders"":{""uri"":""machinery\\/sellers-orders"",""methods"":[""GET"",""HEAD""]},""machinery.buyoffer"":{""uri"":""machinery\\/machines-offer"",""methods"":[""GET"",""HEAD""]},""assigned.sellers"":{""uri"":""machinery\\/assigned-sellers"",""methods"":[""GET"",""HEAD""]},""comapany.machines"":{""uri"":""recycleinme-machinery-{username}\\/home"",""methods"":[""GET"",""HEAD""],""parameters"":[""username""]},""machinery.upgradeplan"":{""uri"":""machinery\\/upgrade-plan"",""methods"":[""GET"",""HEAD"",""POST"",""PUT"",""PATCH"",""DELETE"",""OPTIONS""]},""machinerymember.upgrade"":{""uri"":""home\\/upgrade\\/{userID}"",""methods"":[""GET"",""HEAD"",""POST"",""PUT"",""PATCH"",""DELETE"",""OPTIONS""],""parameters"":[""userID""]},""machinery.topratedcompanies"":{""uri"":""machinery\\/top-rated-companies"",""methods"":[""GET"",""HEAD""]},""machinery.remove.topratedcompanies"":{""uri"":""machinery\\/top-rated-companies\\/remove"",""methods"":[""GET"",""HEAD"",""POST"",""PUT"",""PATCH"",""DELETE"",""OPTIONS""]},""machinery.removeall.topratedcompanies"":{""uri"":""machinery\\/top-rated-companies\\/remove-all"",""methods"":[""GET"",""HEAD"",""POST"",""PUT"",""PATCH"",""DELETE"",""OPTIONS""]},""machinery.promote.topratedcompanies"":{""uri"":""machinery\\/top-rated-companies\\/promote"",""methods"":[""GET"",""HEAD"",""POST"",""PUT"",""PATCH"",""DELETE"",""OPTIONS""]},""machinery.promoteall.topratedcompanies"":{""uri"":""machinery\\/top-rated-companies\\/promote-all"",""methods"":[""GET"",""HEAD"",""POST"",""PUT"",""PATCH"",""DELETE"",""OPTIONS""]},""machinery.aboutus"":{""uri"":""machinery\\/aboutus"",""methods"":[""GET"",""HEAD""]},""machinery.privacypolicy"":{""uri"":""machinery\\/privacy-policy"",""methods"":[""GET"",""HEAD""]},""machinery.termsofservice"":{""uri"":""machinery\\/terms-of-service"",""methods"":[""GET"",""HEAD""]},""machinery.buyerinquiries"":{""uri"":""machinery\\/buyer-inquiries"",""methods"":[""GET"",""HEAD""]},""machinery.deletesessioncart"":{""uri"":""machinery\\/remove-session-cart"",""methods"":[""DELETE""]},""machinery.removeMultipleSessionItems"":{""uri"":""machinery\\/remove-multiple-session-items"",""methods"":[""DELETE""]},""machinery.allrecentcompanies"":{""uri"":""machinery\\/get-allrecentcompanies"",""methods"":[""GET"",""HEAD""]},""machinery.companies.dminfo"":{""uri"":""machinery\\/companies-with-dminfo"",""methods"":[""GET"",""HEAD""]},""machinery.notassignedcompanies"":{""uri"":""machinery\\/not-assignedcompanies"",""methods"":[""GET"",""HEAD""]},""machinery.paymentpendingcompanies"":{""uri"":""machinery\\/paymentpending-companies"",""methods"":[""GET"",""HEAD""]},""machinery.getrenewingshortlycompanies"":{""uri"":""machinery\\/renewing-shortly-companies"",""methods"":[""GET"",""HEAD""]},""machinery.renewedcompanies"":{""uri"":""machinery\\/renewed-companies"",""methods"":[""GET"",""HEAD""]},""machinery.notrenewedcompanies"":{""uri"":""machinery\\/not-renewed-companies"",""methods"":[""GET"",""HEAD""]},""machinery.paidcompanies"":{""uri"":""machinery\\/paid-companies"",""methods"":[""GET"",""HEAD""]},""machinery.findcompany"":{""uri"":""machinery\\/find-company"",""methods"":[""GET"",""HEAD""]},""machinery.fullcompanydetails"":{""uri"":""machinery\\/companyDetails"",""methods"":[""GET"",""HEAD""]},""machinery.updateemail"":{""uri"":""machinery\\/admin\\/updateemail"",""methods"":[""POST""]},""machinery.updatelocation"":{""uri"":""machinery\\/admin\\/updatelocation"",""methods"":[""POST""]},""machinery.updatecompanyname"":{""uri"":""machinery\\/admin\\/updatecompanyname"",""methods"":[""POST""]},""machinery.updatemobileno"":{""uri"":""machinery\\/admin\\/updatecmobileno"",""methods"":[""POST""]},""machinery.assigndm"":{""uri"":""machinery\\/admin\\/assigndm"",""methods"":[""POST""]},""machinery.findcompanybyinput"":{""uri"":""machinery\\/admin\\/findcompanybyinput"",""methods"":[""POST""]},""machinery.sellmachine.inquiries"":{""uri"":""machinery\\/sellermachine-inquiries"",""methods"":[""GET"",""HEAD""]},""machinery.sellcompany.inquiries"":{""uri"":""machinery\\/sellercompany-inquiries"",""methods"":[""GET"",""HEAD""]},""machinery.sitemap"":{""uri"":""machinery\\/sitemap"",""methods"":[""GET"",""HEAD""]},""machinery.xmlsitemap"":{""uri"":""machinery\\/generate-xmlsitemap"",""methods"":[""GET"",""HEAD"",""POST"",""PUT"",""PATCH"",""DELETE"",""OPTIONS""]},""machinery.sitemap.status"":{""uri"":""machinery\\/sitemap-status"",""methods"":[""GET"",""HEAD""]},""machinery.paypal.subscribe"":{""uri"":""machinery\\/paypal-subscribe"",""methods"":[""POST""]},""paypal_payment"":{""uri"":""machinery\\/paypal"",""methods"":[""POST""]},""paypal.success"":{""uri"":""machinery\\/paypal\\/success"",""methods"":[""GET"",""HEAD"",""POST"",""PUT"",""PATCH"",""DELETE"",""OPTIONS""]},""paypal.cancel"":{""uri"":""machinery\\/paypal\\/cancel"",""methods"":[""GET"",""HEAD"",""POST"",""PUT"",""PATCH"",""DELETE"",""OPTIONS""]},""inquire.sellers"":{""uri"":""machinery\\/inquiresellers"",""methods"":[""GET"",""HEAD"",""POST"",""PUT"",""PATCH"",""DELETE"",""OPTIONS""]},""inquiresellers.save"":{""uri"":""machinery\\/inquiresellers\\/save"",""methods"":[""POST""]},""supplierinquiry.view"":{""uri"":""supplierinquiry\\/view\\/{id}"",""methods"":[""GET"",""HEAD""],""parameters"":[""id""]},""supplierinquiry.sendmessage"":{""uri"":""supplierinquiry\\/sendinquiry"",""methods"":[""GET"",""HEAD"",""POST"",""PUT"",""PATCH"",""DELETE"",""OPTIONS""]},""register"":{""uri"":""register"",""methods"":[""GET"",""HEAD""]},""login"":{""uri"":""login"",""methods"":[""GET"",""HEAD""]},""password.request"":{""uri"":""forgot-password"",""methods"":[""GET"",""HEAD""]},""password.email"":{""uri"":""forgot-password"",""methods"":[""POST""]},""password.reset"":{""uri"":""reset-password\\/{token}"",""methods"":[""GET"",""HEAD""],""parameters"":[""token""]},""password.store"":{""uri"":""reset-password"",""methods"":[""POST""]},""verification.notice"":{""uri"":""verify-email"",""methods"":[""GET"",""HEAD""]},""verification.verify"":{""uri"":""verify-email\\/{id}\\/{hash}"",""methods"":[""GET"",""HEAD""],""parameters"":[""id"",""hash""]},""verification.send"":{""uri"":""email\\/verification-notification"",""methods"":[""POST""]},""password.confirm"":{""uri"":""confirm-password"",""methods"":[""GET"",""HEAD""]},""password.update"":{""uri"":""password"",""methods"":[""PUT""]},""logout"":{""uri"":""logout"",""methods"":[""POST""]}}};!function(t,r){""object""==typeof exports&&""undefined""!=typeof module?module.exports=r():""function""==typeof define&&define.amd?define(r):(t||self).route=r()}(this,function(){function t(t,r){for(var n=0;n<r.length;n++){var e=r[n];e.enumerable=e.enumerable||!1,e.configurable=!0,""value""in e&&(e.writable=!0),Object.defineProperty(t,u(e.key),e)}}function r(r,n,e){return n&&t(r.prototype,n),e&&t(r,e),Object.defineProperty(r,""prototype"",{writable:!1}),r}function n(){return n=Object.assign?Object.assign.bind():function(t){for(var r=1;r<arguments.length;r++){var n=arguments[r];for(var e in n)({}).hasOwnProperty.call(n,e)&&(t[e]=n[e])}return t},n.apply(null,arguments)}function e(t){return e=Object.setPrototypeOf?Object.getPrototypeOf.bind():function(t){return t.__proto__||Object.getPrototypeOf(t)},e(t)}function o(){try{var t=!Boolean.prototype.valueOf.call(Reflect.construct(Boolean,[],function(){}))}catch(t){}return(o=function(){return!!t})()}function i(t,r){return i=Object.setPrototypeOf?Object.setPrototypeOf.bind():function(t,r){return t.__proto__=r,t},i(t,r)}function u(t){var r=function(t){if(""object""!=typeof t||!t)return t;var r=t[Symbol.toPrimitive];if(void 0!==r){var n=r.call(t,""string"");if(""object""!=typeof n)return n;throw new TypeError(""@@toPrimitive must return a primitive value."")}return String(t)}(t);return""symbol""==typeof r?r:r+""""}function f(t){var r=""function""==typeof Map?new Map:void 0;return f=function(t){if(null===t||!function(t){try{return-1!==Function.toString.call(t).indexOf(""[native code]"")}catch(r){return""function""==typeof t}}(t))return t;if(""function""!=typeof t)throw new TypeError(""Super expression must either be null or a function"");if(void 0!==r){if(r.has(t))return r.get(t);r.set(t,n)}function n(){return function(t,r,n){if(o())return Reflect.construct.apply(null,arguments);var e=[null];e.push.apply(e,r);var u=new(t.bind.apply(t,e));return n&&i(u,n.prototype),u}(t,arguments,e(this).constructor)}return n.prototype=Object.create(t.prototype,{constructor:{value:n,enumerable:!1,writable:!0,configurable:!0}}),i(n,t)},f(t)}var a=String.prototype.replace,c=/%20/g,l=""RFC3986"",s={default:l,formatters:{RFC1738:function(t){return a.call(t,c,""+"")},RFC3986:function(t){return String(t)}},RFC1738:""RFC1738"",RFC3986:l},v=Object.prototype.hasOwnProperty,p=Array.isArray,y=function(){for(var t=[],r=0;r<256;++r)t.push(""%""+((r<16?""0"":"""")+r.toString(16)).toUpperCase());return t}(),d=function(t,r){for(var n=r&&r.plainObjects?Object.create(null):{},e=0;e<t.length;++e)void 0!==t[e]&&(n[e]=t[e]);return n},b={arrayToObject:d,assign:function(t,r){return Object.keys(r).reduce(function(t,n){return t[n]=r[n],t},t)},combine:function(t,r){return[].concat(t,r)},compact:function(t){for(var r=[{obj:{o:t},prop:""o""}],n=[],e=0;e<r.length;++e)for(var o=r[e],i=o.obj[o.prop],u=Object.keys(i),f=0;f<u.length;++f){var a=u[f],c=i[a];""object""==typeof c&&null!==c&&-1===n.indexOf(c)&&(r.push({obj:i,prop:a}),n.push(c))}return function(t){for(;t.length>1;){var r=t.pop(),n=r.obj[r.prop];if(p(n)){for(var e=[],o=0;o<n.length;++o)void 0!==n[o]&&e.push(n[o]);r.obj[r.prop]=e}}}(r),t},decode:function(t,r,n){var e=t.replace(/\\+/g,"" "");if(""iso-8859-1""===n)return e.replace(/%[0-9a-f]{2}/gi,unescape);try{return decodeURIComponent(e)}catch(t){return e}},encode:function(t,r,n,e,o){if(0===t.length)return t;var i=t;if(""symbol""==typeof t?i=Symbol.prototype.toString.call(t):""string""!=typeof t&&(i=String(t)),""iso-8859-1""===n)return escape(i).replace(/%u[0-9a-f]{4}/gi,function(t){return""%26%23""+parseInt(t.slice(2),16)+""%3B""});for(var u="""",f=0;f<i.length;++f){var a=i.charCodeAt(f);45===a||46===a||95===a||126===a||a>=48&&a<=57||a>=65&&a<=90||a>=97&&a<=122||o===s.RFC1738&&(40===a||41===a)?u+=i.charAt(f):a<128?u+=y[a]:a<2048?u+=y[192|a>>6]+y[128|63&a]:a<55296||a>=57344?u+=y[224|a>>12]+y[128|a>>6&63]+y[128|63&a]:(a=65536+((1023&a)<<10|1023&i.charCodeAt(f+=1)),u+=y[240|a>>18]+y[128|a>>12&63]+y[128|a>>6&63]+y[128|63&a])}return u},isBuffer:function(t){return!(!t||""object""!=typeof t||!(t.constructor&&t.constructor.isBuffer&&t.constructor.isBuffer(t)))},isRegExp:function(t){return""[object RegExp]""===Object.prototype.toString.call(t)},maybeMap:function(t,r){if(p(t)){for(var n=[],e=0;e<t.length;e+=1)n.push(r(t[e]));return n}return r(t)},merge:function t(r,n,e){if(!n)return r;if(""object""!=typeof n){if(p(r))r.push(n);else{if(!r||""object""!=typeof r)return[r,n];(e&&(e.plainObjects||e.allowPrototypes)||!v.call(Object.prototype,n))&&(r[n]=!0)}return r}if(!r||""object""!=typeof r)return[r].concat(n);var o=r;return p(r)&&!p(n)&&(o=d(r,e)),p(r)&&p(n)?(n.forEach(function(n,o){if(v.call(r,o)){var i=r[o];i&&""object""==typeof i&&n&&""object""==typeof n?r[o]=t(i,n,e):r.push(n)}else r[o]=n}),r):Object.keys(n).reduce(function(r,o){var i=n[o];return r[o]=v.call(r,o)?t(r[o],i,e):i,r},o)}},h=Object.prototype.hasOwnProperty,g={brackets:function(t){return t+""[]""},comma:""comma"",indices:function(t,r){return t+""[""+r+""]""},repeat:function(t){return t}},m=Array.isArray,j=String.prototype.split,w=Array.prototype.push,O=function(t,r){w.apply(t,m(r)?r:[r])},E=Date.prototype.toISOString,R=s.default,S={addQueryPrefix:!1,allowDots:!1,charset:""utf-8"",charsetSentinel:!1,delimiter:""&"",encode:!0,encoder:b.encode,encodeValuesOnly:!1,format:R,formatter:s.formatters[R],indices:!1,serializeDate:function(t){return E.call(t)},skipNulls:!1,strictNullHandling:!1},k=function t(r,n,e,o,i,u,f,a,c,l,s,v,p,y){var d,h=r;if(""function""==typeof f?h=f(n,h):h instanceof Date?h=l(h):""comma""===e&&m(h)&&(h=b.maybeMap(h,function(t){return t instanceof Date?l(t):t})),null===h){if(o)return u&&!p?u(n,S.encoder,y,""key"",s):n;h=""""}if(""string""==typeof(d=h)||""number""==typeof d||""boolean""==typeof d||""symbol""==typeof d||""bigint""==typeof d||b.isBuffer(h)){if(u){var g=p?n:u(n,S.encoder,y,""key"",s);if(""comma""===e&&p){for(var w=j.call(String(h),"",""),E="""",R=0;R<w.length;++R)E+=(0===R?"""":"","")+v(u(w[R],S.encoder,y,""value"",s));return[v(g)+""=""+E]}return[v(g)+""=""+v(u(h,S.encoder,y,""value"",s))]}return[v(n)+""=""+v(String(h))]}var k,T=[];if(void 0===h)return T;if(""comma""===e&&m(h))k=[{value:h.length>0?h.join("","")||null:void 0}];else if(m(f))k=f;else{var $=Object.keys(h);k=a?$.sort(a):$}for(var x=0;x<k.length;++x){var N=k[x],C=""object""==typeof N&&void 0!==N.value?N.value:h[N];if(!i||null!==C){var A=m(h)?""function""==typeof e?e(n,N):n:n+(c?"".""+N:""[""+N+""]"");O(T,t(C,A,e,o,i,u,f,a,c,l,s,v,p,y))}}return T},T=Object.prototype.hasOwnProperty,$=Array.isArray,x={allowDots:!1,allowPrototypes:!1,arrayLimit:20,charset:""utf-8"",charsetSentinel:!1,comma:!1,decoder:b.decode,delimiter:""&"",depth:5,ignoreQueryPrefix:!1,interpretNumericEntities:!1,parameterLimit:1e3,parseArrays:!0,plainObjects:!1,strictNullHandling:!1},N=function(t){return t.replace(/&#(\\d+);/g,function(t,r){return String.fromCharCode(parseInt(r,10))})},C=function(t,r){return t&&""string""==typeof t&&r.comma&&t.indexOf("","")>-1?t.split("",""):t},A=function(t,r,n,e){if(t){var o=n.allowDots?t.replace(/\\.([^.[]+)/g,""[$1', 'scrapprice.get"":{""uri"":""scrapresources\\/pricehome"",""methods"":[""GET"",""HEAD"",""POST"",""PUT"",""PATCH"",""DELETE"",""OPTIONS""]},""getfreeprices.get"":{""uri"":""scrapresources\\/free_prices"",""methods"":[""GET"",""HEAD"",""POST"",""PUT"",""PATCH"",""DELETE"",""OPTIONS""]},""getscrapprices.get"":{""uri"":""scrapresources\\/scrap_prices"",""methods"":[""GET"",""HEAD"",""POST"",""PUT"",""PATCH"",""DELETE"",""OPTIONS""]},""getmetalprices.get"":{""uri"":""scrapresources\\/metal_prices"",""methods"":[""GET"",""HEAD"",""POST"",""PUT"",""PATCH"",""DELETE"",""OPTIONS""]},""getplasticprices.get"":{""uri"":""scrapresources\\/plastic_prices"",""methods"":[""GET"",""HEAD"",""POST"",""PUT"",""PATCH"",""DELETE"",""OPTIONS""]},""getprices"":{""uri"":""scrapresources\\/{country}_{category}"",""methods"":[""GET"",""HEAD"",""POST"",""PUT"",""PATCH"",""DELETE"",""OPTIONS""],""parameters"":[""country"",""category""]},""detailedprice.get"":{""uri"":""scrapresources\\/DetailedPrice"",""methods"":[""GET"",""HEAD"",""POST"",""PUT"",""PATCH"",""DELETE"",""OPTIONS""]},""gethmsprices.get"":{""uri"":""hmsprices\\/{category}\\/{subcategory}\\/{country}"",""methods"":[""GET"",""HEAD"",""POST"",""PUT"",""PATCH"",""DELETE"",""OPTIONS""],""parameters"":[""category"",""subcategory"",""country""]},""getcopperprices.get"":{""uri"":""copperprices\\/{category}\\/{subcategory}"",""methods"":[""GET"",""HEAD"",""POST"",""PUT"",""PATCH"",""DELETE"",""OPTIONS""],""parameters"":[""category"",""subcategory""]},""freepricelisting"":{""uri"":""freepricelisting\\/{type}"",""methods"":[""GET"",""HEAD"",""POST"",""PUT"",""PATCH"",""DELETE"",""OPTIONS""],""parameters"":[""type""]},""scrappricelisting"":{""uri"":""scrappricelisting\\/{type}"",""methods"":[""GET"",""HEAD"",""POST"",""PUT"",""PATCH"",""DELETE"",""OPTIONS""],""parameters"":[""type""]},""metalpricelisting"":{""uri"":""metalpricelisting\\/{type}"",""methods"":[""GET"",""HEAD"",""POST"",""PUT"",""PATCH"",""DELETE"",""OPTIONS""],""parameters"":[""type""]},""plasticpricelisting"":{""uri"":""plasticpricelisting\\/{type}"",""methods"":[""GET"",""HEAD"",""POST"",""PUT"",""PATCH"",""DELETE"",""OPTIONS""],""parameters"":[""type""]},""freepricedetails.get"":{""uri"":""freepricedetailedlisting\\/{category}\\/{subcategory}\\/{psect}"",""methods"":[""GET"",""HEAD"",""POST"",""PUT"",""PATCH"",""DELETE"",""OPTIONS""],""parameters"":[""category"",""subcategory"",""psect""]},""scrappricedetails.get"":{""uri"":""scrappricedetailedlisting\\/{category}\\/{subcategory}\\/{psect}"",""methods"":[""GET"",""HEAD"",""POST"",""PUT"",""PATCH"",""DELETE"",""OPTIONS""],""parameters"":[""category"",""subcategory"",""psect""]},""metalpricedetails.get"":{""uri"":""MetalPriceDetailedListing\\/{category}\\/{subcategory}\\/{psect}"",""methods"":[""GET"",""HEAD"",""POST"",""PUT"",""PATCH"",""DELETE"",""OPTIONS""],""parameters"":[""category"",""subcategory"",""psect""]},""plasticpricedetails.get"":{""uri"":""plasticpricedetailedlisting\\/{category}\\/{subcategory}\\/{psect}"",""methods"":[""GET"",""HEAD"",""POST"",""PUT"",""PATCH"",""DELETE"",""OPTIONS""],""parameters"":[""category"",""subcategory"",""psect""]},""mypage"":{""uri"":""mypage"",""methods"":[""GET"",""HEAD"",""POST"",""PUT"",""PATCH"",""DELETE"",""OPTIONS""]},""mypage.foryou"":{""uri"":""mypage\\/foryou"",""methods"":[""GET"",""HEAD"",""POST"",""PUT"",""PATCH"",""DELETE"",""OPTIONS""]},""admin.impersonate"":{""uri"":""admin\\/impersonate\\/{username}"",""methods"":[""GET"",""HEAD""],""parameters"":[""username""]},""myoffer.selloffer"":{""uri"":""selloffers\\/myoffer"",""methods"":[""GET"",""HEAD"",""POST"",""PUT"",""PATCH"",""DELETE"",""OPTIONS""]},""myoffer.buyoffer"":{""uri"":""buyoffers\\/myoffer"",""methods"":[""GET"",""HEAD"",""POST"",""PUT"",""PATCH"",""DELETE"",""OPTIONS""]},""mypage.mybuyerresponse"":{""uri"":""mypage\\/mybuyerresponses"",""methods"":[""GET"",""HEAD"",""POST"",""PUT"",""PATCH"",""DELETE"",""OPTIONS""]},""mypage.mysellerresponse"":{""uri"":""mypage\\/mysellerresponses"",""methods"":[""GET"",""HEAD"",""POST"",""PUT"",""PATCH"",""DELETE"",""OPTIONS""]},""mypage.mybuyerinquiries"":{""uri"":""mypage\\/mybuyerinquiries"",""methods"":[""GET"",""HEAD"",""POST"",""PUT"",""PATCH"",""DELETE"",""OPTIONS""]},""mypage.mysellerinquiries"":{""uri"":""mypage\\/mysellerinquiries"",""methods"":[""GET"",""HEAD"",""POST"",""PUT"",""PATCH"",""DELETE"",""OPTIONS""]},""buyerresponsedetails.get"":{""uri"":""mypage\\/buyerresponsedetails\\/{id}"",""methods"":[""GET"",""HEAD"",""POST"",""PUT"",""PATCH"",""DELETE"",""OPTIONS""],""parameters"":[""id""]},""sellerresponsedetails.get"":{""uri"":""mypage\\/sellerresponsedetails\\/{id}"",""methods"":[""GET"",""HEAD"",""POST"",""PUT"",""PATCH"",""DELETE"",""OPTIONS""],""parameters"":[""id""]},""buyerinquirydetails.get"":{""uri"":""mypage\\/buyerinquirydetails\\/{id}"",""methods"":[""GET"",""HEAD"",""POST"",""PUT"",""PATCH"",""DELETE"",""OPTIONS""],""parameters"":[""id""]},""sellerinquirydetails.get"":{""uri"":""mypage\\/sellerinquirydetails\\/{id}"",""methods"":[""GET"",""HEAD"",""POST"",""PUT"",""PATCH"",""DELETE"",""OPTIONS""],""parameters"":[""id""]},""mypage.myenquiries"":{""uri"":""mypage\\/myenquiries"",""methods"":[""GET"",""HEAD"",""POST"",""PUT"",""PATCH"",""DELETE"",""OPTIONS""]},""companyresponsedetails.get"":{""uri"":""mypage\\/enquirydetails\\/{id}"",""methods"":[""GET"",""HEAD"",""POST"",""PUT"",""PATCH"",""DELETE"",""OPTIONS""],""parameters"":[""id""]},""mypage.myinquiries"":{""uri"":""mypage\\/myinquiries"",""methods"":[""GET"",""HEAD"",""POST"",""PUT"",""PATCH"",""DELETE"",""OPTIONS""]},""companyinquirydetails.get"":{""uri"":""mypage\\/inquirydetails\\/{id}"",""methods"":[""GET"",""HEAD"",""POST"",""PUT"",""PATCH"",""DELETE"",""OPTIONS""],""parameters"":[""id""]},""mypage.managebuyalerts"":{""uri"":""mypage\\/managebuyalerts"",""methods"":[""GET"",""HEAD"",""POST"",""PUT"",""PATCH"",""DELETE"",""OPTIONS""]},""mypage.managesellalerts"":{""uri"":""mypage\\/modifysellalerts"",""methods"":[""GET"",""HEAD"",""POST"",""PUT"",""PATCH"",""DELETE"",""OPTIONS""]},""mypage.advancedprofile"":{""uri"":""mypage\\/advancedprofile\\/{username?}"",""methods"":[""GET"",""HEAD"",""POST"",""PUT"",""PATCH"",""DELETE"",""OPTIONS""],""parameters"":[""username""]},""mypage.myprofile"":{""uri"":""mypage\\/myprofile\\/{username?}"",""methods"":[""GET"",""HEAD"",""POST"",""PUT"",""PATCH"",""DELETE"",""OPTIONS""],""parameters"":[""username""]},""basicprofile.update"":{""uri"":""updatebasiceprofile"",""methods"":[""POST""]},""advancedprofile.update"":{""uri"":""updateadvancedprofile"",""methods"":[""POST""]},""mypage.companylogo"":{""uri"":""mypage\\/companylogo"",""methods"":[""GET"",""HEAD"",""POST"",""PUT"",""PATCH"",""DELETE"",""OPTIONS""]},""companylogo.remove"":{""uri"":""removecompanylogo"",""methods"":[""POST""]},""companylogo.upload"":{""uri"":""updatecompanylogo"",""methods"":[""POST""]},""mypage.updatesocial"":{""uri"":""mypage\\/socialmedia"",""methods"":[""GET"",""HEAD"",""POST"",""PUT"",""PATCH"",""DELETE"",""OPTIONS""]},""socialmedia.update"":{""uri"":""updatesocialmedia"",""methods"":[""POST""]},""mycredential.add"":{""uri"":""mypage\\/mycredential"",""methods"":[""GET"",""HEAD"",""POST"",""PUT"",""PATCH"",""DELETE"",""OPTIONS""]},""mydocuments.add"":{""uri"":""mypage\\/mydocuments"",""methods"":[""GET"",""HEAD"",""POST"",""PUT"",""PATCH"",""DELETE"",""OPTIONS""]},""myscraphome"":{""uri"":""mypage\\/scraphome"",""methods"":[""GET"",""HEAD"",""POST"",""PUT"",""PATCH"",""DELETE"",""OPTIONS""]},""changepassword"":{""uri"":""mypage\\/changepassword"",""methods"":[""GET"",""HEAD"",""POST"",""PUT"",""PATCH"",""DELETE"",""OPTIONS""]},""sellalerts.update"":{""uri"":""updatesellalerts"",""methods"":[""POST""]},""buyalerts.update"":{""uri"":""updatebuyalerts"",""methods"":[""POST""]},""mypage.notifications"":{""uri"":""mypage\\/notifications"",""methods"":[""GET"",""HEAD"",""POST"",""PUT"",""PATCH"",""DELETE"",""OPTIONS""]},""mypage.profileimage"":{""uri"":""mypage\\/profileimage"",""methods"":[""GET"",""HEAD"",""POST"",""PUT"",""PATCH"",""DELETE"",""OPTIONS""]},""profile.remove"":{""uri"":""removeprofile"",""methods"":[""POST""]},""profile.upload"":{""uri"":""updateprofile"",""methods"":[""POST""]},""mypage.choosescrapfavourites"":{""uri"":""mypage\\/choosescrapfavourites"",""methods"":[""GET"",""HEAD"",""POST"",""PUT"",""PATCH"",""DELETE"",""OPTIONS""]},""sellerresponse.sendmessage"":{""uri"":""mypage\\/sendselleresponsepmb"",""methods"":[""GET"",""HEAD"",""POST"",""PUT"",""PATCH"",""DELETE"",""OPTIONS""]},""buyerresponse.sendmessage"":{""uri"":""mypage\\/sendbuyeresponsepmb"",""methods"":[""GET"",""HEAD"",""POST"",""PUT"",""PATCH"",""DELETE"",""OPTIONS""]},""buyerinquiry.sendmessage"":{""uri"":""mypage\\/sendbuyerinquirypmb"",""methods"":[""GET"",""HEAD"",""POST"",""PUT"",""PATCH"",""DELETE"",""OPTIONS""]},""sellerinquiry.sendmessage"":{""uri"":""mypage\\/sendsellerinquirypmb"",""methods"":[""GET"",""HEAD"",""POST"",""PUT"",""PATCH"",""DELETE"",""OPTIONS""]},""inquiry.sendmessage"":{""uri"":""mypage\\/sendinquirypmb"",""methods"":[""GET"",""HEAD"",""POST"",""PUT"",""PATCH"",""DELETE"",""OPTIONS""]},""profile.calc"":{""uri"":""calprofile"",""methods"":[""GET"",""HEAD"",""POST"",""PUT"",""PATCH"",""DELETE"",""OPTIONS""]},""download"":{""uri"":""get\\/{file_name}"",""methods"":[""GET"",""HEAD""],""parameters"":[""file_name""]},""download.attachments"":{""uri"":""attachments\\/{file_name}"",""methods"":[""GET"",""HEAD""],""parameters"":[""file_name""]},""buyoffer.save"":{""uri"":""buyoffers\\/preview"",""methods"":[""GET"",""HEAD"",""POST"",""PUT"",""PATCH"",""DELETE"",""OPTIONS""]},""aboutus"":{""uri"":""home\\/aboutus"",""methods"":[""GET"",""HEAD"",""POST"",""PUT"",""PATCH"",""DELETE"",""OPTIONS""]},""scamalert"":{""uri"":""home\\/scamalert"",""methods"":[""GET"",""HEAD"",""POST"",""PUT"",""PATCH"",""DELETE"",""OPTIONS""]},""privacy"":{""uri"":""home\\/privacy"",""methods"":[""GET"",""HEAD"",""POST"",""PUT"",""PATCH"",""DELETE"",""OPTIONS""]},""termsofservice"":{""uri"":""home\\/termsofservice"",""methods"":[""GET"",""HEAD"",""POST"",""PUT"",""PATCH"",""DELETE"",""OPTIONS""]},""refund"":{""uri"":""home\\/refund"",""methods"":[""GET"",""HEAD"",""POST"",""PUT"",""PATCH"",""DELETE"",""OPTIONS""]},""inquire.selloffer"":{""uri"":""inquiry\\/inquireselloffer"",""methods"":[""GET"",""HEAD"",""POST"",""PUT"",""PATCH"",""DELETE"",""OPTIONS""]},""inquireselloffer.save"":{""uri"":""inquiry\\/inquireselloffer\\/save"",""methods"":[""GET"",""HEAD"",""POST"",""PUT"",""PATCH"",""DELETE"",""OPTIONS""]},""inquire.Buyoffer"":{""uri"":""inquiry\\/inquirebuyoffer"",""methods"":[""GET"",""HEAD"",""POST"",""PUT"",""PATCH"",""DELETE"",""OPTIONS""]},""inquirebuyoffer.save"":{""uri"":""inquiry\\/inquirebuyoffer\\/save"",""methods"":[""GET"",""HEAD"",""POST"",""PUT"",""PATCH"",""DELETE"",""OPTIONS""]},""inquire.company"":{""uri"":""inquiry\\/inquirecompany"",""methods"":[""GET"",""HEAD"",""POST"",""PUT"",""PATCH"",""DELETE"",""OPTIONS""]},""inquire.company_save"":{""uri"":""inquiry\\/company\\/save"",""methods"":[""GET"",""HEAD"",""POST"",""PUT"",""PATCH"",""DELETE"",""OPTIONS""]},""sendmail"":{""uri"":""testmail"",""methods"":[""GET"",""HEAD"",""POST"",""PUT"",""PATCH"",""DELETE"",""OPTIONS""]},""whatsappprice.get"":{""uri"":""netadmin\\/whatsappprice"",""methods"":[""GET"",""HEAD"",""POST"",""PUT"",""PATCH"",""DELETE"",""OPTIONS""]},""southindianprice.get"":{""uri"":""netadmin\\/southindianprice"",""methods"":[""GET"",""HEAD"",""POST"",""PUT"",""PATCH"",""DELETE"",""OPTIONS""]},""northindianprice.get"":{""uri"":""netadmin\\/northindianprice"",""methods"":[""GET"",""HEAD"",""POST"",""PUT"",""PATCH"",""DELETE"",""OPTIONS""]},""usscrapprice.get"":{""uri"":""netadmin\\/usscrapprice"",""methods"":[""GET"",""HEAD"",""POST"",""PUT"",""PATCH"",""DELETE"",""OPTIONS""]},""hmswhatsappprice.get"":{""uri"":""netadmin\\/hmswhatsappprice"",""methods"":[""GET"",""HEAD"",""POST"",""PUT"",""PATCH"",""DELETE"",""OPTIONS""]},""copperwhatsappprice.get"":{""uri"":""netadmin\\/copperwhatsappprice"",""methods"":[""GET"",""HEAD"",""POST"",""PUT"",""PATCH"",""DELETE"",""OPTIONS""]},""notfollowedppmembers"":{""uri"":""netadmin\\/nonfollowedppcompanies"",""methods"":[""GET"",""HEAD"",""POST"",""PUT"",""PATCH"",""DELETE"",""OPTIONS""]},""notfollowedrenewmembers"":{""uri"":""netadmin\\/nonfollowedexpiredcompanies"",""methods"":[""GET"",""HEAD"",""POST"",""PUT"",""PATCH"",""DELETE"",""OPTIONS""]},""notfollowednmenquiries"":{""uri"":""netadmin\\/nonfollowednmenquiries"",""methods"":[""GET"",""HEAD"",""POST"",""PUT"",""PATCH"",""DELETE"",""OPTIONS""]},""image.resize"":{""uri"":""imagecheck"",""methods"":[""GET"",""HEAD""]},""image.show"":{""uri"":""imageshow"",""methods"":[""GET"",""HEAD""]},""scrapnews.latest"":{""uri"":""scrap-news"",""methods"":[""GET"",""HEAD""]},""scrapnews.general"":{""uri"":""scrap-news\\/General_news"",""methods"":[""GET"",""HEAD""]},""scrapnews.metal"":{""uri"":""scrap-news\\/Metal_news"",""methods"":[""GET"",""HEAD""]},""scrapnews.isricodes"":{""uri"":""scrap-news\\/ISRICodes_news"",""methods"":[""GET"",""HEAD""]},""scrapnews.all"":{""uri"":""scrap-news\\/allNews"",""methods"":[""GET"",""HEAD""]},""scrapnews.details"":{""uri"":""scrap-news\\/newsdetails-{id}"",""methods"":[""GET"",""HEAD""],""parameters"":[""id""]},""scrapresearch.prices"":{""uri"":""scrap-news\\/allResearchPrices"",""methods"":[""GET"",""HEAD""]},""scrapnews.imports"":{""uri"":""scrap-news\\/allimports"",""methods"":[""GET"",""HEAD""]},""scrapnews.authorprofile"":{""uri"":""scrap-news\\/author-{username}"",""methods"":[""GET"",""HEAD""],""parameters"":[""username""]},""rating.post"":{""uri"":""postrating"",""methods"":[""POST""]},""scrapprice.details"":{""uri"":""scrap-news\\/ResearchPriceDetails-{id}"",""methods"":[""GET"",""HEAD""],""parameters"":[""id""]},""scrapimport.details"":{""uri"":""scrap-news\\/importdetails-{id}"",""methods"":[""GET"",""HEAD""],""parameters"":[""id""]},""scrapnews.login"":{""uri"":""scrap-news\\/login"",""methods"":[""GET"",""HEAD"",""POST"",""PUT"",""PATCH"",""DELETE"",""OPTIONS""]},""scrapnews.logout"":{""uri"":""scrap-news-logout"",""methods"":[""POST""]},""author.authenticate"":{""uri"":""scrap-news-authenticate"",""methods"":[""POST""]},""scrap.mynews"":{""uri"":""scrap-my-news"",""methods"":[""GET"",""HEAD"",""POST"",""PUT"",""PATCH"",""DELETE"",""OPTIONS""]},""scrap.myprice"":{""uri"":""scrap-my-price"",""methods"":[""GET"",""HEAD"",""POST"",""PUT"",""PATCH"",""DELETE"",""OPTIONS""]},""scrap.myimports"":{""uri"":""scrap-my-imports"",""methods"":[""GET"",""HEAD"",""POST"",""PUT"",""PATCH"",""DELETE"",""OPTIONS""]},""scrap.mytickers"":{""uri"":""scrap-my-tickers"",""methods"":[""GET"",""HEAD"",""POST"",""PUT"",""PATCH"",""DELETE"",""OPTIONS""]},""scrap.unapprovedcomments"":{""uri"":""scrap-unapproved-comments"",""methods"":[""GET"",""HEAD"",""POST"",""PUT"",""PATCH"",""DELETE"",""OPTIONS""]},""scrap.destroysunapprovedcomments"":{""uri"":""scrap-destroysunapprovedcomments\\/{id}"",""methods"":[""GET"",""HEAD"",""POST"",""PUT"",""PATCH"",""DELETE"",""OPTIONS""],""parameters"":[""id""]},""scrap.adminapprovedComments"":{""uri"":""scrap-adminapproved-comments\\/{id}"",""methods"":[""DELETE""],""parameters"":[""id""]},""scrap.adminunapprovedComments"":{""uri"":""scrap-adminunapproved-comments\\/{id}"",""methods"":[""DELETE""],""parameters"":[""id""]},""admin.realscrapnews"":{""uri"":""scrap-admin\\/realtimenews"",""methods"":[""GET"",""HEAD"",""POST"",""PUT"",""PATCH"",""DELETE"",""OPTIONS""]},""scrapcategory.details"":{""uri"":""scrap-news\\/{Category}_news"",""methods"":[""GET"",""HEAD""],""parameters"":[""Category""]},""author.profile"":{""uri"":""author-profile"",""methods"":[""GET"",""HEAD""]},""author.changepassword"":{""uri"":""author-changepassword"",""methods"":[""GET"",""HEAD""]},""author.changeprofileimage"":{""uri"":""author-changeprofileimage"",""methods"":[""GET"",""HEAD""]},""scrapnews.addnews"":{""uri"":""add-news"",""methods"":[""GET"",""HEAD""]},""scrap.storeNews"":{""uri"":""scrap-storeNews"",""methods"":[""POST""]},""scrap.editnews"":{""uri"":""scrap-edit-news"",""methods"":[""GET"",""HEAD"",""POST"",""PUT"",""PATCH"",""DELETE"",""OPTIONS""]},""scrap.updateNews"":{""uri"":""scrap-updateNews\\/{newsID}"",""methods"":[""POST""],""parameters"":[""newsID""]},""scrap.destroyNews"":{""uri"":""scrap-destroyNews\\/{newsID}"",""methods"":[""DELETE""],""parameters"":[""newsID""]},""scrapnews.addresearchprice"":{""uri"":""add-research-price"",""methods"":[""GET"",""HEAD""]},""scrap.storeResearchPrice"":{""uri"":""scrap-storeResearchPrice"",""methods"":[""POST""]},""scrap.editprice"":{""uri"":""scrap-edit-price"",""methods"":[""GET"",""HEAD"",""POST"",""PUT"",""PATCH"",""DELETE"",""OPTIONS""]},""scrap.updatePrice"":{""uri"":""scrap-updatePrice\\/{id}"",""methods"":[""PUT""],""parameters"":[""id""]},""scrap.destroyPrice"":{""uri"":""scrap-destroyPrice\\/{id}"",""methods"":[""DELETE""],""parameters"":[""id""]},""scrapnews.addimports"":{""uri"":""add-imports"",""methods"":[""GET"",""HEAD""]},""scrap.storeImport"":{""uri"":""scrap-storeImport"",""methods"":[""POST""]},""scrapnews.editimports"":{""uri"":""edit-imports"",""methods"":[""GET"",""HEAD""]},""scrap.destroyImports"":{""uri"":""scrap-destroyImports\\/{id}"",""methods"":[""DELETE""],""parameters"":[""id""]},""scrapnews.addticker"":{""uri"":""add-ticker"",""methods"":[""GET"",""HEAD""]},""scrap.storeTicker"":{""uri"":""scrap-storeTicker"",""methods"":[""POST""]},""author.register"":{""uri"":""scrap-news\\/register"",""methods"":[""GET"",""HEAD""]},""scrap.authorstore"":{""uri"":""scrap-authorstore"",""methods"":[""POST""]},""scrap.authorupdate"":{""uri"":""scrap-authorupdate\\/{id}"",""methods"":[""POST""],""parameters"":[""id""]},""scrap.updatePassword"":{""uri"":""scrap-updatePassword\\/{id}"",""methods"":[""POST""],""parameters"":[""id""]},""scrap.updateProfileImage"":{""uri"":""scrap-updateProfileImage\\/{id}"",""methods"":[""POST""],""parameters"":[""id""]},""scrap.myisris"":{""uri"":""scrap-my-isri-codes"",""methods"":[""GET"",""HEAD"",""POST"",""PUT"",""PATCH"",""DELETE"",""OPTIONS""]},""scrap.editmyisris"":{""uri"":""scrap-edit-my-isri-codes"",""methods"":[""GET"",""HEAD"",""POST"",""PUT"",""PATCH"",""DELETE"",""OPTIONS""]},""scrap.updatemyisris"":{""uri"":""scrap-update-my-isri-codes\\/{id}"",""methods"":[""GET"",""HEAD"",""POST"",""PUT"",""PATCH"",""DELETE"",""OPTIONS""],""parameters"":[""id""]},""check-scrap-news-username"":{""uri"":""check-scrap-news-username"",""methods"":[""POST""]},""scrap.destroyTickers"":{""uri"":""scrap-destroyTickers\\/{ID}"",""methods"":[""DELETE""],""parameters"":[""ID""]},""admin.allnews"":{""uri"":""scrap-admin-news"",""methods"":[""GET"",""HEAD"",""POST"",""PUT"",""PATCH"",""DELETE"",""OPTIONS""]},""admin.updateapprovalstatus"":{""uri"":""update-approval-status"",""methods"":[""POST""]},""admin.updateunapprovalstatus"":{""uri"":""update-unapproval-status"",""methods"":[""POST""]},""admin.allresearchprices"":{""uri"":""scrap-admin-prices"",""methods"":[""GET"",""HEAD"",""POST"",""PUT"",""PATCH"",""DELETE"",""OPTIONS""]},""scrap.admineditprice"":{""uri"":""scrap-adminedit-price"",""methods"":[""GET"",""HEAD"",""POST"",""PUT"",""PATCH"",""DELETE"",""OPTIONS""]},""admin.unapprovedcomments"":{""uri"":""scrap-admin-unapproved-comments"",""methods"":[""GET"",""HEAD"",""POST"",""PUT"",""PATCH"",""DELETE"",""OPTIONS""]},""admin.editunapproveddetails"":{""uri"":""scrap-admin-editunapproved-details"",""methods"":[""GET"",""HEAD"",""POST"",""PUT"",""PATCH"",""DELETE"",""OPTIONS""]},""admin.updateadminunapprovalstatus"":{""uri"":""update-adminunapproval-status"",""methods"":[""POST""]},""scrap.bulkDeleteunapprovedcomments"":{""uri"":""scrap-bulk-delete-unapprovedcomments"",""methods"":[""POST""]},""scrap.bulkDeleteapprovedcomments"":{""uri"":""scrap-bulk-delete-approvedcomments"",""methods"":[""POST""]},""unapproved.details"":{""uri"":""unapproved-details"",""methods"":[""GET"",""HEAD""]},""admin.approvedcomments"":{""uri"":""scrap-admin-approved-comments"",""methods"":[""GET"",""HEAD"",""POST"",""PUT"",""PATCH"",""DELETE"",""OPTIONS""]},""admin.updateadminunapprovalcomment"":{""uri"":""update-adminunapproval-comment"",""methods"":[""POST""]},""admin.updateauthorapprovalcomment"":{""uri"":""update-Authorapproval-comment"",""methods"":[""POST""]},""admin.editapproveddetails"":{""uri"":""scrap-admin-editapproved-details"",""methods"":[""GET"",""HEAD"",""POST"",""PUT"",""PATCH"",""DELETE"",""OPTIONS""]},""admin.subscribers"":{""uri"":""scrap-admin-subscribers"",""methods"":[""GET"",""HEAD"",""POST"",""PUT"",""PATCH"",""DELETE"",""OPTIONS""]},""scrap.DeleteSubscribers"":{""uri"":""scrap-delete-subscribers\\/{id}"",""methods"":[""DELETE""],""parameters"":[""id""]},""scrap.bulkDeleteSubscribers"":{""uri"":""scrap-bulk-delete-subscribers"",""methods"":[""POST""]},""admin.editsubscribers"":{""uri"":""scrap-adminedit-subscribers"",""methods"":[""GET"",""HEAD"",""POST"",""PUT"",""PATCH"",""DELETE"",""OPTIONS""]},""admin.updatesubscribers"":{""uri"":""scrap-adminupdate-subscribers\\/{id}"",""methods"":[""POST""],""parameters"":[""id""]},""admin.unapprovedsubscribers"":{""uri"":""scrap-admin-unapproved-subscribers"",""methods"":[""GET"",""HEAD"",""POST"",""PUT"",""PATCH"",""DELETE"",""OPTIONS""]},""admin.updateunapprovedsubscribers"":{""uri"":""scrap-adminupdate-unapprovedsubscribers\\/{id}"",""methods"":[""PUT""],""parameters"":[""id""]},""admin.approvednews"":{""uri"":""scrap-admin-approved-news"",""methods"":[""GET"",""HEAD"",""POST"",""PUT"",""PATCH"",""DELETE"",""OPTIONS""]},""admin.unapprovednews"":{""uri"":""scrap-admin-unapproved-news"",""methods"":[""GET"",""HEAD"",""POST"",""PUT"",""PATCH"",""DELETE"",""OPTIONS""]},""admin.approvedauthors"":{""uri"":""scrap-admin-approved-authors"",""methods"":[""GET"",""HEAD"",""POST"",""PUT"",""PATCH"",""DELETE"",""OPTIONS""]},""author.editapproved"":{""uri"":""author-editapproved-authors"",""methods"":[""GET"",""HEAD""]},""admin.updateauthorapprovalstatus"":{""uri"":""update-Authorapproval-status"",""methods"":[""POST""]},""author.editapproveddetalis"":{""uri"":""author-editapproveddetalis"",""methods"":[""GET"",""HEAD""]},""admin.unapprovedauthors"":{""uri"":""scrap-admin-unapproved-authors"",""methods"":[""GET"",""HEAD"",""POST"",""PUT"",""PATCH"",""DELETE"",""OPTIONS""]},""author.editunapproved"":{""uri"":""author-editunapproved-authors"",""methods"":[""GET"",""HEAD""]},""admin.alltickers"":{""uri"":""scrap-admin-all-tickers"",""methods"":[""GET"",""HEAD"",""POST"",""PUT"",""PATCH"",""DELETE"",""OPTIONS""]},""scrapnews.edittickers"":{""uri"":""scrap-admin-edit-tickers"",""methods"":[""GET"",""HEAD""]},""admin.updateticker"":{""uri"":""scrap-adminupdate-ticker\\/{id}"",""methods"":[""POST""],""parameters"":[""id""]},""scrap.destroyTicker"":{""uri"":""scrap-destroyTicker\\/{ID}"",""methods"":[""DELETE""],""parameters"":[""ID""]},""author.articles"":{""uri"":""scrap-news\\/{author}_articles"",""methods"":[""GET"",""HEAD""],""parameters"":[""author""]},""update.UpdateScrapPrices"":{""uri"":""netadmin\\/PriceUpdate\\/UpdateScrapPrices"",""methods"":[""POST""]},""price.destroy"":{""uri"":""netadmin\\/destroy-price\\/{id}"",""methods"":[""DELETE""],""parameters"":[""id""]},""update.SouthIndianScrapPrices"":{""uri"":""netadmin\\/PriceUpdate\\/UpdateSouthIndianScrapPrices"",""methods"":[""POST""]},""update.USplasticprices"":{""uri"":""netadmin\\/PriceUpdate\\/UpdateUSplasticprices"",""methods"":[""POST""]},""update.UKscrapprices"":{""uri"":""netadmin\\/PriceUpdate\\/UpdateUKscrapprices"",""methods"":[""POST""]},""update.USscrapprices"":{""uri"":""netadmin\\/PriceUpdate\\/UpdateUSscrapprices"",""methods"":[""POST""]},""update.ShanghaiSpotprices"":{""uri"":""netadmin\\/PriceUpdate\\/UpdateShanghaiSpotprices"",""methods"":[""POST""]},""update.EastIndianScrapPrices"":{""uri"":""netadmin\\/PriceUpdate\\/UpdateEastIndianScrapPrices"",""methods"":[""POST""]},""update.NorthIndianScrapPrices"":{""uri"":""netadmin\\/PriceUpdate\\/UpdateNorthIndianScrapPrices"",""methods"":[""POST""]},""update.WestIndianScrapPrices"":{""uri"":""netadmin\\/PriceUpdate\\/UpdateWestIndianScrapPrices"",""methods"":[""POST""]},""update.SteelPrices"":{""uri"":""netadmin\\/PriceUpdate\\/SteelPrices"",""methods"":[""GET"",""HEAD""]},""update.UpdateUSSteelPrices"":{""uri"":""netadmin\\/PriceUpdate\\/UpdateUSSteelPrices"",""methods"":[""POST""]},""update.UpdateUKSteelPrices"":{""uri"":""netadmin\\/PriceUpdate\\/UpdateUKSteelPrices"",""methods"":[""POST""]},""sitemap"":{""uri"":""netadmin\\/sitemap"",""methods"":[""GET"",""HEAD""]},""xml.sitemap"":{""uri"":""netadmin\\/generate-xmlsitemap"",""methods"":[""GET"",""HEAD"",""POST"",""PUT"",""PATCH"",""DELETE"",""OPTIONS""]},""image.sitemap"":{""uri"":""netadmin\\/generate-imagesitemap"",""methods"":[""GET"",""HEAD"",""POST"",""PUT"",""PATCH"",""DELETE"",""OPTIONS""]},""xml.sitemap.status"":{""uri"":""netadmin\\/sitemap-status"",""methods"":[""GET"",""HEAD""]},""machinery.home"":{""uri"":""machinery\\/home"",""methods"":[""GET"",""HEAD""]},""machinery.login"":{""uri"":""machinery\\/login"",""methods"":[""GET"",""HEAD"",""POST"",""PUT"",""PATCH"",""DELETE"",""OPTIONS""]},""machinery.register"":{""uri"":""machinery\\/register"",""methods"":[""GET"",""HEAD"",""POST"",""PUT"",""PATCH"",""DELETE"",""OPTIONS""]},""machinery.forgotpassword"":{""uri"":""machinery\\/forgotpassword"",""methods"":[""GET"",""HEAD"",""POST"",""PUT"",""PATCH"",""DELETE"",""OPTIONS""]},""machinery.ChangePassword"":{""uri"":""machinery\\/changepassword"",""methods"":[""GET"",""HEAD"",""POST"",""PUT"",""PATCH"",""DELETE"",""OPTIONS""]},""machinery.editprofile"":{""uri"":""machinery\\/editprofile"",""methods"":[""GET"",""HEAD"",""POST"",""PUT"",""PATCH"",""DELETE"",""OPTIONS""]},""machinery.updateprofiledetails"":{""uri"":""machinery\\/update-profile"",""methods"":[""GET"",""HEAD"",""POST"",""PUT"",""PATCH"",""DELETE"",""OPTIONS""]},""machinery.check-username"":{""uri"":""machinery\\/check-username"",""methods"":[""POST""]},""machinery.check-email"":{""uri"":""machinery\\/check-email"",""methods"":[""POST""]},""machinery.registerstep"":{""uri"":""machinery\\/registerstep"",""methods"":[""GET"",""HEAD"",""POST"",""PUT"",""PATCH"",""DELETE"",""OPTIONS""]},""machinery.firststep"":{""uri"":""machinery\\/registerstep1"",""methods"":[""POST""]},""machinery.buyerRegisterStep"":{""uri"":""machinery\\/buyerRegisterStep"",""methods"":[""GET"",""HEAD"",""POST"",""PUT"",""PATCH"",""DELETE"",""OPTIONS""]},""machinery.buyerfirststep"":{""uri"":""machinery\\/buyerregisterstep1"",""methods"":[""POST""]},""machinery.registerconfirm"":{""uri"":""machinery\\/registerconfirm\\/{userID}"",""methods"":[""GET"",""HEAD"",""POST"",""PUT"",""PATCH"",""DELETE"",""OPTIONS""],""parameters"":[""userID""]},""machinery.validate"":{""uri"":""machinery\\/user\\/validate"",""methods"":[""GET"",""HEAD"",""POST"",""PUT"",""PATCH"",""DELETE"",""OPTIONS""]},""machinery.authenticate"":{""uri"":""machinery\\/user\\/authenticate"",""methods"":[""GET"",""HEAD"",""POST"",""PUT"",""PATCH"",""DELETE"",""OPTIONS""]},""machinery.addmachinery"":{""uri"":""machinery\\/addmachinery"",""methods"":[""GET"",""HEAD""]},""machinery.store"":{""uri"":""machinery\\/store"",""methods"":[""POST""]},""machinery.edit"":{""uri"":""machinery\\/edit"",""methods"":[""GET"",""HEAD"",""POST"",""PUT"",""PATCH"",""DELETE"",""OPTIONS""]},""machinery.update"":{""uri"":""machinery\\/update\\/{id}"",""methods"":[""GET"",""HEAD"",""POST"",""PUT"",""PATCH"",""DELETE"",""OPTIONS""],""parameters"":[""id""]},""machinery.view"":{""uri"":""machinery\\/view\\/{id}"",""methods"":[""GET"",""HEAD""],""parameters"":[""id""]},""machinery.modify"":{""uri"":""machinery\\/modifyMachineryDetails\\/{id}"",""methods"":[""POST""],""parameters"":[""id""]},""machineryapprove.modify"":{""uri"":""machinery\\/modifyMachineryApproveDetails\\/{id}"",""methods"":[""POST""],""parameters"":[""id""]},""machinery.destroy"":{""uri"":""machinery\\/destroy\\/{id}"",""methods"":[""DELETE""],""parameters"":[""id""]},""machinery.banner"":{""uri"":""machinery\\/sitebanner"",""methods"":[""GET"",""HEAD""]},""machineryrazorpay.success"":{""uri"":""machineryrazorpayment.success"",""methods"":[""GET"",""HEAD""]},""machineryrazorpay.capture"":{""uri"":""razorpayment\\/capture"",""methods"":[""POST""]},""machinerypayment.success"":{""uri"":""machinery\\/paymentsuccess"",""methods"":[""GET"",""HEAD"",""POST"",""PUT"",""PATCH"",""DELETE"",""OPTIONS""]},""machineryrazorpay.subscriptioncapture"":{""uri"":""subscription-capture"",""methods"":[""GET"",""HEAD"",""POST"",""PUT"",""PATCH"",""DELETE"",""OPTIONS""]},""machinery.supplierlist"":{""uri"":""machinery\\/supplierList"",""methods"":[""GET"",""HEAD""]},""inquire.machinery"":{""uri"":""machinery\\/inquiremachinery"",""methods"":[""GET"",""HEAD"",""POST"",""PUT"",""PATCH"",""DELETE"",""OPTIONS""]},""inquiremachinery.save"":{""uri"":""machinery\\/inquiremachinery\\/save"",""methods"":[""POST""]},""machinery.inquire"":{""uri"":""machinery\\/inquire"",""methods"":[""GET"",""HEAD"",""POST"",""PUT"",""PATCH"",""DELETE"",""OPTIONS""]},""inquiry.view"":{""uri"":""inquiry\\/view\\/{id}"",""methods"":[""GET"",""HEAD""],""parameters"":[""id""]},""machineryinquiry.sendmessage"":{""uri"":""inquiry\\/sendinquiry"",""methods"":[""GET"",""HEAD"",""POST"",""PUT"",""PATCH"",""DELETE"",""OPTIONS""]},""machinery.contactus"":{""uri"":""machinery\\/contactus"",""methods"":[""GET"",""HEAD"",""POST"",""PUT"",""PATCH"",""DELETE"",""OPTIONS""]},""machinery.dmregister"":{""uri"":""machinery\\/dmregister"",""methods"":[""POST""]},""machineryDM.edit"":{""uri"":""machinery\\/editdm"",""methods"":[""GET"",""HEAD"",""POST"",""PUT"",""PATCH"",""DELETE"",""OPTIONS""]},""machinery.updatedm"":{""uri"":""machinery\\/updatedm\\/{id}"",""methods"":[""GET"",""HEAD"",""POST"",""PUT"",""PATCH"",""DELETE"",""OPTIONS""],""parameters"":[""id""]},""machinery.modifydm"":{""uri"":""machinery\\/modifyAssignDMDetails\\/{id}"",""methods"":[""POST""],""parameters"":[""id""]},""manage.category"":{""uri"":""machinery\\/manage\\/category"",""methods"":[""GET"",""HEAD""]},""machinery.updatecategory"":{""uri"":""machinery\\/updatemanage\\/category"",""methods"":[""POST""]},""machinery.uploadbanner"":{""uri"":""machinery\\/uploadbanner"",""methods"":[""GET"",""HEAD"",""POST"",""PUT"",""PATCH"",""DELETE"",""OPTIONS""]},""machinery.addMultipleToCart"":{""uri"":""machinery\\/add-multiple-to-cart"",""methods"":[""POST""]},""machinery.admin-home"":{""uri"":""machinery\\/dashboard"",""methods"":[""GET"",""HEAD""]},""nonmemmachinery.inquire"":{""uri"":""machinery\\/non-memberinquire"",""methods"":[""GET"",""HEAD"",""POST"",""PUT"",""PATCH"",""DELETE"",""OPTIONS""]},""supplier.inquire"":{""uri"":""machinery\\/supplierinquire"",""methods"":[""GET"",""HEAD"",""POST"",""PUT"",""PATCH"",""DELETE"",""OPTIONS""]},""suppliernonmemmachinery.inquire"":{""uri"":""machinery\\/suppliernon-memberinquire"",""methods"":[""GET"",""HEAD"",""POST"",""PUT"",""PATCH"",""DELETE"",""OPTIONS""]},""machinery.revenueoverview"":{""uri"":""machinery\\/revenue-overview"",""methods"":[""GET"",""HEAD""]},""machinery.logo"":{""uri"":""machinery\\/logo"",""methods"":[""GET"",""HEAD""]},""machinery.uploadlogo"":{""uri"":""machinery\\/uploadlogo"",""methods"":[""GET"",""HEAD"",""POST"",""PUT"",""PATCH"",""DELETE"",""OPTIONS""]},""rim.machinery"":{""uri"":""machinery\\/rim-machinery"",""methods"":[""GET"",""HEAD"",""POST"",""PUT"",""PATCH"",""DELETE"",""OPTIONS""]},""browse.plans"":{""uri"":""machinery\\/price-plans"",""methods"":[""GET"",""HEAD"",""POST"",""PUT"",""PATCH"",""DELETE"",""OPTIONS""]},""machinery.logout"":{""uri"":""machinery\\/logout"",""methods"":[""GET"",""HEAD"",""POST"",""PUT"",""PATCH"",""DELETE"",""OPTIONS""]},""machinery.carts"":{""uri"":""machinery\\/carts"",""methods"":[""GET"",""HEAD"",""POST"",""PUT"",""PATCH"",""DELETE"",""OPTIONS""]},""machinery.addcart"":{""uri"":""machinery\\/add-cart"",""methods"":[""POST""]},""machinery.deletecart"":{""uri"":""machinery\\/delete-cart\\/{id}"",""methods"":[""DELETE""],""parameters"":[""id""]},""machinery.item"":{""uri"":""recycleinme-machinery-{username}\\/offer-{id}"",""methods"":[""GET"",""HEAD""],""parameters"":[""username"",""id""]},""machinery.seller"":{""uri"":""machinery\\/cart-items"",""methods"":[""GET"",""HEAD""]},""machinery.approve"":{""uri"":""machinery\\/admin\\/machine-approve"",""methods"":[""POST""]},""machinery.unapprove"":{""uri"":""machinery\\/admin\\/machine-unapprove"",""methods"":[""POST""]},""machinery.userslist"":{""uri"":""machinery\\/admin\\/users-list"",""methods"":[""GET"",""HEAD""]},""machinery.sellermachines"":{""uri"":""machinery\\/admin\\/seller-machines\\/{id}"",""methods"":[""GET"",""HEAD""],""parameters"":[""id""]},""machinery.processCheckout"":{""uri"":""machinery\\/cart\\/order"",""methods"":[""POST""]},""machinery.orderdetails"":{""uri"":""machinery\\/orders"",""methods"":[""GET"",""HEAD""]},""machinery.sellersorders"":{""uri"":""machinery\\/sellers-orders"",""methods"":[""GET"",""HEAD""]},""machinery.buyoffer"":{""uri"":""machinery\\/machines-offer"",""methods"":[""GET"",""HEAD""]},""assigned.sellers"":{""uri"":""machinery\\/assigned-sellers"",""methods"":[""GET"",""HEAD""]},""comapany.machines"":{""uri"":""recycleinme-machinery-{username}\\/home"",""methods"":[""GET"",""HEAD""],""parameters"":[""username""]},""machinery.upgradeplan"":{""uri"":""machinery\\/upgrade-plan"",""methods"":[""GET"",""HEAD"",""POST"",""PUT"",""PATCH"",""DELETE"",""OPTIONS""]},""machinerymember.upgrade"":{""uri"":""home\\/upgrade\\/{userID}"",""methods"":[""GET"",""HEAD"",""POST"",""PUT"",""PATCH"",""DELETE"",""OPTIONS""],""parameters"":[""userID""]},""machinery.topratedcompanies"":{""uri"":""machinery\\/top-rated-companies"",""methods"":[""GET"",""HEAD""]},""machinery.remove.topratedcompanies"":{""uri"":""machinery\\/top-rated-companies\\/remove"",""methods"":[""GET"",""HEAD"",""POST"",""PUT"",""PATCH"",""DELETE"",""OPTIONS""]},""machinery.removeall.topratedcompanies"":{""uri"":""machinery\\/top-rated-companies\\/remove-all"",""methods"":[""GET"",""HEAD"",""POST"",""PUT"",""PATCH"",""DELETE"",""OPTIONS""]},""machinery.promote.topratedcompanies"":{""uri"":""machinery\\/top-rated-companies\\/promote"",""methods"":[""GET"",""HEAD"",""POST"",""PUT"",""PATCH"",""DELETE"",""OPTIONS""]},""machinery.promoteall.topratedcompanies"":{""uri"":""machinery\\/top-rated-companies\\/promote-all"",""methods"":[""GET"",""HEAD"",""POST"",""PUT"",""PATCH"",""DELETE"",""OPTIONS""]},""machinery.aboutus"":{""uri"":""machinery\\/aboutus"",""methods"":[""GET"",""HEAD""]},""machinery.privacypolicy"":{""uri"":""machinery\\/privacy-policy"",""methods"":[""GET"",""HEAD""]},""machinery.termsofservice"":{""uri"":""machinery\\/terms-of-service"",""methods"":[""GET"",""HEAD""]},""machinery.buyerinquiries"":{""uri"":""machinery\\/buyer-inquiries"",""methods"":[""GET"",""HEAD""]},""machinery.deletesessioncart"":{""uri"":""machinery\\/remove-session-cart"",""methods"":[""DELETE""]},""machinery.removeMultipleSessionItems"":{""uri"":""machinery\\/remove-multiple-session-items"",""methods"":[""DELETE""]},""machinery.allrecentcompanies"":{""uri"":""machinery\\/get-allrecentcompanies"",""methods"":[""GET"",""HEAD""]},""machinery.companies.dminfo"":{""uri"":""machinery\\/companies-with-dminfo"",""methods"":[""GET"",""HEAD""]},""machinery.notassignedcompanies"":{""uri"":""machinery\\/not-assignedcompanies"",""methods"":[""GET"",""HEAD""]},""machinery.paymentpendingcompanies"":{""uri"":""machinery\\/paymentpending-companies"",""methods"":[""GET"",""HEAD""]},""machinery.getrenewingshortlycompanies"":{""uri"":""machinery\\/renewing-shortly-companies"",""methods"":[""GET"",""HEAD""]},""machinery.renewedcompanies"":{""uri"":""machinery\\/renewed-companies"",""methods"":[""GET"",""HEAD""]},""machinery.notrenewedcompanies"":{""uri"":""machinery\\/not-renewed-companies"",""methods"":[""GET"",""HEAD""]},""machinery.paidcompanies"":{""uri"":""machinery\\/paid-companies"",""methods"":[""GET"",""HEAD""]},""machinery.findcompany"":{""uri"":""machinery\\/find-company"",""methods"":[""GET"",""HEAD""]},""machinery.fullcompanydetails"":{""uri"":""machinery\\/companyDetails"",""methods"":[""GET"",""HEAD""]},""machinery.updateemail"":{""uri"":""machinery\\/admin\\/updateemail"",""methods"":[""POST""]},""machinery.updatelocation"":{""uri"":""machinery\\/admin\\/updatelocation"",""methods"":[""POST""]},""machinery.updatecompanyname"":{""uri"":""machinery\\/admin\\/updatecompanyname"",""methods"":[""POST""]},""machinery.updatemobileno"":{""uri"":""machinery\\/admin\\/updatecmobileno"",""methods"":[""POST""]},""machinery.assigndm"":{""uri"":""machinery\\/admin\\/assigndm"",""methods"":[""POST""]},""machinery.findcompanybyinput"":{""uri"":""machinery\\/admin\\/findcompanybyinput"",""methods"":[""POST""]},""machinery.sellmachine.inquiries"":{""uri"":""machinery\\/sellermachine-inquiries"",""methods"":[""GET"",""HEAD""]},""machinery.sellcompany.inquiries"":{""uri"":""machinery\\/sellercompany-inquiries"",""methods"":[""GET"",""HEAD""]},""machinery.sitemap"":{""uri"":""machinery\\/sitemap"",""methods"":[""GET"",""HEAD""]},""machinery.xmlsitemap"":{""uri"":""machinery\\/generate-xmlsitemap"",""methods"":[""GET"",""HEAD"",""POST"",""PUT"",""PATCH"",""DELETE"",""OPTIONS""]},""machinery.sitemap.status"":{""uri"":""machinery\\/sitemap-status"",""methods"":[""GET"",""HEAD""]},""machinery.paypal.subscribe"":{""uri"":""machinery\\/paypal-subscribe"",""methods"":[""POST""]},""paypal_payment"":{""uri"":""machinery\\/paypal"",""methods"":[""POST""]},""paypal.success"":{""uri"":""machinery\\/paypal\\/success"",""methods"":[""GET"",""HEAD"",""POST"",""PUT"",""PATCH"",""DELETE"",""OPTIONS""]},""paypal.cancel"":{""uri"":""machinery\\/paypal\\/cancel"",""methods"":[""GET"",""HEAD"",""POST"",""PUT"",""PATCH"",""DELETE"",""OPTIONS""]},""inquire.sellers"":{""uri"":""machinery\\/inquiresellers"",""methods"":[""GET"",""HEAD"",""POST"",""PUT"",""PATCH"",""DELETE"",""OPTIONS""]},""inquiresellers.save"":{""uri"":""machinery\\/inquiresellers\\/save"",""methods"":[""POST""]},""supplierinquiry.view"":{""uri"":""supplierinquiry\\/view\\/{id}"",""methods"":[""GET"",""HEAD""],""parameters"":[""id""]},""supplierinquiry.sendmessage"":{""uri"":""supplierinquiry\\/sendinquiry"",""methods"":[""GET"",""HEAD"",""POST"",""PUT"",""PATCH"",""DELETE"",""OPTIONS""]},""register"":{""uri"":""register"",""methods"":[""GET"",""HEAD""]},""login"":{""uri"":""login"",""methods"":[""GET"",""HEAD""]},""password.request"":{""uri"":""forgot-password"",""methods"":[""GET"",""HEAD""]},""password.email"":{""uri"":""forgot-password"",""methods"":[""POST""]},""password.reset"":{""uri"":""reset-password\\/{token}"",""methods"":[""GET"",""HEAD""],""parameters"":[""token""]},""password.store"":{""uri"":""reset-password"",""methods"":[""POST""]},""verification.notice"":{""uri"":""verify-email"",""methods"":[""GET"",""HEAD""]},""verification.verify"":{""uri"":""verify-email\\/{id}\\/{hash}"",""methods"":[""GET"",""HEAD""],""parameters"":[""id"",""hash""]},""verification.send"":{""uri"":""email\\/verification-notification"",""methods"":[""POST""]},""password.confirm"":{""uri"":""confirm-password"",""methods"":[""GET"",""HEAD""]},""password.update"":{""uri"":""password"",""methods"":[""PUT""]},""logout"":{""uri"":""logout"",""methods"":[""POST""]}}};!function(t,r){""object""==typeof exports&&""undefined""!=typeof module?module.exports=r():""function""==typeof define&&define.amd?define(r):(t||self).route=r()}(this,function(){function t(t,r){for(var n=0;n<r.length;n++){var e=r[n];e.enumerable=e.enumerable||!1,e.configurable=!0,""value""in e&&(e.writable=!0),Object.defineProperty(t,u(e.key),e)}}function r(r,n,e){return n&&t(r.prototype,n),e&&t(r,e),Object.defineProperty(r,""prototype"",{writable:!1}),r}function n(){return n=Object.assign?Object.assign.bind():function(t){for(var r=1;r<arguments.length;r++){var n=arguments[r];for(var e in n)({}).hasOwnProperty.call(n,e)&&(t[e]=n[e])}return t},n.apply(null,arguments)}function e(t){return e=Object.setPrototypeOf?Object.getPrototypeOf.bind():function(t){return t.__proto__||Object.getPrototypeOf(t)},e(t)}function o(){try{var t=!Boolean.prototype.valueOf.call(Reflect.construct(Boolean,[],function(){}))}catch(t){}return(o=function(){return!!t})()}function i(t,r){return i=Object.setPrototypeOf?Object.setPrototypeOf.bind():function(t,r){return t.__proto__=r,t},i(t,r)}function u(t){var r=function(t){if(""object""!=typeof t||!t)return t;var r=t[Symbol.toPrimitive];if(void 0!==r){var n=r.call(t,""string"");if(""object""!=typeof n)return n;throw new TypeError(""@@toPrimitive must return a primitive value."")}return String(t)}(t);return""symbol""==typeof r?r:r+""""}function f(t){var r=""function""==typeof Map?new Map:void 0;return f=function(t){if(null===t||!function(t){try{return-1!==Function.toString.call(t).indexOf(""[native code]"")}catch(r){return""function""==typeof t}}(t))return t;if(""function""!=typeof t)throw new TypeError(""Super expression must either be null or a function"");if(void 0!==r){if(r.has(t))return r.get(t);r.set(t,n)}function n(){return function(t,r,n){if(o())return Reflect.construct.apply(null,arguments);var e=[null];e.push.apply(e,r);var u=new(t.bind.apply(t,e));return n&&i(u,n.prototype),u}(t,arguments,e(this).constructor)}return n.prototype=Object.create(t.prototype,{constructor:{value:n,enumerable:!1,writable:!0,configurable:!0}}),i(n,t)},f(t)}var a=String.prototype.replace,c=/%20/g,l=""RFC3986"",s={default:l,formatters:{RFC1738:function(t){return a.call(t,c,""+"")},RFC3986:function(t){return String(t)}},RFC1738:""RFC1738"",RFC3986:l},v=Object.prototype.hasOwnProperty,p=Array.isArray,y=function(){for(var t=[],r=0;r<256;++r)t.push(""%""+((r<16?""0"":"""")+r.toString(16)).toUpperCase());return t}(),d=function(t,r){for(var n=r&&r.plainObjects?Object.create(null):{},e=0;e<t.length;++e)void 0!==t[e]&&(n[e]=t[e]);return n},b={arrayToObject:d,assign:function(t,r){return Object.keys(r).reduce(function(t,n){return t[n]=r[n],t},t)},combine:function(t,r){return[].concat(t,r)},compact:function(t){for(var r=[{obj:{o:t},prop:""o""}],n=[],e=0;e<r.length;++e)for(var o=r[e],i=o.obj[o.prop],u=Object.keys(i),f=0;f<u.length;++f){var a=u[f],c=i[a];""object""==typeof c&&null!==c&&-1===n.indexOf(c)&&(r.push({obj:i,prop:a}),n.push(c))}return function(t){for(;t.length>1;){var r=t.pop(),n=r.obj[r.prop];if(p(n)){for(var e=[],o=0;o<n.length;++o)void 0!==n[o]&&e.push(n[o]);r.obj[r.prop]=e}}}(r),t},decode:function(t,r,n){var e=t.replace(/\\+/g,"" "");if(""iso-8859-1""===n)return e.replace(/%[0-9a-f]{2}/gi,unescape);try{return decodeURIComponent(e)}catch(t){return e}},encode:function(t,r,n,e,o){if(0===t.length)return t;var i=t;if(""symbol""==typeof t?i=Symbol.prototype.toString.call(t):""string""!=typeof t&&(i=String(t)),""iso-8859-1""===n)return escape(i).replace(/%u[0-9a-f]{4}/gi,function(t){return""%26%23""+parseInt(t.slice(2),16)+""%3B""});for(var u="""",f=0;f<i.length;++f){var a=i.charCodeAt(f);45===a||46===a||95===a||126===a||a>=48&&a<=57||a>=65&&a<=90||a>=97&&a<=122||o===s.RFC1738&&(40===a||41===a)?u+=i.charAt(f):a<128?u+=y[a]:a<2048?u+=y[192|a>>6]+y[128|63&a]:a<55296||a>=57344?u+=y[224|a>>12]+y[128|a>>6&63]+y[128|63&a]:(a=65536+((1023&a)<<10|1023&i.charCodeAt(f+=1)),u+=y[240|a>>18]+y[128|a>>12&63]+y[128|a>>6&63]+y[128|63&a])}return u},isBuffer:function(t){return!(!t||""object""!=typeof t||!(t.constructor&&t.constructor.isBuffer&&t.constructor.isBuffer(t)))},isRegExp:function(t){return""[object RegExp]""===Object.prototype.toString.call(t)},maybeMap:function(t,r){if(p(t)){for(var n=[],e=0;e<t.length;e+=1)n.push(r(t[e]));return n}return r(t)},merge:function t(r,n,e){if(!n)return r;if(""object""!=typeof n){if(p(r))r.push(n);else{if(!r||""object""!=typeof r)return[r,n];(e&&(e.plainObjects||e.allowPrototypes)||!v.call(Object.prototype,n))&&(r[n]=!0)}return r}if(!r||""object""!=typeof r)return[r].concat(n);var o=r;return p(r)&&!p(n)&&(o=d(r,e)),p(r)&&p(n)?(n.forEach(function(n,o){if(v.call(r,o)){var i=r[o];i&&""object""==typeof i&&n&&""object""==typeof n?r[o]=t(i,n,e):r.push(n)}else r[o]=n}),r):Object.keys(n).reduce(function(r,o){var i=n[o];return r[o]=v.call(r,o)?t(r[o],i,e):i,r},o)}},h=Object.prototype.hasOwnProperty,g={brackets:function(t){return t+""[]""},comma:""comma"",indices:function(t,r){return t+""[""+r+""]""},repeat:function(t){return t}},m=Array.isArray,j=String.prototype.split,w=Array.prototype.push,O=function(t,r){w.apply(t,m(r)?r:[r])},E=Date.prototype.toISOString,R=s.default,S={addQueryPrefix:!1,allowDots:!1,charset:""utf-8"",charsetSentinel:!1,delimiter:""&"",encode:!0,encoder:b.encode,encodeValuesOnly:!1,format:R,formatter:s.formatters[R],indices:!1,serializeDate:function(t){return E.call(t)},skipNulls:!1,strictNullHandling:!1},k=function t(r,n,e,o,i,u,f,a,c,l,s,v,p,y){var d,h=r;if(""function""==typeof f?h=f(n,h):h instanceof Date?h=l(h):""comma""===e&&m(h)&&(h=b.maybeMap(h,function(t){return t instanceof Date?l(t):t})),null===h){if(o)return u&&!p?u(n,S.encoder,y,""key"",s):n;h=""""}if(""string""==typeof(d=h)||""number""==typeof d||""boolean""==typeof d||""symbol""==typeof d||""bigint""==typeof d||b.isBuffer(h)){if(u){var g=p?n:u(n,S.encoder,y,""key"",s);if(""comma""===e&&p){for(var w=j.call(String(h),"",""),E="""",R=0;R<w.length;++R)E+=(0===R?"""":"","")+v(u(w[R],S.encoder,y,""value"",s));return[v(g)+""=""+E]}return[v(g)+""=""+v(u(h,S.encoder,y,""value"",s))]}return[v(n)+""=""+v(String(h))]}var k,T=[];if(void 0===h)return T;if(""comma""===e&&m(h))k=[{value:h.length>0?h.join("","")||null:void 0}];else if(m(f))k=f;else{var $=Object.keys(h);k=a?$.sort(a):$}for(var x=0;x<k.length;++x){var N=k[x],C=""object""==typeof N&&void 0!==N.value?N.value:h[N];if(!i||null!==C){var A=m(h)?""function""==typeof e?e(n,N):n:n+(c?"".""+N:""[""+N+""]"");O(T,t(C,A,e,o,i,u,f,a,c,l,s,v,p,y))}}return T},T=Object.prototype.hasOwnProperty,$=Array.isArray,x={allowDots:!1,allowPrototypes:!1,arrayLimit:20,charset:""utf-8"",charsetSentinel:!1,comma:!1,decoder:b.decode,delimiter:""&"",depth:5,ignoreQueryPrefix:!1,interpretNumericEntities:!1,parameterLimit:1e3,parseArrays:!0,plainObjects:!1,strictNullHandling:!1},N=function(t){return t.replace(/&#(\\d+);/g,function(t,r){return String.fromCharCode(parseInt(r,10))})},C=function(t,r){return t&&""string""==typeof t&&r.comma&&t.indexOf("","")>-1?t.split("",""):t},A=function(t,r,n,e){if(t){var o=n.allowDots?t.replace(/\\.([^.[]+)/g,""[$1']","['certified deconstruction', 'certified deconstruction', 'certified deconstruction']",,,"['check', 'paypal', 'terms']","['provide the services such as demolition services and certified deconstruction services', 'provide the services such as demolition services and certified deconstruction services', 'provide the services such as demolition services and certified deconstruction services']",scrap metal dealers Chicago IL,2,Bing,58,2025-07-12T00:39:21.619438
Illinois Архіви,https://scrapvisor.com/illinois/,"Find trusted scrap metal buyers and recycling centers in Illinois. View up-to-date scrap metal prices, explore our interactive map of local scrap yards, and connect with reputable companies for fast and profitable scrap sales.",(815) 622-7298,,,,,,,United States,,,,,"['pickup', 'collection', 'demolition', 'dismantling', 'commercial', 'industrial']","['copper', 'aluminum', 'aluminium', 'steel', 'iron', 'brass', 'bronze', 'stainless steel', 'lead', 'zinc', 'nickel', 'tin', 'titanium', 'carbide', 'tungsten', 'silver', 'car batteries', 'radiators', 'electric motors', 'transformers', 'wire', 'cable', 'cast iron', 'turnings']","['Copper</div><div class=""price_grid_price_company"">$3.20', 'Copper</div><div class=""price_grid_price_company"">$3.00', 'Copper</div><div class=""price_grid_price_company"">$3.40', 'Copper Wire</div><div class=""price_grid_price_company"">$3.90', 'Copper</div><div class=""price_grid_price_company"">$3.35']",,,""":""en-US""},{""@type"":""BreadcrumbList"",""@id"":""https:","['cash', 'check', 'terms']",,scrap metal dealers Chicago IL,2,Bing,58,2025-07-12T00:39:22.405763
Scrap Metal Recycling,https://aarecycles.com/,"All American Recycling is Chicago’s scrap metal recycling leader, accepting metals such as steel, copper, aluminum, stainless and lead.",(815) 722-0200,,,"{'facebook': 'facebook.com/pg', 'twitter': 'twitter.com/AArecycles""', 'instagram': 'instagram.com/allamericanrecycles', 'linkedin': 'linkedin.com/company', 'youtube': 'youtube.com/embed', 'tiktok': 'tiktok.com/@aarecycles""'}",,,,United States,,,,,"['pickup', 'demolition', 'processing', 'commercial']","['copper', 'aluminum', 'steel', 'iron', 'brass', 'stainless steel', 'lead', 'tin', 'wire']",,,,""":""en-US"",""potentialAction"":[{""@type"":""ReadAction""","['check', 'terms']",['help consumers dispose of their recyclable materials as well'],scrap metal dealers Chicago IL,2,Bing,58,2025-07-12T00:39:23.191489
Scrap Metal,https://luckmanrecycling.com/,Visit the post for more.,(708) 489-2992,,,,,,,United States,,,,,"['commercial', 'industrial']","['copper', 'aluminum', 'steel', 'iron', 'brass', 'tin']",,,,""":""en"",""strings"":{""mejs",,,metal recycling center Chicago IL,5,Bing,58,2025-07-12T00:39:27.441301
Local Metal Recycling Center Nearby,https://allmetalrecycling.net/,"All Metal Scrap Recycling in Franklin Park near Chicago. Metal Recycling Center. Accepting Aluminum, Brass, Copper, Insulated wire, Iron, Lead, Nickel alloys, Stainless Steel.",(847) 455-1925,,,"{'facebook': 'facebook.com/profile.php?id=100079930860307""'}",,,,United States,,,,,"['pickup', 'processing', 'commercial', 'industrial']","['copper', 'aluminum', 'steel', 'iron', 'brass', 'stainless steel', 'lead', 'nickel', 'tin', 'wire']",,,2007,""":""en-US"",""potentialAction"":[{""@type"":""ReadAction""","['cash', 'check']","['offer pickup services from commercial and industrial places', 'pickup commercial and industrial items']",metal recycling center Chicago IL,5,Bing,58,2025-07-12T00:39:27.910624
Frank's West Side Auto Parts,https://www.frankswestsideautoparts.com/,Top Dollar Paid For Junk Cars Chicago.  Title or No Tile Ok.  1 Hour Pick up & Cash Payment on the Spot. Call Frank's West Side to sell your junk car 773-254-4800,(773) 254-4800,,,"{'facebook': 'facebook.com/tr?id=354794826490965&amp;ev=PageView&amp;noscript=1""', 'twitter': ""twitter.com/'"", 'instagram': ""instagram.com/'+"", 'linkedin': ""linkedin.com/shareArticle?mini=true&amp;url='+link+'&amp;title='+encodedTitle;""}",,,,United States,,,,,"['pickup', 'collection', 'cash payment']","['iron', 'tin', 'silver', 'radiators']",,,,"'en',
        currentLocale: 'en',
        NavItem","['cash', 'check', 'paypal', 'financing']",,scrap yard Chicago IL,3,Bing,58,2025-07-12T00:39:29.308703
"Scrap Metal Services in Chicago, Chicagoland, Kankakee & NWI",https://www.bigdaddyscrap.com/,"Big Daddy Scrap is located in Chicago Heights & Kankakee, IL. We provide scrap metal services for commercial clients throughout Chicagoland, Kankakee & NWI!",,info@bigdaddyscrap.com,,"{'facebook': 'facebook.com/bigdaddyscrap""'}",,,,United States,,,,,"['collection', 'commercial']","['copper', 'tin', 'silver']",,,,"'en',
        currentLocale: 'en',
        NavItem","['cash', 'check', 'terms']",,scrap yard Chicago IL,4,Bing,58,2025-07-12T00:39:31.010574
"Current Scrap Metal Prices in Los Angeles, California Page 1",https://www.recyclingmonster.com/scrap-metal-price/united-states/california/los-angeles/179,"Current Scrap Metal Prices in Los Angeles, California. Listed scrap material prices are collected from the scrap yards in  Los Angeles. Daily price movements, historical prices and charts Page 1",(363) 586-9624,,,"{'facebook': 'facebook.com/RecyclingMonstercom', 'twitter': 'twitter.com/recyclingmonstr""', 'instagram': 'instagram.com/recyclingmonster', 'youtube': 'youtube.com/@RecyclingMonster_com""'}",,,,United States,,,,,,"['copper', 'aluminum', 'steel', 'iron', 'brass', 'bronze', 'stainless steel', 'lead', 'zinc', 'tin', 'electric motors', 'wire', 'cable', 'coils']",,,,,"['cash', 'check', 'terms']",,metal recycling center Los Angeles CA,3,Bing,50,2025-07-12T00:39:09.814427
United Scrap Metal Buyers and Recyclers – Committed to Making a Positive Impact in the Lives of Others,https://unitedscrap.com/,,(708) 780-6800,,,"{'facebook': 'facebook.com/unitedscrap', 'instagram': 'instagram.com/unitedscrapmetal', 'linkedin': 'linkedin.com/company'}",,,,United States,,,,,['pickup'],['tin'],,,1978,-switcher-style-css' href='https://unitedscrap,,,scrap metal dealers Chicago IL,2,Bing,50,2025-07-12T00:39:20.544746
Active Recycling Co,https://www.activelosangeles.com/,,(323) 295-7774,,,,,,,United States,,,,,"['roll-off', 'licensed']",,,['licensed to'],,,,['can provide roll-off bin service for trash and recycling'],aluminum recycling Los Angeles CA,5,Bing,41,2025-07-12T00:39:14.150211
Per TonCost Differential Between Recycling and Refuse Increases,https://ibo.nyc.ny.us/iboreports/ten-years-after-assessing-progress-on-the-citys-solid-waste-management-plan-supplement-2017.pdf,,(230) 307-1177,,,,,,,United States,,,,,,,,,,,,,waste metal collection New York NY,5,Bing,33,2025-07-12T00:39:09.493786
Scrap MetalRecyler,https://www.akatscrapmetal.com/,,,W@e-U.NvKs,,,,,,United States,,,,,,,,,,,,,scrap metal dealers Chicago IL,2,Bing,33,2025-07-12T00:39:22.917481
