name,phone,email,website,address,city,state,country,description,materials,services
United Scrap Metal Buyers and Recyclers – Committed to Making a Positive Impact in the Lives of Others,1174335649,,https://unitedscrap.com/,,,,United States,"


United Scrap Metal Buyers and Recyclers – Committed to Making a Positive Impact in the Lives of Others











































 








EnglishEspañolPolskiCustomer Log InGet a QuoteSchedule PickupEnglishEspañolPolskiWho We AreBusiness DiversityCommunity EngagementOur PromiseC",,"pickup, container"
FINDYOUR LOCALEMR METAL RECYCLINGSCRAPYARD,(856) 583-1830,,https://us.emrgroup.com/,,,,United States,Welcome to EMR Metal Recycling USA. We're one of the world's leading metal recyclers with locations across the globe.,"copper, iron, cable","container, demolition, processing"
Sims Metal,1683130933,,https://www.simsmm.com/,,,,United States,"Sims Metal buys ferrous metal from metal dealers, peddlers, auto wreckers, demolition firms and others who generate obsolete metal.We source non-ferrous metals from manufacturers, and from generators of electricity, telecommunication providers, and others.",,"container, demolition, processing"
Factoria Recycling & Transfer Station,6379884362,,https://kingcounty.gov/en/dept/dnrp/waste-services/garbage-recycling-compost/solid-waste-facilities/factoria,,,,United States,"























Factoria Recycling & Transfer Station - King County, Washington


Skip to main content


            close
        

KingCounty.gov is an official government website. Here's how you knowexpand_moreexpand_less








                                    account_balance
   ",iron,"container, processing"
We Recycle Scrap Metal,651-454-9215,recycle@jrsadvancedrecyclers.com,https://jrsadvancedrecyclers.com/,,,,United States,We Recycle Scrap Metal,,container
Pricing for Scrap Metal,1764444095,info@reliablerecyclingcenter.com,https://www.reliablerecyclingcenter.com/pricing/,,,,United States,"We pay cash for steel, copper, brass, stainless steel, aluminum, lead, and batteries. Check out our estimated pricing for scrap metal. Call to learn more.","copper, aluminum, steel, iron, brass, wire",container
RECYCLINGREDEFINED,1752926387,,https://www.sarecycling.com/,,,,United States,Your car still has VALUE. If you have an old car or damaged car that you’re ready to get rid of. WE WILL PAY CASH FOR IT TODAY!,"copper, aluminum, steel, iron, brass","container, demolition, processing"
"Metal, Appliances and Electronics",(703) 228-5000,descontactcenter@arlingtonva.us,https://www.arlingtonva.us/Government/Programs/Recycling-and-Trash/Residential/Curbside-Recycling-Trash/Electronics-Metal,,,,United States,"Have the County recycle your old metal, appliances and electronics.",iron,"pickup, container"
Metal Recycling,6381882733,,https://www.kauai.gov/Government/Departments-Agencies/Public-Works/Solid-Waste/Recycling/Metal-Recycling,,,,United States,"Puhi Metals Recycling FacilityThe Puhi Metals Recycling Facility is operated by Resource Recovery Solutions. The mission of the Puhi Metals Recycling Facility is to accept and recycle abandoned, untaxed, derelict and junked motor vehicles, white goods, scrap metal, and other...","copper, aluminum, steel, battery, cable",container
PEOPLE POWERED.,1320582485,,https://www.cohenusa.com/,,,,United States,"Cohen Recycling is headquartered in Middletown, Ohio, and operates a number of public and commercial metal recycling facilities throughout the Ohio Valley region.",iron,container
Home,(800) 463-4797,,https://www.triplemmetal.com/,,,,United States,Triple M Metal is the North American leader in scrap metal. Have scrap metal you don’t know what to do with? Bring it to a Triple M Metal yard near you!,"copper, aluminum, steel, iron",container
Contact Us,325.7912837,,http://allscrap.biz/,,,,United States," 






All Scrap Metal Recycling Home - All Scrap Metal Recycling



































































Home
About Us
Items We Buy
Contact









 





Scrap Metal Recycling 

Our full service metal recycling center offers the flexibility you need at competitive pric",,"pickup, container, demolition"
Text For Updates,(773) 923-3079,,https://aarecycles.com/,,,,United States,"All American Recycling is Chicago’s scrap metal recycling leader, accepting metals such as steel, copper, aluminum, stainless and lead.","copper, aluminum, steel, iron, brass, wire","pickup, container, demolition, processing"
Upstate Shredding - Weitsman Recycling,1752671875,,https://www.upstateshredding.com/,,,,United States,We are the largest privately owned scrap metal processing & recycling operation on the East Coast.,steel,"container, processing"
We Buy Your Scrap,1751892472,,https://rmrecycling.com/,,,,United States,"





River Metals Recycling | RMR












































Sell Your Scrap

Household Scrap
Junk Car
E-Scrap
Industrial Scrap


Industrial Scrap

Dispatch
MyScrapInfo


Locations

Indiana

Greensburg
New Albany
Seymour/North Vernon


Kentucky

Ashland
Danville
Glasgow (Speedway R","copper, aluminum, steel, iron, brass, wire","container, demolition"
WESTERN METALS RECYCLING,1752909374,,https://wmrecycling.com/,,,,United States,"




Western Metals Recycling – WMR








































Sell Your Scrap

Scrap Metal
Industrial Scrap
Junk Car
MyScrapInfo


Locations

Denver, CO
Grand Junction, CO
Plymouth, UT
Provo, UT
Salt Lake City, UT
Sparks, NV


Careers
About WMR

Safety
Environment
Community
Fast Facts
","copper, aluminum, steel, iron, brass, wire","container, demolition"
"6 REGIONAL COMPANIES, 70 RECYCLING FACILITIES",1745523011,,https://djj.com/recycling/,,,,United States,"We operate 6 regional companies with over 60 nationwide scrap metal recycling facilities, as well as many self-serve used auto part stores (U-Pull-&-Pay).","steel, iron",container
J3 Metals Recycling Center,0349095502,info@scrapmonster.com,https://www.scrapmonster.com/company/j3-metals-recycling-center/162217,,,,United States,"J3 Metals Recycling Center . Scrap Metal Recycling Company in United States,Texas,Orange, . Waste Recycling Company","copper, aluminum, steel, brass","pickup, container"
"Rather Recycling – Copper Scrap Metal, Recycling Center & Scrap Yards in Birmingham AL at 323 Finley Blvd, Birmingham, AL 35204",1674700345,icons-ffffff@2x.png,https://www.u-pull-it.com/junkyards-directory/rather-recycling-copper-scrap-metal-recycling-center-scrap-yards-in-birmingham-al-at-323-finley-blvd-birmingham-al-35204/,,,,United States,"Rather Recycling - Copper Scrap Metal, Recycling Center & Scrap Yards in Birmingham AL Recycling center at 323 Finley Blvd, Birmingham, AL 35204","copper, aluminum, steel, iron, brass",container
"Cash For Scrap Metal in Mt. Airy, MD",1752069963,info@reliablerecyclingcenter.com,https://www.reliablerecyclingcenter.com/about-us/service-areas/scrap-metal-recycling-mt-airy-md/,,,,United States,"Received cash for scrap metal in Mt. Airy, MD. Get paid to recycle! Call Reliable Recycling to learn more. We also offer roll-off containers!","copper, aluminum, steel, iron, brass, wire",container
A & R  Scrap Metal Recycling CompanyA Scrap Metal Buyer in Moreno Valley,2541746979,,"https://www.armetalrecyclers.com/Moreno_Valley,_California.html",,,,United States,"A & R Scrap Metal Recycling Company, scrap metal buyer in Moreno Valley, scrap metal recycler, recycle scrap metal, scrap metal prices, scrap buyer, Moreno Valley, CA","copper, aluminum",
Taney Co Metal & Recycling,(417) 546-6700,,https://www.salvage-parts.com/junk-yards/taney-co-metal-amp-recycling,"Location: USA , Missouri, Taney, Taneyville Address: 381 Central Ave, Taneyville, MO 65759 Phone: +1 417-546-6700 Website: Last update: September 23, 2024","Location: USA , Missouri, Taney, Taneyville Address: 381 Central Ave, Taneyville",MO,United States,"Check the info on Taney Co Metal & Recycling, which is located in Taneyville (Missouri).",,container
D & L Recycling,(330) 225-7507,help@mapquest.com,https://www.mapquest.com/us/ohio/d-l-recycling-22613018,,,,United States,"Get more information for D & L Recycling in Valley City, OH. See reviews, map, get the address, and find directions.","copper, aluminum, steel, iron, brass, wire","pickup, container, processing"
PROUDLY SERVING SAN ANTONIO FOR OVER 20 YEARS.,0055507007,user@domain.com,http://longhornrecycling.com/,,,,United States,"






Longhorn Recycling





























































































Sign In
My Account




















              Home
            

About


Recycling




            Services
          

Resources


            Contact
          





Back

","copper, aluminum, steel, iron, brass, wire","pickup, container, processing"
TRC America Scrap Metal Recycling Center | Eustis FL,1000572104,,https://www.facebook.com/TRC-America-Scrap-Metal-Recycling-Center-184377779231/posts,,,,United States,"TRC America Scrap Metal Recycling Center, Eustis. Отметки ""Нравится"": 180 · Обсуждают: 1 · Посетили: 25. Need Extra Cash?  TRC America Recycling Center...","aluminum, iron, wire","container, processing, sorting"
Zore’s Recycling,317-244-0700,,https://www.zoresrecycling.com/blog/are-you-searching-for-local-metal-recycling-centers-in-indianapolis/,,,,United States,"





Are You Searching for Local Metal Recycling Centers in Indianapolis? | Zore’s Recycling	























Skip to primary content


Zore’s Recycling



 

Search




Main menu
Blog Home Page
Visit our Website
 





Post navigation
← Previous
Next →



Are You Searching for Local Metal R","copper, iron","pickup, container, processing"
We Buy Your Scrap,1751892221,,https://dj-prod-web-tmr-01.azurewebsites.net/,,,,United States,"





Trademark Metals Recycling | TMR

















































Sell Your Scrap

Household Scrap
Junk Car
E-Scrap
Free Quote
Sign Up


Industrial Scrap

Dispatch
MyScrapInfo


Locations

Clearwater, FL
Daytona, FL
Fort Myers, FL
Gainesville, FL
Jacksonville, FL
LaBelle, FL
Na","copper, aluminum, steel, iron, brass, wire","container, demolition"
Scrap Metal Yards and Dealers in USA,(410) 546-1111,admin-contacted@proton.me,https://metalrecap.com/,,,,United States,Scrap Metal Yards and Dealers in the USA: Where to Sell Scrap for the Best Price: ✓ Locations ✓ Prices per lb ✓ Business Hours ☎ Phone Numbers,"copper, aluminum, steel, iron, brass, battery, wire, cable","pickup, container, demolition, processing"
Scrap Yards in United States,0349095502,info@scrapmonster.com,https://www.scrapmonster.com/scrap-yard/united-states,,,,United States,"Scrap Yards in United States - Metal,Automotive,Electronics and Plastic Recycling Centers in United States states and cities, Yard contact details","copper, aluminum, steel, iron, brass, battery, wire","pickup, container, processing"
Best Metal Recycling Centers in the United States,(800) 468-7272,,https://www.recyclingmonster.com/recycling/metal/1,,,,United States,"BEST Metal Recycling Centers in the United States - Updated 2025 - RecyclingMonster - Wasatch Metal Recycling, Arvada Recycling, SA Recycling , Action Metals Recyclers, C&D Scrap Metal Recyclers, United Scrap Metal Inc, Belson Steel Center Scrap,Inc, American Metals Company, Cohen, Denver Scrap Meta","copper, aluminum, steel, iron, brass, battery, wire, cable","container, processing"
Top Metal Recycling Companies in United States,7351392515,,https://ensun.io/search/metal-recycling/united-states,,,,United States,"Discover all relevant Metal Recycling Companies in United States, including Trademark Metals Recycling and Real Alloy","copper, aluminum, steel, iron, brass, battery, wire","pickup, container, demolition, processing, sorting, weighing"
Scrap Metal Recycling Near Me,1752927014,,https://www.recyclingcenternear.me/recycle-metal-near-me/,,,,United States,"Find the nearest metal recycling center near you and get paid for your scrap metal. Ferrous and non-ferrous metal. Steel, copper, aluminum, iron, brass. All types of metal accepted: scrap, pipe, wire, siding","copper, aluminum, steel, iron, brass, battery, wire, cable","container, sorting"
AXIS RECYCLING,2545352419,axisrecycling@sbcglobal.net,https://www.axisrecycling.com/,,,,United States,Scrap Metal Recycling: Commercial and  walk in customers. Family owned and operated. axisrecycling.org,"copper, aluminum, steel, iron","pickup, container, processing"
Scrap Metal Recycling Center,4110341396,,http://scrapmetalrecyclingcenter.com/scrap-metal-in-connecticut-buyers-suppliers-disposal-recycling-and-waste-management/,,,,United States,Scrap Metal in Connecticut – How Is Metallic Waste Managed ? Scrap Disposal Scrap metal that is generated in the United States in general and Connecticut in,"copper, aluminum, steel, iron","container, processing"
Scrap recycling,(239) 320-1193,,https://fl.biznet-us.com/firms/scrap_recycling/,,,,United States,"



Scrap recycling - Florida














 



Florida




Companies:71,348 Products and Services:2,324 

Articles and publications:1,354 Tenders & Vacancies:11 



Sign in










Is your Company in our Directory?






Companies



 
Products and Services

 

 
Tenders

 

 
Vacancies

 

 
Ar",aluminum,container
Scrap Yards in United States,0349095502,info@scrapmonster.com,https://www.scrapmonster.com/scrap-yard/united-states/,,,,United States,"Scrap Yards in United States - Metal,Automotive,Electronics and Plastic Recycling Centers in United States states and cities, Yard contact details","copper, aluminum, steel, iron, brass, battery, wire","pickup, container, processing"
Metal Recycling Center in Los Angeles,(818) 771-0510,tmjunkermoval@gmail.com,https://www.tmscrapmetals.com/,,,,United States,"Metal recycling in L.A. Top prices for copper, brass, stainless steel, aluminum wires, aluminum cans, plastic & glass bottles, and more. (818) 771-0510.","copper, aluminum, steel, iron, brass, wire, cable","container, demolition"
Scrap Metal Recycling Facts,1739163994,,https://www.articlespace.org/scrap-metal-recycling-facts/,,,,United States,"In recent years, the public has been more educated as to the importance of recycling as many materials as possible in order to deflect from having an","copper, aluminum, steel, iron, battery","container, demolition, processing, weighing"
Residential Metal Recycling Services,(713) 862-5588,,https://cdscrapmetal.com/residential-metal-recycling/,,,,United States,"Recycle household appliances, brass fixtures, and more. Enjoy competitive pricing and friendly service at our four Houston locations. View our locations.","copper, aluminum, steel, iron, brass",container
Scrap Metal Recycling Gallery,1692877302,Info@Hcmetals.Com,https://hcmetals.com/what-we-accept/gallery/,,,,United States,Have some scrap metal you would like to get rid of but are not sure if we accept them? Check out our scrap metal recycling gallery to learn more!,"copper, aluminum, steel, iron, brass, battery, wire, cable","container, demolition, processing"
How Companies that Buy Scrap Metal Are Improving the Environment,(708) 730-1400,,https://scrapmetalservices.com/tag/scrap-metal-recycling-center/,,,,United States,"


 




Scrap Metal Recycling Center Archives | Scrap Metal Services

































































Skip to content 



 



 
 
Home
About 




History Meet The Team Safety Core Values Sustainability Careers Press Releases

Services 




Steel Mill Services Non-Fe","steel, iron","container, demolition, processing"
Established Scrap Metal Recycling,1901191737,,https://www.unionbaygroup.com/listings/established-scrap-metal-recycling,,,,United States,"This listing is for a long-established, profitable, and reputable scrap metal recycling operation located in Northwest Indiana. In continuous operation for over","copper, aluminum, steel, brass","container, processing"
Scrap Metal Recycling,651-454-9215,recycle@jrsadvancedrecyclers.com,https://jrsadvancedrecyclers.com/scrap-metal-prices/,,,,United States,Scrap Metal Recycling,"copper, aluminum, steel, iron, brass, battery, wire",container
Today’s Scrap Prices & Local Scrap Yards,1747741523,,https://iscrapapp.com/,,,,United States,Stay up to date with current scrap metal prices. Maximize your profits with the latest market trends & locate scrap yards in the US & Canada.,"copper, aluminum, steel, iron, brass, battery, wire, cable",container
DOING BUSINESS THE RIGHT WAY,2545352419,605a7baede844d278b89dc95ae0a9123@sentry-next.wixpress.com,https://www.usasalvage.org/,,,,United States,"



















































Home | USA Salvage





















top of pageUSA SALVAGEVeteran Owned and OperatedHomeWhat We BuyCurrent PricesLocationBusiness HoursMoreUse tab to navigate through the menu items.610-264-4411Call UsDOING BUSINESS THE RIGHT WAYWelcome to USA ",iron,container
"Scrap Yard in Philadelphia, PA Serving NJ, DE, PA, and NY",(856) 356-2516,,https://sgt-scrap.com/,,,,United States,"Need a scrap yard in Philadelphia, PA or the surrounding areas? With pickup and drop-off for NJ, DE, PA, and NY, Sgt. Scrap is here to pay for your scrap metal.","copper, aluminum, steel, iron, brass, wire","pickup, container"
FIND YOUR PARTS,(800) 962-2277,,https://www.lkqpickyourpart.com/,,,,United States,Pick Your Part is North America’s largest recycler of used cars and trucks. With the largest selection of OEM used auto parts at a low price.,,container
United States Scrap Yards Finder,0349095502,info@scrapmonster.com,https://www.scrapmonster.com/scrap-yards,,,,United States,"Recycling Centers near you. Scrap Yards to Recycle Metal, Automotive, Plastic, Waste, Paper,Batteries,Construction,Hazardous, Household and Electronics Waste. Scrap Yard in United States and Canada","copper, aluminum, steel, iron, brass, battery","pickup, container, demolition, processing"
all emr yards,8475682704,,https://us.emrlocal.com/yards/,,,,United States,"All US EMR Metal Recycling scrap yards. Best prices paid, personal, friendly service. All metals taken, also scrap cars, cables, catalytic converters, and more.",cable,container
YourLocalMetalRecycler,8475682704,,https://us.emrlocal.com/,,,,United States,"EMR Metal Recycling USA. Earn money from recycling metal. Fast payment. Everyone welcome. Best prices paid for ferrous (steel / iron) and non-ferrous (aluminium, brass, bronze, copper, lead) metals, scrap cars, cans, and appliances.","copper, aluminum, steel, iron, brass, cable",container
Scrap Metal Miami: Reliable Metal Recycling Near Me,1727289835,info@usascrapmetalsandrecycling.com,https://usascrapmetalcompany.com/,,,,United States,Highest Prices Paid Guaranteed! USA Scrap & Recycling is the recognized leader for value in metals waste-stream management in Miami-Florida.,"copper, aluminum, steel, iron, brass, cable","container, processing"
USA Locations,(708) 730-1400,,https://scrapmetalservices.com/usa-locations/,,,,United States,Scrap Metal Services have many locations with recycling centers in USA with two of them open to the public. For more info call 708-730-1400.,"steel, iron","container, demolition, processing"
Scrap Yards & Scrap Prices in USA & Canada,1747741523,,https://iscrapapp.com/yards-in/,,,,United States,"See all of the Scrap Yards listed on the iScrap App in the US & Canada. View company information, current scrap prices, request containers, pickups, & more.","copper, aluminum, steel, iron, brass, battery, wire, cable","pickup, container"
Scrap Yards in New York,0349095502,info@scrapmonster.com,https://www.scrapmonster.com/scrap-yard/united-states/alabama/new-york/,,,,United States,"Scrap Yards in New York, Alabama, United States. New York Recycling Centers Details and Pick Up,Drop Off,Curbside service. Nearest Scrap yards","copper, aluminum, steel, brass, battery","pickup, container"
Scrap Yards in Portland,0349095502,info@scrapmonster.com,https://www.scrapmonster.com/scrap-yard/united-states/oregon/portland/,,,,United States,"Scrap Yards in Portland, Oregon, United States. Portland Recycling Centers Details and Pick Up,Drop Off,Curbside service. Nearest Scrap yards","copper, aluminum, steel, brass, battery","pickup, container"
Stone Security Service,0349095502,stnscrtservice@gmail.com,https://www.scrapmonster.com/scrap-yard/stone-security-service/59220,,,,United States,"Stone Security Service Scrap Yard. Recycling Centers in 5 Penn Plaza  19th Floor,,New york,Alabama, United States-ZIP:NY 10001. ","copper, aluminum, steel, brass","pickup, container"
Trashformers,0349095502,trashformerstx@gmail.com,https://www.scrapmonster.com/scrap-yard/trashformers/62708,,,,United States,"Trashformers Scrap Yard. Recycling Centers in No Brick and Mortar,,McKinney,Texas, United States-ZIP:75070. ","copper, aluminum, steel, brass","pickup, container"
NYOPENDATA,1643743604,,https://www.nyopendata.com/5183913-scrap-yard-holdings-llc,,,,United States,"SCRAP YARD HOLDINGS, LLC is a business entity registered in the state of New York under the legal form of DOMESTIC LIMITED LIABILITY COMPANY.  It can be found in the register by the DOS ID 5183913. The company was established and set into the register at 9th August 2017 and its current status is ACT",,container
scrap yards,(718) 297-6200,,https://www.fyple.com/company/scrap-yards-rjkwnpf/,175-15 Liberty Avenue Queens Jersey City 11433 NY United States,,,United States,"CCC Scrap is a trusted name in the scrap industry; it has been ruling this industry for the past 25 years. It’s the dedication, hard work an...","copper, aluminum, iron, brass",container
Scrap Yards New York City,(718) 297-6200,,https://www.fyple.com/company/scrap-yards-new-york-city-ri6zkv7/,175-15 Liberty Avenue Queens New York NY United States,,,United States,The emerging necessity of sustainable growth has marked the metal recycling process as a critical aspect for us. We at CCC Scrap have vowed ...,"copper, aluminum, iron, brass",container
Real Time Press Release Distribution,2644536267,info@americanscrapmetal.com,https://realtimepressrelease.com/press-releases-tagged-with/scrap-yard/,,,,United States,"




Scrap yard | Real Time Press Release Distribution







































Real Time Press Release Distribution

Search


Primary Menu
Skip to content






Search for:



 






Tag Archives: Scrap yard




Environment, Industrial

Getting The Most Cash At The Scrap Yard

August","copper, aluminum, steel, iron, brass, battery, wire, cable",container
Scrap Yards Near Me | Scrapyard Near Me,1725034300,,https://www.scrapyardnearme.co/,,,,United States,Scrap Yards Near Me is the #1 platform for your local recycling junkyard prices and needs. Discover the best scrap yard near me today! Offering the best prices.,"copper, aluminum, steel, iron, brass, wire, cable","pickup, container, demolition, processing"
Scrap,1299010319,,https://en.wikipedia.org/wiki/Scrap,,,,United States,"


Scrap - Wikipedia




































Jump to content







Main menu





Main menu
move to sidebar
hide



		Navigation
	


Main pageContentsCurrent eventsRandom articleAbout WikipediaContact us





		Contribute
	


HelpLearn to editCommunity portalRecent changesUpload fileSpe","copper, aluminum, steel, iron, brass, battery, cable","container, demolition, processing, sorting"
Ross Scrap Yard,1574280550,,https://www.company-listing.org/ross_scrap_yard.html,,,,United States,"




Ross Scrap Yard ,United States










 COMPANY-LISTING.ORG 
  








Home
Add new company listing







Rubber & PlasticsPlastic Raw MaterialsUnited States Ross Scrap Yard




Ross Scrap Yard





Company Details

Business Type : Trading Company
Location : 400 W Harper Rd 97838 Hermiston ",,
Scrapyard Near Me,01843 800800,enquiries@reclamet.co.uk,https://www.reclamet.co.uk/scrapyard-near-me/,,,,United States,"Scrapyard Near Me Open Today, For Metal, Car, Parts, Nearby Scrap Yard. Birchington, Dover, Ramsgate, Margate, Canterbury, Deal, Folkestone.",cable,"pickup, container, demolition, processing"
Massive fire breaks out at Kuwait scrap yard amid extreme heat and strong winds,1113250065,gnsmtp@gnonline.onmicrosoft.com,https://gulfnews.com/world/gulf/kuwait/massive-fire-breaks-out-at-kuwait-scrap-yard-amid-extreme-heat-and-strong-winds-1.500203608,,,,United States,More than 200 firefighters combat massive blaze at Kuwait scrap yard amid strong winds,"iron, wire",container
Call the scrap yard. We have a labor model to be picked up.,1028050688,,https://www.restaurantbusinessonline.com/workforce/call-scrap-yard-we-have-labor-model-be-picked,,,,United States,"Sweet & Sour: The restaurant business has grappled with labor challenges for about 40 years now, but never a situation as trying as the",iron,container
ABout Us,1749473784,,https://www.usedtoyotaparts.co.za/about-us/,,,,United States,Looking for used Toyota About Us spares? Contact Toyota Scrap Yards in South Africa. Save time and choose the best quote. Delivery SA wide!,,container
Top Paying RV Scrap yard in Canada,(519) 744-3573,info@schmidtsautorecycling.ca,https://schmidtsautorecycling.ca/rv-scrap-yard-in-canada/,,,,United States,Here are the key features that make us one of the best RV scrap yards in Canada.,iron,"pickup, container"
Is there any reason why the SS United States has just been left rusting? Why hasn't she been scrapped or turned into a museum ship?,7058197287,9f057df6115a4bb488c08ea12a835e6e@o418887.ingest.sentry.io,https://www.reddit.com/r/Oceanlinerporn/comments/16kjz3d/is_there_any_reason_why_the_ss_united_states_has/,,,,United States,"

Reddit - The heart of the internet





























 








Skip to main content


























Open menu

Open navigation



































































 
Go to Reddit Home




















r/Oceanlinerporn

A chip








A close bu",iron,container
US EPA,(518) 407-0400,Romanowski.Larisa@epa.gov,https://cumulis.epa.gov/supercpad/cursites/csitinfo.cfm?id=0202609,,,,United States," 














ROSEN BROTHERS SCRAP YARD/DUMP | Superfund Site Profile | Superfund Site Information | US EPA





























Jump to main content



US EPA
United States Environmental Protection Agency


Search

Search








Superfund Site:



Contact Us





ROSEN BROTHERS SCRAP YAR",iron,processing
Scrap Trade & Scrapyard Near You,(815) 622-7298,,https://scrapvisor.com/find-scrap-yards/,,,,United States,"Find trusted scrap metal buyers and recycling centers in the USA. Get up-to-date prices, view an interactive map, and connect with reputable companies for fast, profitable scrap sales.","copper, aluminum, steel, iron, brass, wire, cable","pickup, container, demolition"
Our Company Commitment,1751305011,,https://metalrecyclingservices.com/about/,,,,United States,"




About | Metal Recycling Services








































Sell Your Scrap

Household Scrap
Junk Car
Non-Ferrous/E-Scrap


Industrial Scrap

Dispatch
MyScrapInfo


Locations

Gastonia, NC
Monroe, NC
Whiteville, NC


Careers
About

Affiliates
Community
Environment
Fast Facts
Leader",iron,container
"MD Metal Recycling Services, Inc.",2545352419,605a7baede844d278b89dc95ae0a9123@sentry-next.wixpress.com,https://www.mdmetalrecycling.com/,,,,United States,MD Metal Recycling Services - providing solutions for your scrap metal recycling business. Buying aluminum and other non-ferrous metals. ,"aluminum, iron",container
Scrap Metal Recycling Companies in United States,0349095502,info@scrapmonster.com,https://www.scrapmonster.com/companies/scrap-metal-recycling/country/united-states/397,,,,United States,"Scrap Metal Recycling Companies, Buyers, Suppliers in United States United States Traders Directory","copper, aluminum, steel, iron, brass, battery, wire","pickup, container, processing"
It's what's inside that counts.,1751302415,myCMC-logo@2x.png,https://www.cmc.com/,"6565 N. MacArthur Blvd. Suite 800 Irving , TX 75039",6565 N. MacArthur Blvd. Suite 800 Irving,TX,United States,"




Home | CMC
























Skip to content



Language




















Language 































 


Search


Go





 

Our Company


Our Global Reach


Our Values


Board of Directors


Management Team


Sustainability



Our Commitment


Environment


Social


Gove","steel, iron, wire, cable",container
Recycle with USRI,(215) 338-5050,info@unitedstatesrecycling.com,https://unitedstatesrecycling.com/,,,,United States,United States Recycling Inc. offers a complete range of solutions to recyclable material generators in the Tri-State area and beyond.,"aluminum, iron",container
WE ARE COMMITTED,4549394706,,https://www.pacific-steel.com/,,,,United States,Pacific Steel and Recycling is your one-stop destination for metal recycling and metal products. Learn more by visiting our site today.,"steel, iron","container, processing"
TOTALL METAL RECYCLING,1121720975,info.wna.recycling@wieland.com,https://www.tmrusa.com/,,,,United States,"TMR  processes recycled metals into consuming markets, assisting our smelters’ and refiners’ conversion of scrap.","copper, aluminum, iron, wire","container, processing"
Aluminum Producer and Scrap Metal Recycler,5876159866,,https://www.metalsourcellc.com/,,,,United States,Providing full-service scrap and metal recycling services for individuals and businesses throughout Indiana.,"copper, aluminum, steel, iron",container
"Texas Metal Recycling Company, Services Nationwide.",1743619629,nationalscrapmetal@yahoo.com,https://agmetalrecycling.com/,,,,United States,"





Scrap Metal: Scrap Metal Recycling Services | Houston Scrap Metal | Scrap Metal Near Me | Texas's Metal Recycling  | Metal Scrap Near Me Houston - Scrap Metal Junkyard




























(214) 502-5030
nationalscrapmetal@yahoo.com















Home
About
Services
Contact
 


Select ","copper, aluminum, steel, brass","container, weighing"
Austin Metal and Iron,512-272-8111,,https://austinmetalandiron.com/contact-us/metal-recycling-services-west-lake-hills-tx,,,,United States,"Austin Metal & Iron offers metal recycling services at our location in West Lake Hills, TX. We accept aluminum, brass, copper, iron, and more. Call today!","copper, aluminum, steel, iron, brass","pickup, container"
"Peel Scrap Metal Recycling Serving Southern Ontario, including Mississauga, Brampton, Etobicoke, Burlington, Oakville, Milton & Georgetown",(905) 612-1288,info@peelscrapmetalrecycling.com,https://www.peelscrapmetalrecycling.com/recycling-services/,,,,United States,Our recycling services are more than meets the eye. We heavily invest in the equipment & machinery to meet a wide range of client needs. Call us at 905 825-1288/612-1288.,"copper, aluminum, steel, iron, brass, wire, cable","container, demolition, processing"
The Professional Recycling Service That You Need,1741100753,,https://jacksonmetalrecyclingok.com/,"Claremore , OK 74019",Claremore,OK,United States,"Jackson Metal Recycling is an illustrious company that works in Claremore, OK, 74019. Contact us for an exceptional recycling service!",,container
Recycling Services,3333333333,bigcountryrecycling@gmail.com,https://metalrecyclingsanangelotx.com/recycling-services/,,,,United States,"From aluminum containers to stainless steel, copper products & scrap cars, Big Country Recycling LLC will give you a great price. Bring us your assorted metals!","copper, aluminum, steel, iron, brass, wire","container, processing"
"Industrial Metal Recycling Services in Terre Haute, IN",1706674942,webinquiries@bryantindustries.net,https://www.bryantindustries.net/industrial-metal-recycling,,,,United States,"Need reliable industrial metal recycling services in Terre Haute, IN? Call Bryant Industries at (217) 431-0551 for efficient recycling solutions.","copper, aluminum, steel, iron, brass, wire","pickup, container, demolition, processing, sorting, weighing"
ABOUT,018 323 248,ricks_recycling@hotmail.com,https://www.ricksrecycling.net/,,,,United States,"Rick's Recycling, Inc. is a full-service scrap metal recycler and CRV buy-back center serving Bakersfield and its surrounding areas.","copper, aluminum, steel, iron, brass, wire",container
"DNJ Recycling of Drakesboro, LLC",0349095502,info@scrapmonster.com,https://www.scrapmonster.com/company/dnj-recycling-of-drakesboro-llc/182803,,,,United States,"DNJ Recycling Of Drakesboro, LLC. Scrap Metal Recycling Company in United States,Kentucky,Drakesboro, 401 S John Prine Ave 42337. Waste Recycling Company","copper, aluminum, steel, brass","pickup, container"
WHAT WE DO,011-3322 0091,605a7baede844d278b89dc95ae0a9123@sentry-next.wixpress.com,https://www.amrklang.com/portfolio,,,,United States,"Anand Metals Recycling's portfolio showcases our vast experience in recycling a diverse range of metals and electronic equipment. It highlights our innovative techniques, environmental commitments, and successful partnerships with both businesses and individuals. Our proven track record is a testame","iron, battery","container, processing, sorting"
Home - Inland Iron & Metal,8458579706,inland.iron@hotmail.com,https://inlandiron.com/,,,,United States,"Inland Iron & Metal is your trusted partner in environmentally conscious scrap metal recycling since 1962. Why toss your metal, when you can sell it to us for cash?",iron,"container, demolition"
Environmental Services,1315832760,,https://aandsmetal.com/environmental-services,,,,United States,"


A&S Metal Recycling - Environmental Services





















Home
About Us

History
About Us
Our Mission
Compliances
Mexico Division
Industry Affiliations
Careers


Services

Management Consulting
Metal Processing
Scrap Metal Services
Brokerage
Certified Destruction


Products

Ferrous Metal",iron,"container, processing"
A&S Metal Recycling,1464609008,,https://aandsmetal.com/,,,,United States,"


A&S Metal Recycling


















Home
About Us

History
About Us
Our Mission
Compliances
Mexico Division
Industry Affiliations
Careers


Services

Management Consulting
Metal Processing
Scrap Metal Services
Brokerage
Certified Destruction


Products

Ferrous Metal
Non-Ferrous Metal
High Temp",iron,"container, processing"
"Metal Recycling Services In South Bend, Indiana - South Bend Junk Removal",1740011246,,https://www.southbendjunkremoval.com/metal-recycling.html,,,,United States,"

Metal Recycling Services In South Bend, Indiana - South Bend Junk Removal












































































 


				Home
			



				Services
			





			Special Hauling Services
		>






			Apartment Complex Cleanout
		





			Attic Cleanup Service
		


","copper, aluminum, steel, iron, brass","pickup, container"
Recycling Services/ Resource Metal Recycling,(330) 908-0400,,https://www.resourcemetalrecycling.com/recycling-services,,,,United States,"Resource Metal Recycling offers scrap metal recycling services to the general public as well as trade contractors, industrial and automotive industries.","copper, aluminum, steel, iron, brass, wire",container
Recycling | JSI Metal Recycling | United States,5811658444,605a7baede844d278b89dc95ae0a9123@sentry-next.wixpress.com,https://www.jsimetal.com/,,,,United States,"JSI Metal Recycling pays cash for your scrap! With our certified scales, we will aim to be the best metal recycler in Central Arkansas. ","copper, aluminum, iron, brass","pickup, container"
Metal/Scrap Metal Recycling Services,(513) 800-2999,info@IH-R.com,https://ih-r.com/metal-scrap-metal-recycling/,,,,United States,"Discover reliable metal recycling services at Industrial Hauling Recycling. Our sustainable solutions cater to your industrial needs, promoting a greener future.","copper, aluminum, steel, iron, brass, cable","container, sorting"
"WEEDVILLEBranch Yard​1817 Redwood Ave.Weedville, PA  15868",2545352419,605a7baede844d278b89dc95ae0a9123@sentry-next.wixpress.com,https://www.noveyrecycling.com/,,,,United States,"Welcome to Novey Recycling, Inc. We are a family business serving Central PA since 1906. A Scrap Metal Recycling and Auto Salvage Facility providing Roll Off Container Service ","copper, aluminum, steel, iron, brass",container
National Scrap Metal Services,(973) 826-2745,,https://rockawayrecycling.com/scrap-metal-pickups/scrap-services-across-the-united-states/,,,,United States,"Get in contact with Rockaway Recycling for your Industrial Scrap Metal needs throughout the United States. We offer services to some of the largest processors. We can help with removal of scrap metal from demolitions, liquidations, rip-outs, and more. Contact us today to get started and start scrapp","copper, aluminum, steel, iron, battery, wire, cable","pickup, container, demolition"
Rating Top 26 Companies in Scrap Metal Recycling,9488471075,,https://www.inven.ai/company-lists/top-26-scrap-metal-recycling-companies,,,,United States,Discover the top players in scrap metal recycling like Schnitzer Steel and Sims Metal Management. Tap into comprehensive data and reviews outlining industry trends,"copper, aluminum, steel, iron, brass, wire, cable","container, demolition, processing, sorting"
AnyScrap Anywhere Anytime,(208) 562-1200,info@umrecycling.com,https://umrecycling.com/,,,,United States,"








Home | United Metals Recycling






















































































HomeHistory
Environmental Commitment


ServicesBin Exchange
MOBILE SHREDDING
Scrap Management
Transportation
Processing
Converter Reclaim
Copper Reclaim
Electronics Recycling","copper, aluminum, iron, wire","pickup, container, demolition, processing"
Metal Recyclingfor Your Business,833.910.1544,,https://recoverusa.com/recycling-services/metal-recycling/,,,,United States,"Recover offers industrial and scrap metal recycling services for industries throughout the United States. We accept aluminum, copper, brass, steel & more.","copper, aluminum, steel, iron, brass, wire, cable",container
The world of secondary raw materials at your fingertips,0316 440025,office@metaloop.com,https://www.metaloop.com/,,,,United States,"Unlock the value of your scrap metal with Metaloop. Transparent processes, strategic partnerships, and scalable solutions tailored to you.","copper, aluminum, steel, iron, wire","pickup, container, processing"
Top 10 Metal Scrap Exporters in the USA,846-7423006,info@tradeimex.in,https://www.usimportdata.com/blogs/top-metal-scrap-exporters-in-usa,,,,United States,"The top 10 biggest metal scrap exporters in the USA include Nucor Corporation ($34.7 billion), Sims Metal Management ($2.5 billion), and Commercial Metals Company ($1 billion), all with over 1.5 million tons of metal scrap exports annually.","copper, aluminum, steel, iron",container
Current Prices,954-488-0700,,https://scrapmetalbuyers.com/current-prices/,,,,United States,"







Current Prices - Scrap Metal Recycling Yard Houston TX





























































Skip to content















 
+954-488-0700














Facebook-square
 



Linkedin
 



Link
 























 









Sell to us
Current Prices
About Us
Cont","copper, aluminum, steel, iron, brass, wire, cable","pickup, container"
We Buy All Types of Metal Scrap,1683130933,,https://www.simsmm.com/sell-to-us/,,,,United States,You can drop off collected metal scrap at our facility or we can arrange on-site collection bins for your convenience. Competitive pricing and quick cash payments.,wire,"container, demolition, processing"
Welcome to the Ultimate Scrap Showdown!,(713) 862-5588,,https://cdscrapmetal.com/,,,,United States,Discover scrap metal recycling services at C&D Scrap Metal. We offer competitive pricing and efficient processing for all types of metal waste. Call us today.,"copper, aluminum, steel, iron, brass, wire","container, processing, weighing"
Metal Recycling | Suburban Scrap Metal Co | United States,0684054685,kelly@suburbanscrap.com,https://www.suburbanscrap.com/,,,,United States,"Welcome to Suburban Scrap! We give cash for your scrap metal. We take copper, brass, steel and aluminum and more! Come recycle your leftover metal with us today.","copper, aluminum, steel, iron, brass, wire","pickup, container, processing"
United States Scrap Metal Prices,0349095502,info@scrapmonster.com,https://www.scrapmonster.com/scrap-metal-prices/united-states,,,,United States,"Scrap Metal Prices in United States. Current Scrap Metal Recycling Prices collected from USA Scrap Yards, brokers and exporters. Daily Prices on Non Ferrous, Ferrous, Scrap Precious Metals and Electronic Scrap. Scrap Prices are updated Daily around 12 EST","copper, aluminum, steel, iron, brass, battery, wire","pickup, container"
Menu,(866) 337-7687,,https://www.fptscrap.com/,,,,United States,"














































































Call Toll Free:

1-866-FERROUS


















Menu



Home
About

News
Mission, Vision and Core Values
Company History
Financial Strength
Meet the Staff
Cleveland Cliffs
Strategic Alliances


Metal Recycling

Purchasin","steel, iron","container, processing"
Who do metal scrap yards in the U.S. sell the bulk of their scrap to for profit? - Quora,3413141792,4-ans_frontend-relay-lib-@nivo-bar-27-ec1386bdb7f47678.webpack,https://www.quora.com/Who-do-metal-scrap-yards-in-the-U-S-sell-the-bulk-of-their-scrap-to-for-profit,,,,United States,"Who do metal scrap yards in the U.S. sell the bulk of their scrap to for profit? - Quora




Something went wrong. Wait a moment and try again.Try again


Please enable Javascript and refresh the page to continue","copper, aluminum, steel, iron, brass, cable","container, processing"
Are there scrap metal collectors in the United States or Americans who collect and hand over metal for money to scrap metal collection points? - Quora,3413141792,4-ans_frontend-relay-lib-@nivo-bar-27-ec1386bdb7f47678.webpack,https://www.quora.com/Are-there-scrap-metal-collectors-in-the-United-States-or-Americans-who-collect-and-hand-over-metal-for-money-to-scrap-metal-collection-points,,,,United States,"Are there scrap metal collectors in the United States or Americans who collect and hand over metal for money to scrap metal collection points? - Quora




Something went wrong. Wait a moment and try again.Try again


Please enable Javascript and refresh the page to continue","copper, steel, brass, wire, cable","pickup, container, processing"
Buy Scrap Metal,(800) 463-4797,ferrousinquiries@triplemmetal.com,https://www.triplemmetal.com/buy-scrap-metal/,,,,United States,"Interested in buying scrap metal? From foundries to steelmakers, our traders are equipped to service all your scrap metal needs!","copper, aluminum, steel, iron, brass","container, demolition, processing, sorting"
Get Top Dollar for Scrap Metal Recycling,1658768693,,https://glescrap.com,,,,United States,"Scrap metal recycler with locations throughout Florida & Michigan, GLE Scrap Metal offers top dollar for your metal.","copper, aluminum, iron","pickup, container, demolition, processing"
We Stand United,708-780-6800,,https://unitedscrap.com/contact-us/,,,,United States,"


Contact Us – United Scrap Metal Buyers and Recyclers



































 








EnglishEspañolPolskiCustomer Log InGet a QuoteSchedule PickupEnglishEspañolPolskiWho We AreBusiness DiversityCommunity EngagementOur PromiseCore ValuesSustainabilitySafety and ComplianceQEHS & Policy",,"pickup, container"
About Us,954-488-0700,,https://www.scrapmetalbuyers.com/about-us,,,,United States,"







About Us - Scrap Metal Recycling Yard Houston TX





























































Skip to content















 
+954-488-0700














Facebook-square
 



Linkedin
 



Link
 























 









Sell to us
Current Prices
About Us
Contact
 
","copper, aluminum, steel, iron, brass, wire, cable","pickup, container, processing"
Leading Minnesota Scrap Metal Buyer – Minneapolis St. Paul,6127216244,,https://www.lederbros.com/scrap-metal-buyer,,,,United States,"Minnesota leading scrap metal buyer purchases all metals at competitive prices and market rates in Minneapolis St Paul. We buy iron, steel, aluminum and copper.","copper, aluminum, steel, iron, brass","container, demolition, processing"
Scrap Buy Requests6 scrap offers listed,0349095502,info@scrapmonster.com,https://www.scrapmonster.com/buyoffers,,,,United States,"Scrap Buyers near your place, Scrap Metals, Plastics, E-Waste, Paper Buy Offers from United States, China, Canada , Europe and India, Price per KG, MT and Tonne","copper, aluminum, steel, iron, brass","container, sorting"
OVERSEAS SCRAP METAL INC,0349095502,info@scrapmonster.com,https://www.scrapmonster.com/company/overseas-scrap-metal-inc/122875,,,,United States,"OVERSEAS SCRAP METAL INC. Plastic Recycling Company in United States,New Jersey,Greeley,  52nd Avenue Ct 80634. Waste Recycling Company","copper, aluminum, steel, brass","pickup, container"
"Find Verified
                                            Metal Scraps
                                                                                            Buyers, Importers and Buy Leads",089298 00770,,https://www.go4worldbusiness.com/buyers/metal-scraps.html,"52B, First Floor, Okhla Phase-3
                        New Delhi, INDIA
                        110020",New Delhi,IN,United States,"          Sell Metal Scraps in bulk to verified buyers and importers. Connect with businesses actively looking to buy wholesale Metal Scraps at best prices.
    ","copper, aluminum, steel, iron, brass, cable","container, sorting"
Machine Shop Scrap Buyers - Manufacturing Scrap Metal Buyers,5088724393,info@framinghamsalvage.com,https://www.framinghamsalvage.com/machine-shop-scrap-buyers.html,,,,United States,We are the best machine shop scrap buyers and we purchase the byproducts of your manufacturing production. We work with manufacturing facilities throughout the New England area and purchase the byproduct of their production. We understand that the manner in which we serve our customers is equally as,"copper, iron","pickup, container, demolition, processing"
Scrap Metal Prices in the United States,5247816020,,https://www.priceofscrapmetals.com/terms-and-conditions/,,,,United States,Terms of Service for priceofscrapmetals.com.,cable,container
The Important Role of Scrap Metal Buyers Philadelphia,1747038135,,https://www.earticlessite.com/the-important-role-of-scrap-metal-buyers-philadelphia/,,,,United States,Recycling and reusing metal is not something that began with the recent Sustainable Living Movement. Scrap Metal Buyers Philadelphia have been picking up,"copper, aluminum, steel, iron, brass, battery","pickup, container, demolition, processing, weighing"
Top 10 U.S. Scrap Industry Companies in 2025: Market Dynamics Furthering Ecological Responsibility,(303) 800-4326,sales@sphericalinsights.com,https://www.sphericalinsights.com/blogs/top-10-us-scrap-industry-companies-in-2025-market-dynamics-furthering-ecological-responsibility,,,,United States,Explore the top 10 U.S. scrap industry companies in 2025 and see how market trends are driving sustainability and ecological responsibility.,"copper, aluminum, steel, iron, wire","container, processing, sorting"
Scrap Metal Trading & Brokering,5033197403,,https://www.protradesteel.com/trading/,,,,United States,Searching for scrap metal? Have scrap metal to sell? ProTrade Group can help. Our expert brokers will find the metal you need and sell the metal you don’t.,steel,container
Current Scrap Metal Prices in the United States,3085852732,,https://www.recyclingmonster.com/scrap-metal-prices,,,,United States,"Scrap Metal Prices in the United States & Canada as of 12/31/1969. Daily price movements, historical price charts & city wise data","copper, aluminum, steel, iron, brass, wire, cable",container
Current Prices,954-488-0700,,https://scrapmetalbuyers.com/current-prices,,,,United States,"







Current Prices - Scrap Metal Recycling Yard Houston TX





























































Skip to content















 
+954-488-0700














Facebook-square
 



Linkedin
 



Link
 























 









Sell to us
Current Prices
About Us
Cont","copper, aluminum, steel, iron, brass, wire, cable","pickup, container"
Scrap Metal Buyers in San Diego,(951) 733-6603,electricalsurplusbuyers@gmail.com,https://electricalsurplusbuyers.com/scrap-metal-buyers-in-san-diego/,,,,United States,Getting rid of excess electrical equipment & need 24/7 Scrap Metal Buyers in San Diego? Electrical Surplus Buyers (951) 733-6603.,"copper, steel, iron, wire","container, processing"
A & R Scrap Metal Recycling CompanyScrap Metal Buyer in Atlanta,2541746979,,https://www.armetalrecyclers.com/Atlanta.html,,,,United States,"A & R Scrap Metal Recycling Company, scrap metal buyer in Atlanta, scrap metal recycler, recycle scrap metal, scrap metal prices, scrap buyer, Atlanta, GA","copper, aluminum",
"Find Verified
                                            Brass Scrap
                                                                                            Buyers, Importers and Buy Leads",089298 00770,,https://www.go4worldbusiness.com/buyers/united+states/brass-scrap.html,"52B, First Floor, Okhla Phase-3
                        New Delhi, INDIA
                        110020",New Delhi,IN,United States,"          Sell Brass Scrap in bulk to verified buyers and importers. Connect with businesses actively looking to buy wholesale Brass Scrap at best prices.
    ","copper, aluminum, steel, iron, brass, wire, cable","container, processing, sorting"
The History of U.S. Scrap Metal Recycling from Paul Revere to Rosie the Riveter,1320582485,,https://www.cohenusa.com/blog/the-history-of-u-s-scrap-metal-recycling-from-paul-revere-to-rosie-the-riveter/,,,,United States,"The history of scrap metal in the U.S. dates back as far as the founding fathers. Weaponry, ammunition and war vehicles are all forms of recyclable scrap.","copper, aluminum, steel, iron","container, weighing"
Scrap Metal Products and Services in United States - ZipLeaf,2173998293,contact@tulsacatalyticconvertorbuyer.comWebsite,https://www.zipleaf.us/Products/Scrap-metal,,,,United States,Find local scrap metal products and services in United States's best business directory.,"copper, aluminum, steel, iron, brass, wire","pickup, container, processing"
Andy Scrap Metal LTD - Andy Scrap Metal LTD,1741164882,info@andyscrapmetalltd.com,https://andyscrapmetalltd.com/,,,,United States,"Scrap Metal Near Me at Andy Scrap Metal Ltd, we are dedicated to transforming scrap metal into valuable resources for a sustainable future. With our","copper, aluminum, steel, iron, brass, battery, wire",container
Privacy Policy - Scrap metal collection by Noons Scrap Metal & Dismantlers,01264 781329,noons.scrap@btinternet.com,https://www.nooncarspares.com/privacy-policy/,,,,United States,"








Privacy Policy - Scrap metal collection by Noons Scrap Metal & Dismantlers







































































Skip to content







Scrap cars Scrap metal & Parts. Call: 01264 781 329 |
New & Used Tyres and Vehicle Sales. Call: 01264 782 642 











","iron, cable",container
How Are Scrap Metal Prices Determined?,(708) 730-1400,,https://scrapmetalservices.com/tag/scrap-metal/,,,,United States,"


 




Scrap Metal Archives | Scrap Metal Services


































































Skip to content 



 



 
 
Home
About 




History Meet The Team Safety Core Values Sustainability Careers Press Releases

Services 




Steel Mill Services Non-Ferrous & Ferrous ","copper, aluminum, steel, iron, brass, wire","container, demolition, processing, sorting"
Best Places to Find Scrap Metal for Your Hustle | | Express Informer,7701165757,,https://expressinformer.com/best-places-to-find-scrap-metal-for-your-hustle/,,,,United States,One of the more lucrative and eco-friendly side gigs you can participate in is scrapping metal and flipping them for profit. Several tons of scrap metal is,"copper, aluminum, steel, iron, cable","container, processing"
Iron Mike Scrap Metal Services We Can Load & Transport,972.411.3734,1877ironmike@gmail.com,https://877ironmike.com/,,,,United States,"Iron Mike Scrap Metal Services, LLC. is a trusted scrap metal recycling business in America, offering competitive prices and top notch customer service. We collect, process, and recycle a variety of metals including ferrous and non-ferrous metals. Contact us today to learn more!","copper, aluminum, steel, iron, brass","pickup, container, processing"
State-of-the-Art Recycling,1750394447,info@jsmith-sons.com,https://smithindustriesgroup.com/,,,,United States,"State-of-the-Art RecyclingWe buy, process, and sell ferrous and non-ferrous metals by turning raw scrap metal into a clean and mill-ready product Find a Location Services We purchase & recycle ferrous and non-ferrous metals. We are open to the public for in-person deliveries. Container rentals, mate","copper, iron","pickup, container, processing, sorting"
USM Companies,1709581221,,https://usmrecycles.com/,,,,United States,"As a scrap metal wholesaler and processor, we offer services for non-ferrous, ferrous, used cans, high nickel alloys, electronics and more.","copper, aluminum, steel, iron","pickup, container, demolition, processing"
Full Service Ferrous & Non-Ferrous Scrap Yard,(718) 366-4017,email@example.com,https://www.tntscrap.com/,,,,United States,"Sell your scrap to TNT Scrap. We pay top dollar for your recyclable scrap metal. We provide recycling containers, roll-off services, trailer and barge services to make it easy for Brooklyn, NY area businesses and construction sites to recycle valuable scrap metals like aluminum, copper and stainless","copper, aluminum, steel, brass, wire","container, processing"
Scrap MetalPick Up Services,1752093150,support@jiffyjunk.com,https://www.jiffyjunk.com/junk-removal-services/scrap-metal-pick-up/,,,,United States,Scrap metal pick up service in a jiffy! Efficient & reliable metal pick up experts. We make scrap metal removal easy for you - get a quote on site!,"copper, aluminum, steel, iron, brass","pickup, container"
Scrap Metal Removal,(844) 438-5364,,https://www.jdogjunkremoval.com/scrap-metal-removal/,"1021 Old Cassatt Rd, Suite 100 · Berwyn , PA 19312","1021 Old Cassatt Rd, Suite 100 · Berwyn",PA,United States,"Got scrap metal to get rid of? Call JDog Junk Removal & they'll pick it up, haul it away, & dispose of or recycle it. No job is too big or small.","copper, aluminum, steel, iron, brass","container, demolition"
The Ultimate Guide: Who Will Pick Up Scrap Metal for Free?,1752617955,,https://www.simpli.com/lifestyle/ultimate-guide-will-pick-scrap-metal-free,,,,United States,One of the first places to start when seeking someone to pick up your scrap metal for free is by contacting local scrap metal collectors.,iron,"pickup, container"
"Scrap Yard Finder, Waste Management & Scrap Metal Prices",(305) 781-6185,,https://www.recyclingmonster.com/,,,,United States,"Recycling Centers Finder, Search and find recycling centers near you that accept and recycle products and materials , Unites States Scrap Metal Prices, Recycling Tips,News","copper, aluminum, steel, iron, brass",container
Preston Free scrap metal collection,2942675164,support@webador.com,https://www.chorley-free-scrap-metal-collection.com/,,,,United States,"










Chorley Free scrap metal collection


















 





 

 
Preston Free scrap metal collection    











 


Preston Free scrap metal collection    







            Home        





            Services Offered        





            Scrap Metal Recycling Information    ","copper, steel, iron, brass","pickup, container"
Scrap Metal Collection Burton upon Trent,2545352419,605a7baede844d278b89dc95ae0a9123@sentry-next.wixpress.com,https://www.scrapmetalcollection.net/burtonupontrent,,,,United States,"Professional scrap metal collection in Burton upon Trent. We provide fast, eco-friendly scrap removal services. Contact us to schedule a collection today!","copper, steel, iron, brass, cable","pickup, container, processing, sorting"
879 ads Cars Wanted,1416928546,,https://www.gumtree.com/p/cars-wanted/-free-scrap-metal-collection-/1479539973,,,,United States,"Looking to sell your car? Cars wanted ✅ Shop hassle-free with Gumtree, your local buying &amp; selling community.","iron, battery",container
Santander online banking,1705662997,,https://forums.moneysavingexpert.com/discussion/6502786/santander-online-banking,,,,United States,Anybody having any probs logging in at the moment ? I am abroad so it may just be me ....,iron,"container, processing"
What is the address for Santander online banking?,1705662997,,https://forums.moneysavingexpert.com/discussion/4433047/what-is-the-address-for-santander-online-banking,,,,United States,Hi all I'm trying to open a Paypal account linked to my Santander bank account but it's asking for the address of my bank on the direct debit form.,iron,"container, processing"
Santander online banking,1705662997,,https://forums.moneysavingexpert.com/discussion/6502786/santander-online-banking/p2,,,,United States,"I have been using the app (old one, and the new Beta version) without issues all morning.",iron,"container, processing"
Santander online banking offline repeatedly,1705662997,forumteam@moneysavingexpert.com,https://forums.moneysavingexpert.com/discussion/6510101/santander-online-banking-offline-repeatedly,,,,United States,Is anyone else finding that Santanders online 'service' has become increasingly 'out of order' ?,iron,"container, processing"
Santander online banking query,1705662997,,https://forums.moneysavingexpert.com/discussion/6559177/santander-online-banking-query,,,,United States,"Somehow I've managed to end up with a second Santander online account, despite having used my first one for several years - it was because of a mismatch of personal details when I recently opened an ISA with them.",iron,"container, processing"
Santander 2FA now allows online banking login via One Time Passcode email (OTP).,1705662997,,https://forums.moneysavingexpert.com/discussion/6335238/santander-2fa-now-allows-online-banking-login-via-one-time-passcode-email-otp,,,,United States,Not advertised anywhere but Santander allow customers to login to online web banking via OTP sent to your email address.,iron,"container, processing"
Issue with Santander online banking,1762423167,,https://forums.moneysavingexpert.com/discussion/6509154/issue-with-santander-online-banking,,,,United States,Having a issue when I login opens on the account page OK but once I attempt to navigate anywhere it brings up screen online banking not available.  Sometimes if I click on the back arrow it does take me back to the accounts page.,iron,"container, processing"
Is this a Scam (email from 'Santander'),1658913335,,https://forums.moneysavingexpert.com/discussion/6375033/is-this-a-scam-email-from-santander,,,,United States,I got an email saying 'Dear ... we need you to confirm your details...',iron,"container, processing"
Santander online customer ID query,1705662997,forumteam@moneysavingexpert.com,https://forums.moneysavingexpert.com/discussion/5298068/santander-online-customer-id-query,,,,United States,My mother has now got online banking with Santander and initially logged in with the temporary ID she received.,iron,"container, processing"
Santander online banking and Cookies,1705662997,,https://forums.moneysavingexpert.com/discussion/5308034/santander-online-banking-and-cookies,,,,United States,I have used santander online banking for a couple of years without problems. The log in process has two stages 1.,iron,"container, processing"
"WEB.DE - kostenlose E-Mail-Adresse, FreeMail & Nachrichten",7654151434,,https://web.de/,,,,United States,"Sichere Kommunikation, aktuelle Nachrichten und nützliche Online-Services - alles an einem Ort. Einfach, kostenlos und zuverlässig.",iron,container
Windows help & learning,2519126990,,https://support.microsoft.com/en-us/windows,,,,United States,"Find help and how-to articles for Windows operating systems. Get support for Windows and learn about installation, updates, privacy, security and more.",,"container, processing"
Meet Windows 11: The Basics,665006-4506,,https://support.microsoft.com/en-us/meetwindows11,,,,United States,"Meet Windows 11 and learn the basics: how to sign in, the desktop components, File Explorer, and browse the web with Microsoft Edge.",battery,container
Aide et apprentissage de Windows,2519126990,,https://support.microsoft.com/fr-fr/windows,,,,United States,"Trouvez de l’aide et des articles pratiques pour les systèmes d’exploitation Windows. Bénéficiez d’un support pour Windows et en savoir plus sur l’installation, les mises à jour, la confidentialité, la sécurité et bien plus encore.",,container
Welcome to Microsoft Support,1731983097,,https://support.microsoft.com/en-us,,,,United States,"Microsoft Support is here to help you with Microsoft products. Find how-to articles, videos, and training for Microsoft Copilot, Microsoft 365, Windows, Surface, and more.",,container
OP Auto Clicker - Download and install on Windows | Microsoft Store,5999999046,email@example.com,https://apps.microsoft.com/detail/xpfm2k6gpv72cr?hl=en-us&gl=US,,,,United States,"A full-fledged autoclicker with two modes of autoclicking, at your dynamic cursor location or at a prespecified location. The maximum amounts of clicked can also be set (or left as infinite).","iron, cable",
主题：【已应助】TEM制样，离子减薄仪与FIB减薄到底有啥区别,2025052117,close@2x.png,https://bbs.instrument.com.cn/topic/8315126,,,,United States,"




TEM制样，离子减薄仪与FIB减薄到底有啥区别_仪器信息网社区








































获得0活力值，您同时完成了每日任务，有额外的活力值奖励，请前往APP领取
立即前往




恭喜发帖成功！ 发帖有助于您的等级提升，您可前往APP查看当前等级及权益，同时做任务领金币，超多大礼等您兑换



恭喜发帖成功！ 发帖有助于您的等级提升，您可前往APP查看当前等级及权益，同时做任务领金币，超多大礼等您兑换





获得0活力值，您同时完成了每日任务，有额外的活力值奖励，请前往APP领取
立即前往




回帖成功！


回帖成功",cable,container
"Электроника, автомобили, мода, коллекционирование, купоны и другие товары | eBay",1026282131,,https://www.ebay.com/,,,,United States,"Покупайте и продавайте изделия электроники, автомобили, модную одежду, предметы коллекционирования, спортивные товары, цифровые фотоаппараты, детские товары, купоны и многое другое на eBay, крупнейшей в мире торговой площадке в интернете.",iron,container
"eBay.de | Elektronik, Autos, Mode, Sammlerstücke, Möbel und mehr Online-Shopping",1026282131,,https://www.ebay.de/,,,,United States,"Kaufen und verkaufen Sie Elektronikartikel, Autos, Kleidung, Mode, Sammlerstücke, Sportartikel, Digitalkameras, Babyartikel, Gutscheine und vieles mehr bei eBay.de, dem weltweiten Online-Marktplatz.",iron,"pickup, container"
Все категории,2025070922,,https://www.ebay.com/n/all-categories,,,,United States,"Shop by department, purchase cars, fashion apparel, collectibles, sporting goods, cameras, baby items, and everything else on eBay, the world's online marketplace","iron, brass, battery, wire, cable",container
Find everything.Or just the thing.,1026282131,,https://pages.ebay.com/welcome-to-ebay/,,,,United States,"Welcome to eBay, Tips & Tricks, Shop with confidence, Top categories, Seller Spotlight",iron,container
"Buy, Sell, and Save on eBay's Global Marketplace",1026282131,,https://ppm2.ebay.com/,,,,United States,"Find great deals on electronics, fashion, collectibles, and more. Buy and sell with confidence on eBay's global marketplace with hassle-free returns.",iron,container
"Electronics, Cars, Fashion, Collectibles & More | eBay",1026282131,,https://www.ebay.ca/,,,,United States,"Buy & sell electronics, cars, clothes, collectibles & more on eBay, the world's online marketplace. Top brands, low prices & free shipping on many items.",iron,container
Metal,1322254015,,https://developer.apple.com/metal/,,,,United States,"





















Metal Overview - Apple Developer

































View in English






















Global Nav Open Menu


Global Nav Close Menu




Apple Developer










Search



Cancel








Apple Developer




News




Discover




Design




Develop




Distribut",,container
Metal,1322254015,,https://developer.apple.com/cn/metal/,,,,United States,"





















Metal 概览 - Apple 开发者

































View in English






















打开菜单


关闭菜单




Apple Developer










搜索



关闭搜索








Apple Developer




新闻




探索




设计




开发




分发




支持




账户





















								关闭搜索
							






在“”范围内搜索。
快捷",,container
资源,1322254015,,https://developer.apple.com/cn/metal/resources/,,,,United States,"





















资源 - Metal - Apple 开发者






























View in English






















打开菜单


关闭菜单




Apple Developer










搜索



关闭搜索








Apple Developer




新闻




探索




设计




开发




分发




支持




账户





















								关闭搜索
							






在“”范围内搜索。
快捷链",,container
探索 Metal 4,1322254015,,https://developer.apple.com/cn/videos/play/wwdc2025/205/,,,,United States,了解如何开始利用 Metal 4 强大的新功能，让你的现有 Metal App 更上一层楼。我们将介绍 Metal 如何助你充分发挥 Apple 芯片的优势，并以更高效的方式进行硬件编程。你还将了解如何借助 Metal 4 的新功能，将机器学习整合到 Metal 代码中。,,"container, processing"
Accelerated PyTorch training on Mac,1322254015,,https://developer.apple.com/metal/pytorch/,,,,United States,"





















Accelerated PyTorch training on Mac - Metal - Apple Developer



























View in English






















Global Nav Open Menu


Global Nav Close Menu




Apple Developer










Search



Cancel








Apple Developer




News




Discover




Design


",iron,container
Metal 的新功能,1322254015,,https://developer.apple.com/cn/metal/whats-new/,,,,United States,"





















新功能 - Metal - Apple 开发者





























View in English






















打开菜单


关闭菜单




Apple Developer










搜索



关闭搜索








Apple Developer




新闻




探索




设计




开发




分发




支持




账户





















								关闭搜索
							






在“”范围内搜索。
快捷链",,"container, processing"
What’s new in Metal,1322254015,,https://developer.apple.com/metal/whats-new/,,,,United States,"





















What’s New - Metal - Apple Developer






























View in English






















Global Nav Open Menu


Global Nav Close Menu




Apple Developer










Search



Cancel








Apple Developer




News




Discover




Design




Develop




Distribu",,"container, processing"
Get started with tensorflow-metal,1322254015,,https://developer.apple.com/metal/tensorflow-plugin/,,,,United States,"





















Tensorflow Plugin - Metal - Apple Developer

























View in English






















Global Nav Open Menu


Global Nav Close Menu




Apple Developer










Search



Cancel








Apple Developer




News




Discover




Design




Develop




Distri",iron,container
Metal sample code,1322254015,,https://developer.apple.com/metal/sample-code/,,,,United States,"





















Metal Sample Code - Apple Developer













View in English






















Global Nav Open Menu


Global Nav Close Menu




Apple Developer










Search



Cancel








Apple Developer




News




Discover




Design




Develop




Distribute




Support



",iron,"container, processing"
Asset,1286214396,,https://en.wikipedia.org/wiki/Asset,,,,United States,"


Asset - Wikipedia



























Jump to content







Main menu





Main menu
move to sidebar
hide



		Navigation
	


Main pageContentsCurrent eventsRandom articleAbout WikipediaContact us





		Contribute
	


HelpLearn to editCommunity portalRecent changesUpload fileSpecial page",,container
"Assets : Meaning, Types, Formula & Examples",2023112217,,https://www.geeksforgeeks.org/accountancy/assets-meaning-types-formula-examples/,,,,United States,"Your All-in-One Learning Portal: GeeksforGeeks is a comprehensive educational platform that empowers learners across domains-spanning computer science and programming, school education, upskilling, commerce, software tools, competitive exams, and more.",,"container, processing"
"Assets: Meaning, Types, Examples, Key Features, Classifications, Difference Between Assets and Liabilities",1120217654,investor.service@bajajfinserv.in,https://www.bajajfinserv.in/what-are-assets,,,,United States,"Get insights into asset meaning, types, examples, properties and the difference between current, fixed, tangible, and intangible assets, as well as assets vs liabilities.","iron, cable","container, processing"
Google Maps,1000000014,,https://maps.google.fr/?q=%2C+%2C+%2C+fr,,,,United States,"     Google Maps                                             When you have eliminated the JavaScript, whatever remains must be an empty page.  Google карталарын көру үшін JavaScript қосыңыз.     ",,container
Builders Warehouse catalogue,5298725109,,https://www.cataloguespecials.co.za/stores/builders-warehouse/catalogues-specials,,,,United States,The latest Builders Warehouse catalogues⭐ View this week's specials in the catalogues and check the Builders Warehouse store's trading hours,iron,container
Builders Specials | July 2025 Latest Catalogues | Guzzle - Johannesburg,1695138064,,https://www.guzzle.co.za/builders-warehouse/johannesburg/,,,,United States,Currently viewing Builders - Johannesburg. Browse specials from Builders and locate stores near you.,"battery, cable",container
