name,phone,email,website,address,city,state,country,description,materials,services
Industrial Scrap Metal Recycling on the Gulf Coast,(251) 470-0765,,https://www.asmrecycling.com/,,,,United States,"ASM Recycling is a leading metal recycling company. Count on prompt, efficient scrap metal recycling and competitive pricing for your ferrous and nonferrous metal scrap and recyclable electronic scrap. Call ASM Recycling in Mobile, Alabama, today.","copper, aluminum, steel, iron, brass, wire","pickup, container, processing"
Southeastern Recyclers,1752602896,southeasternrecyclers@gmail.com,https://southeasternrecyclers.com/,,,,United States,"Visit our southeast Alabama metal scrap yard to get top dollar for your scrap. Accepting aluminum, copper, car parts, and more.","copper, aluminum, iron, brass, wire","container, demolition"
Your Recycling Partner,(205) 629-2200,info@anglerrecycling.com,https://anglerrecycling.com/,,,,United States,"







Angler Reycling - Angler Recycling Group







































































































    		Search for:    	
















Home
Angler Rail
Angler Metals
Contact Us
About Us
 











Angler Recycling Group 







Need A Quote? ",iron,"container, processing"
Metal Scrap We Accept at ASM Recycling,(251) 470-0765,,https://www.asmrecycling.com/what-scrap-metals-we-accept/,,,,United States,"Almost all metals are recyclable, and we offer competitive prices for your industrial and commercial scrap metal. Recycle your metal in Mobile, Alabama, at ASM Recycling today!","copper, aluminum, steel, iron, brass","pickup, container, demolition, processing"
Scrap Metal Recycling,9312932360,info@harmonscrapmetal.com,https://www.harmonscrapmetal.com/scrap-metal-recycling/,,,,United States,"








Scrap Metal Recycling – Harmon Scrap Metal
































 931-293-2360    Email Us

 








Menu

About

Our Company & Team
Benefits of Recycling


Services

Scrap Metal Recycling
Commercial Services


Locations

Athens, Alabama
Hazel Green, Alabama
Columbia, Tennessee
C","copper, aluminum, steel, iron",container
Dakar Companies,0349095502,info@scrapmonster.com,https://www.scrapmonster.com/companies/region/senegal/dakar,,,,United States,"Waste & Recycling, Metals, Mining & Energy Companies in Dakar,Senegal Local Company Directory,Buyers,Suppliers in Dakar  Traders Directory","copper, aluminum, steel, brass, cable","pickup, container"
Scrap,6882703280,,https://www.lalanguefrancaise.com/dictionnaire/definition/scrap,,,,United States,"Définition de scrap : dictionnaire, étymologie, phonétique, citations littéraires, synonymes et antonymes de « scrap »","steel, wire",container
Traduction de scrap,1490103426,,https://www.larousse.fr/dictionnaires/anglais-francais/scrap/609822,,,,United States,"scrap - Traduction Anglais-Français : Retrouvez la traduction de scrap, mais également sa prononciation, la traduction des expressions à partir de scrap : scrap, scrap, scrap, ....",iron,container
"Le scrap, Version Française, en 5 étapes clés.",2666666666,,https://www.agnesvousraconte.com/2020/11/12/le-scrap-version-francaise-en-5-etapes-cles/,,,,United States,"Histoire du scrapbooking, en France avec 5 étapes clés : émergence d'un nouveau loisir créatif américain à un scrap français.",,container
▾Dictionnaire anglais-français,1000070180,,https://www.linguee.fr/anglais-francais/traduction/scrap.html,,,,United States,"De très nombreux exemples de phrases traduites contenant ""scrap"" – Dictionnaire français-anglais et moteur de recherche de traductions françaises.","steel, iron, wire","container, processing, sorting"
Alabama Dumpster Service,0349095502,info@scrapmonster.com,https://www.scrapmonster.com/scrap-yard/alabama-dumpster-service/52713,,,,United States,"Alabama Dumpster Service Scrap Yard. Recycling Centers in PO Box 279,,Hope Hull,Alabama, United States-ZIP:36043. ","copper, aluminum, steel, iron, brass","pickup, container"
Al Wukair Scrapyard,1563250221,,https://www.atlasobscura.com/places/al-wukair-scrapyard,,,,United States,"Some 20,000 dust-covered unwanted vehicles languish in the desert.","iron, cable",container
Historic NASA rover found in Alabama scrap yard,1797930020,daily@csmonitor.com,https://www.csmonitor.com/Science/2015/1029/Historic-NASA-rover-found-in-Alabama-scrap-yard,,,,United States,An anonymous scrapper saved a vehicle used as a prototype for America&#039;s first moon mission. Is this an indication that respect for NASA and space history has grown?,iron,container
Metal Recycling In Alabama,2562470708,mthornton@thorntonim.com,https://thorntonironandmetal.com/,,,,United States,Thornton Iron & Metal | Metal Recycling,"copper, aluminum, steel, iron, brass, wire","pickup, container, demolition"
Metal,1322254015,,https://developer.apple.com/metal/,,,,United States,"





















Metal Overview - Apple Developer

































View in English






















Global Nav Open Menu


Global Nav Close Menu




Apple Developer










Search



Cancel








Apple Developer




News




Discover




Design




Develop




Distribut",,container
Metal,1322254015,,https://developer.apple.com/cn/metal/,,,,United States,"





















Metal 概览 - Apple 开发者

































View in English






















打开菜单


关闭菜单




Apple Developer










搜索



关闭搜索








Apple Developer




新闻




探索




设计




开发




分发




支持




账户





















								关闭搜索
							






在“”范围内搜索。
快捷",,container
资源,1322254015,,https://developer.apple.com/cn/metal/resources/,,,,United States,"





















资源 - Metal - Apple 开发者






























View in English






















打开菜单


关闭菜单




Apple Developer










搜索



关闭搜索








Apple Developer




新闻




探索




设计




开发




分发




支持




账户





















								关闭搜索
							






在“”范围内搜索。
快捷链",,container
Accelerated PyTorch training on Mac,1322254015,,https://developer.apple.com/metal/pytorch/,,,,United States,"





















Accelerated PyTorch training on Mac - Metal - Apple Developer



























View in English






















Global Nav Open Menu


Global Nav Close Menu




Apple Developer










Search



Cancel








Apple Developer




News




Discover




Design


",iron,container
Metal 的新功能,1322254015,,https://developer.apple.com/cn/metal/whats-new/,,,,United States,"





















新功能 - Metal - Apple 开发者





























View in English






















打开菜单


关闭菜单




Apple Developer










搜索



关闭搜索








Apple Developer




新闻




探索




设计




开发




分发




支持




账户





















								关闭搜索
							






在“”范围内搜索。
快捷链",,"container, processing"
What’s new in Metal,1322254015,,https://developer.apple.com/metal/whats-new/,,,,United States,"





















What’s New - Metal - Apple Developer






























View in English






















Global Nav Open Menu


Global Nav Close Menu




Apple Developer










Search



Cancel








Apple Developer




News




Discover




Design




Develop




Distribu",,"container, processing"
Get started with tensorflow-metal,1322254015,,https://developer.apple.com/metal/tensorflow-plugin/,,,,United States,"





















Tensorflow Plugin - Metal - Apple Developer

























View in English






















Global Nav Open Menu


Global Nav Close Menu




Apple Developer










Search



Cancel








Apple Developer




News




Discover




Design




Develop




Distri",iron,container
Metal sample code,1322254015,,https://developer.apple.com/metal/sample-code/,,,,United States,"





















Metal Sample Code - Apple Developer













View in English






















Global Nav Open Menu


Global Nav Close Menu




Apple Developer










Search



Cancel








Apple Developer




News




Discover




Design




Develop




Distribute




Support



",iron,"container, processing"
A & R Scrap Metal Recycling CompanyScrap Metal Buyer in Alabama,713-410-8333,,https://www.armetalrecyclers.com/Alabama.html,,,,United States,"A & R Recycling Company, Scrap Metal Buyer in Alabama, Recycling Service, Scrap Buyer","copper, aluminum, steel",
Scrap Metal Recycling Center,4110341396,,http://scrapmetalrecyclingcenter.com/scrap-metal-in-alabama-buyers-suppliers-prices-auctions/,,,,United States,"Scrap metals Buyers and Suppliers in Alabama Alabama has a number of industries where scrap metal is collected, characterized as per metal type and grade and","copper, aluminum, steel, iron","container, processing"
Alabama Metal Scrap Statute,0349095502,info@scrapmonster.com,https://www.scrapmonster.com/scrap-laws/alabama/3366,,,,United States,Alabama Scrap and Metal Thefts Law Database. Laws and regulations in Alabama for scrap metal trading and recycling,"copper, aluminum, steel, iron, brass, wire, cable","pickup, container, processing"
"Scrap Metal Prices in Alexander City, Alabama, United States",0349095502,info@scrapmonster.com,https://www.scrapmonster.com/scrap-yards/prices/alexander-city/2899,,,,United States,"Scrap Metal Prices in Alexander City,Aluminum Scrap,Brass Scrap,Copper Scrap,Lead Scrap,Stainless Steel Scrap Scrap Prices.Scrap Yards, Scrap Metal Prices in Alexander City","copper, aluminum, steel, iron, brass, wire","pickup, container"
Free metal drop-off for anchorage residents!,1750266586,info@alaskascrap.com,https://alaskascrap.com/,,,,United States,"





Alaska Scrap & Recycling | We buy scrap metal Anchorage/Kenai















































HOME
ABOUT US
CONTACT US












Anchorage: 907-277-2727

Kenai: 907-262-7258



 
















We Buy Scrap MetalWe PAY for non-ferrous metal (non-magnetic) such as copper, bras","copper, aluminum, steel, iron, brass, wire, cable",container
C & R Metal Recycling Center,0588235294,sales@crpipe.net,https://crrecycle.com/,,,,United States,"




C & R Metal Recycling








































		Skip to content









A Division of C&R Pipe & Steel, Inc.
 



(907) 452-4417sales@crpipe.net 












 





Home
Recycle
Services
Rates
Acceptance Policy
About Us
Contact Us
 





 







 







Main Menu

 









","steel, iron","container, demolition"
DJ Metal Recycling,1738678305,,https://djmetalrecycling.com/,,,,United States,"





DJ Metal Recycling



















































DJ Metal Recycling












DJ Metal Recycling 







907-538-8029 





















WE BUY YOUR: 












Aluminum
Alternators
Batteries
Brass
Brass Radiators
 








Copper
Copper Wire
Electric Motors
Lead
St","copper, aluminum, steel, iron, brass, wire",container
Recycling,4549394706,,https://www.pacific-steel.com/recycling/,,,,United States,We create a customized program to meet your needs to make steel and metal recycling convenient for consumers and commercial customers. Learn more today.,"copper, aluminum, steel, iron, brass, wire, cable","pickup, container"
"Industrial Metal Recycling Services in Terre Haute, IN",1706674942,webinquiries@bryantindustries.net,https://www.bryantindustries.net/industrial-metal-recycling,,,,United States,"Need reliable industrial metal recycling services in Terre Haute, IN? Call Bryant Industries at (217) 431-0551 for efficient recycling solutions.","copper, aluminum, steel, iron, brass, wire","pickup, container, demolition, processing, sorting, weighing"
Contact Us,(401) 765-4766,,https://heavymetalri.com/contact/,,,,United States,"






Contact - Heavy Metal Recycling
















































		Skip to content










 



Home
About
Contact
 



Get a Quote
Call: 401 765 4766
 







 







 







Main Menu

 









Home
About
Contact
 









 









Contact Us 













Looking fo",iron,"container, processing"
Valley Metal Recycling,1984993272,,https://www.bunity.com/valley-metal-recycling,,,,United States,"Valley Metal Recycling, Recycling Center & Recycling Services,  in Logan, Utah (435) 752-0571. Check out our business showcase on Bunity.",aluminum,container
highest-paying scrap buyer in Mortdale,8571428571,info@sunrisemetalrecycling.com.au,https://sunrisemetalrecycling.com.au/mortdale/,,,,United States,Sunrise Scrap Metal Recycling Mortdale with hassle-free services. Find the best quote from best Scrap buyer in Mortdale,"copper, aluminum, steel, iron, brass, battery, wire, cable","pickup, container, demolition, processing"
A & R  Scrap Metal Recycling CompanyA Scrap Metal Buyer in Tulsa,2541746979,,"https://www.armetalrecyclers.com/Tulsa,_Oklahoma.html",,,,United States,"A & R Scrap Metal Recycling Company, scrap metal buyer in Tulsa, scrap metal recycler, recycle scrap metal, scrap metal prices, scrap buyer, Tulsa, OK","copper, aluminum",
Scrap Metal Buyers in Eastvale CA,(951) 733-6603,electricalsurplusbuyers@gmail.com,https://electricalsurplusbuyers.com/scrap-metal-buyers-in-eastvale-ca/scrap-metal-buyers-in-eastvale-ca/,,,,United States,Getting rid of excess electrical equipment & need 24/7 Scrap Metal Buyers in Eastvale CA? Electrical Surplus Buyers (951) 733-6603.,"copper, steel, iron, wire","container, processing"
Did you know scrap metal buyers are increasing job site productivity ?,42475,admin@runaboutmetals.com.au,https://www.runaboutmetals.com.au/did-you-know-scrap-metal-buyers-are-increasing-job-site-productivity/,,,,United States,"Scrap metal buyers in Cannington are the key players in the recycling game. They purchase scrap metals from you at a competitive price. For instance, the scrap copper price in Canning Vale might differ from that in Cannington.","copper, aluminum, steel, iron, brass","pickup, container, sorting"
One-Stop-Shop: Slidell Scrap Metal Buyers Republic Alloys,5107654803,miles@republicalloys.com,https://republicalloys.com/areas-served/louisiana-scrap-metal-buyers/slidell-scrap-metal-buyers/,,,,United States,Our team of Slidell scrap metal buyers have the knowledge to give you the best price for your scrap metal. Call today & let us haul your scrap & get you paid!,"copper, steel, brass","container, processing"
,832 356 9014,,https://texassalvageandsurplusbuyers.com/scrap-metal-buyer-832-356-9014-small-or-big-loads/,,,,United States,"










SCRAP METAL BUYER . 832 356 9014 SMALL OR BIG LOADS. - Texas Salvage and Surplus Buyers





































































							Houston Texas - Salvage - Demolition - Equipment Movers - Land Clearing - Trucking - Oilfield Salvage - Marine Salvage - Recy","copper, steel","pickup, container, demolition"
Articles & Blog,1752604408,,https://www.scrapmetalbuyers.com/articles,,,,United States,"







Articles & Blog - Scrap Metal Recycling Yard Houston TX

























































Skip to content















 
+954-488-0700














Facebook-square
 



Linkedin
 



Link
 























 









Sell to us
Current Prices
About Us
Contact","copper, aluminum, steel, iron, brass, wire, cable",container
Scrap Metal Recycling Center,4110341396,,http://scrapmetalrecyclingcenter.com/scrap-metal-in-arizona-information-and-guides/,,,,United States,Scrap Metal in Arizona – The Increasing Value of Scrap Metal Scrap metal industry on a boom Scrap metal has enormous earning potential. What you may have,"copper, aluminum, steel, iron","container, processing"
Recycling Center Phoenix |  Scrap Metal Recycling |  Aluminum Cans | Copper,42475,,https://avondalerecycling.com/,,,,United States,"Phoenix recycling center buying all kinds of scrap metal including, copper, aluminum cans, brass, and other scrap junk including central AC units, dishwashers, refrigerators, stoves, microwaves, water heaters and furnaces.","copper, aluminum, steel, brass",container
Scrap Metal Recycling & Salvage Yard in Phoenix AZ | We Buy Scrap,(602) 243-3011,,http://webuyscrapaz.com/,,,,United States,"



Scrap Metal Recycling & Salvage Yard in Phoenix AZ | We Buy Scrap



















































Hello, Welcome to Xtra Construnction websiteFree Consultation FacebookTwitterYouTubeTumblrPhoenix:3035 W. Broadway Rd. Phoenix, AZ 85041Mon-Fri 7:30AM-4:00PM | Saturdays 8:00AM-3:","copper, aluminum, steel, iron, brass, wire",container
Metal Recycling Arizona,(602) 243-3011,,http://webuyscrapaz.com/metal-recycling-arizona/,,,,United States,"We Buy Scrap is a metal recycling company in Arizona who offers cash for aluminum, copper, brass and other types of scrap metal","copper, aluminum, steel, iron, brass, wire",container
Scrap Metal Stores | Department of Public Safety,(602) 223-2000,,https://www.azdps.gov/services/enforcement-services/scrap/stores,,,,United States,"











Scrap Metal Stores | Department of Public Safety

















      Skip to main content
    




State of Arizona
Visit OpenBooks
Ombudsman Citizens Aide
Register to Vote
















Department of Public Safety




Main navigation


AZDPS Home


The Colonel



Command Staff


Fa","copper, iron","container, processing"
"Scale Operators, General Labor",480-907-6978,,https://i-buy-scrap.com/,,,,United States,"Scrap metal recycling center, purchasing all types of scrap metal, copper, aluminum, brass, batteries, AC units. Roll off bins available for clean ups.","copper, aluminum, steel, iron, brass, battery, wire","pickup, container, demolition, processing"
Highest Arizona Scrap Prices,7058197287,9f057df6115a4bb488c08ea12a835e6e@o418887.ingest.sentry.io,https://www.reddit.com/r/ScrapMetal/comments/1c8d93d/highest_arizona_scrap_prices/,,,,United States,"

Reddit - The heart of the internet





























 








Skip to main content


























Open menu

Open navigation



































































 
Go to Reddit Home




















r/ScrapMetal

A chip








A close button","copper, aluminum, steel, iron, brass",container
Phoenix Metal Recycling - Davis Metals,(602) 267-7208,info@davismetals.com,https://davismetals.com/,,,,United States,Davis Metals & Salvage is Arizona's premier steel supply and scrap metal recycling center in Phoenix. From Sheet and Bar Steel to Tubing and Expanded Metals.,"copper, aluminum, steel, iron, brass","container, demolition"
Why Choose Us?,623-869-8900,contact@dvrecycling.com,https://dvrecycling.com/,,,,United States,"Welcome to Deer Valley Recycling Center in Phoenix, AZ.","copper, aluminum, steel, brass",container
Full-ServiceHVAC & AC Unit Removal/Recycling.,0266302567,hello@rzrrecycling.com,https://www.rzrrecycling.com/,,,,United States,"RZR Recycling is a full service metals recycling company located in Phoenix, Arizona, that focuses on helping small to mid size companies achieve better returns on their scrap materials. In addition to our valley wide HVAC unit recovery program, we also offer pick up service for non-ferrous metals l","copper, aluminum, steel, brass, wire","pickup, container, processing"
Metal Recycling Services,(602) 267-7208,info@daviswasteservices.com,https://daviswasteservices.com/solutions/metal-recycling/,,,,United States,"Metal Recycling Services Davis Metals is known across Arizona for reliable, efficient, and responsible industrial metal recycling. We accept all types of me ...","aluminum, iron, cable","pickup, container, demolition, processing, sorting"
Arizona Scrap Metal Buyers & Recycling Centers,(602) 258-5885,,https://scrapvisor.com/arizona/,,,,United States,"Find trusted scrap metal buyers and recycling centers in Arizona. View up-to-date scrap metal prices, explore our interactive map of local scrap yards, and connect with reputable companies for fast and profitable scrap sales.","copper, aluminum, steel, iron, brass, wire, cable","pickup, container, demolition"
"ARIZONA SCRAP IRON & METAL INC. in Phoenix, Arizona",9441980687,azscrap@cox.net,https://www.arizonascrapiron.com/,,,,United States,"Arizona Scrap Iron & Metal Inc. in Phoenix, AZ offers quality services such as drop-off and pick-up of your scrap metals. Call us today at 602-252-8423. ","copper, aluminum, steel, iron, brass",container
Arkansas Scrap Metal Buyers & Recycling Centers,(479) 394-5527,,https://scrapvisor.com/arkansas/,,,,United States,"Find trusted scrap metal buyers and recycling centers in Arkansas. View up-to-date scrap metal prices, explore our interactive map of local scrap yards, and connect with reputable companies for fast and profitable scrap sales.","copper, aluminum, steel, iron, brass, wire, cable","pickup, container, demolition"
Recycling | JSI Metal Recycling | United States,5811658444,605a7baede844d278b89dc95ae0a9123@sentry-next.wixpress.com,https://www.jsimetal.com/,,,,United States,"JSI Metal Recycling pays cash for your scrap! With our certified scales, we will aim to be the best metal recycler in Central Arkansas. ","copper, aluminum, iron, brass","pickup, container"
TRG Jonesboro LLC,3085852732,arauth@trg.net,https://www.recyclingmonster.com/recycling-center/trg-jonesboro-llc/13021,,,,United States,"TRG Jonesboro LLC, Recycling Center at 130 Flint St. , Jonesboro, Arkansas, United States - Open hours, accepting materials, scrap prices, phone number and location address","copper, aluminum, steel, iron, brass, wire",container
"72,400,000",1527117167,,https://www.davisironmetal.com/,,,,United States,We ensure that our services are of the highest quality. Learn more about what Davis Iron and Metal can do for you.,"copper, aluminum, steel, iron, brass","pickup, container, demolition"
TAM SCRAPYARD,2545352419,tam.scrapyard@gmail.com,https://www.tamscrapyard.com/,,,,United States,"TAM Scrapyard LLC | Fordyce, AR
Flat Deck Rail Car Bridges, Full Service Scrapyard, Commercial Containers, and more.","copper, steel, iron",container
Professional Metal Recycling,1619633202,budsiron@sbcglobal.net,https://www.budsrecycling.com/,,,,United States,"Recycling, scrap metal, auto parts, copper recycling, aluminum recycling, appliance recycling, Brass recycling, commercial recycling, junk vehicle recycling, industrial recycling, E-Waste recycling","copper, aluminum, steel, iron, brass","pickup, container"
M & M Metal Recycling Inc,(870) 668-3033,,https://www.salvage-parts.com/junk-yards/m-amp-m-metal-recycling-inc,"Location: USA , Arkansas, Cleburne, Drasco Address: 6159 Heber Springs Rd N, Drasco, AR 72530 Phone: +1 870-668-3033 Website: Last update: September 23, 2024","Location: USA , Arkansas, Cleburne, Drasco Address: 6159 Heber Springs Rd N, Drasco",AR,United States,"Explore the info on M & M Metal Recycling Inc, which is placed in Drasco (Arkansas).",,container
Totall Metal Recycling & Arrow Scrap: Find Metal Recycling Near You,1752931297,,https://www.ecomasteryproject.com/totall-metal-recycling-arrow-scrap-find-metal-recycling-near-you/,,,,United States,"With Totall Metal Recycling and Arrow Scrap, discover local metal recycling solutions that promote sustainability—find out how you can make a difference today!","copper, aluminum, steel, iron, brass","container, processing, weighing"
Arkansas Scrap Metal Prices - USA,5247816020,,https://priceofscrapmetals.com/arkansas/,,,,United States,"Find the Latest Scrap Metal Prices in Arkansas today. Check the current scrap price for copper, steel, aluminum, brass, gold and other ferrous and non-ferrous materials.","copper, aluminum, steel, iron, brass, wire",container
Scrap Metal Recycling,501-372-5222,colr_311_graphic@2x.png,https://www.littlerock.gov/city-administration/city-departments/public-works/recycling/special-items-recycling/scrap-metal/,,,,United States,"





Scrap Metal | City of Little Rock























































Government











City Departments








City Attorney's Office




Community Programs




District Courts




Finance




Fire Department








Operations








History of the LRFD




Fire Hydr",battery,"pickup, container"
Southern California's premier scrap metal recycling company,(866) 786-3825,scrap@ptmetals.com,https://www.ptmetals.com/,,,,United States,"Businesses in Southern CA enjoy tailored recycling solutions with on-site pickups, while residents get fast cash with easy drop-offs at our South El Monte facility.","copper, aluminum, steel, iron, brass, wire","pickup, container, demolition, processing, sorting, weighing"
"Recycling Plastic and Metal | Universal Service Recycling, Inc. R",1751960209,info@usrscrap.com,https://usrscrap.com/,,,,United States,"Recycling cans, plastic bottles and metal in Stockton, Modesto, Merced and Sacramento, California. Largest metal recycler for cash","iron, wire",container
Our Santa Ana Recycling CenterHas Been Here for Over 40 Years,42475,eacosta_brucemetal@yahoo.com,https://www.brucemetal.com/,,,,United States,"For over 40 years, Bruce Metal & Salvage has been your trusted recycling company in the Orange County area.","copper, aluminum, steel, iron, brass, wire","pickup, container, processing"
Illegal scrap yards in California a burgeoning problem - Security Guard Services by Central Officers,1428149258,,https://www.centralofficers.com/2012/08/illegal-scrap-yards-in-california-a-burgeoning-problem/,,,,United States,"


Illegal scrap yards in California a burgeoning problem - Security Guard Services by Central Officers


















































Call: 310.591.0281

  
Security Officers & Off Duty Police - Licensed #PPO15743




Home
About Us
Security Services
Commercial Security
Event Sec","copper, steel, iron, brass, wire",container
Radius Recycling – San Jose,408-452-0777,,https://iscrapapp.com/yards/us-california-san-jose-radius-recycling-san-jose/,,,,United States,"Radius Recycling - San Jose, Scrap Metal Yard in San Jose, California","copper, aluminum, steel, iron, brass, battery, wire, cable","pickup, container"
Scrap Yards in Hesperia,0349095502,info@scrapmonster.com,https://www.scrapmonster.com/scrap-yard/united-states/california/hesperia/,,,,United States,"Scrap Yards in Hesperia, California, United States. Hesperia Recycling Centers Details and Pick Up,Drop Off,Curbside service. Nearest Scrap yards","copper, aluminum, steel, brass, battery","pickup, container, processing"
circosta@circostametals.com,(415) 282-8568,circosta@circostametals.com,https://www.circostametals.com/services/,,,,United States,"Explore Circosta Iron & Metal's scrap metal recycling services in San Francisco, Northern California. We handle ferrous, non-ferrous metals.","aluminum, iron","container, demolition"
ADDITIONAL DISCLOSURES REGARDING CALIFORNIA PRIVACY RIGHTS,877-358-7207,CCPA@nucor.com,https://metalrecyclingservices.com/california-privacy-policy/,,,,United States,"




California privacy policy | Metal Recycling Services







































Sell Your Scrap

Household Scrap
Junk Car
Non-Ferrous/E-Scrap


Industrial Scrap

Dispatch
MyScrapInfo


Locations

Gastonia, NC
Monroe, NC
Whiteville, NC


Careers
About

Affiliates
Community
Environmen",iron,container
California Metal Recyclers Coalition 2019-Present | Garry South Consulting,1751205041,,https://garrysouthconsulting.com/california-metal-recyclers-coalition-2019-present/,,,,United States,"







California Metal Recyclers Coalition 2019-Present | Garry South Consulting









































Garry South Consulting 


 Menu

About Garry South
Services
Public Speaking
Case Studies
Opinion
Contact










California Metal Recyclers Coalition 2019-Present


In late 2",iron,container
Scrap Metal Buyers in Los Angeles,(951) 733-6603,electricalsurplusbuyers@gmail.com,https://electricalsurplusbuyers.com/scrap-metal-buyers-in-los-angeles/,,,,United States,Getting rid of excess electrical equipment & need 24/7 Scrap Metal Buyers in Los Angeles? Electrical Surplus Buyers (951) 733-6603.,"copper, steel, iron, wire","container, processing"
Los Angeles Scrap Metal Buyers,323-594-2168,,https://iscrapapp.com/yards/us-california-los-angeles-los-angeles-scrap-metal-buyers/contact_us/,,,,United States,"Find out more about Los Angeles Scrap Metal Buyers and the current scrap prices for metals in your area. Check national averages for 200+ scrap metals as of July 19, 2025.","copper, aluminum, steel, iron, brass, battery, wire, cable","pickup, container, demolition"
Los Angeles Scrap Metal Buyers,0349095502,info@scrapmonster.com,https://www.scrapmonster.com/scrap-yard/los-angeles-scrap-metal-buyers/34812,,,,United States," Los Angeles Scrap Metal Buyers Scrap Yard. Recycling Centers in  6493 Stanford Ave,,,California, United States-ZIP:90001. ","copper, aluminum, steel, brass, wire","pickup, container, processing"
A & R  Scrap Metal Recycling CompanyA Scrap Metal Buyer in Moreno Valley,2541746979,,"https://www.armetalrecyclers.com/Moreno_Valley,_California.html",,,,United States,"A & R Scrap Metal Recycling Company, scrap metal buyer in Moreno Valley, scrap metal recycler, recycle scrap metal, scrap metal prices, scrap buyer, Moreno Valley, CA","copper, aluminum",
Scrap Metal Buyers Santa Rosa - Alco Metals,1743466037,getaquote@alcometals.com,https://alcometals.com/scrap-metal-buyers-santa-rosa/,,,,United States,"Scrap Metal Buyers Santa Rosa Scrap Metal Dealers Scrap Metal Prices Santa Rosa, CA Alco Iron & Metal serves as one of the largest metal scrap yards along the West Coast. We buy and sell ferrous scrap metal such as steel, iron, and offcuts and we buy and sell non-ferrous scrap metals such as copper,","copper, aluminum, steel, iron, brass, cable","container, demolition, processing"
Understanding the Scrap Metal Recycling Process in California,(866) 786-3825,scrap@ptmetals.com,https://www.ptmetals.com/blog/scrap-metal-recycling-process-california/,,,,United States,The scrap metal recycling process in California is an important part of how we manage waste and protect the environment. Understanding this process helps us,"copper, aluminum, steel, iron, brass","container, demolition, processing, sorting"
Scrap Metal Recycling Alhambra California,310-830-8277,,https://smartrecycling.com/scrap-metal-recycling-alhambra-california/,,,,United States,"Smart Recycling is a comprehensive scrap metal business operating during business hours. The radio-dispatched vehicle fleet is available on the same day, or","copper, aluminum, steel, iron, brass, wire","container, demolition, sorting"
Colorado Scrap Metal Buyers & Recycling Centers,(720) 204-8107,,https://scrapvisor.com/colorado/,,,,United States,"Find trusted scrap metal buyers and recycling centers in Colorado. View up-to-date scrap metal prices, explore our interactive map of local scrap yards, and connect with reputable companies for fast and profitable scrap sales.","copper, aluminum, steel, iron, brass, wire, cable","pickup, container, demolition"
,2168197691,denver@atlasmetal.com,https://www.atlasmetalandiron.com/,,,,United States,"Atlas Metal and Iron provides scrap metal recycling including copper, brass, aluminum, stainless steel, lead, cast iron.  Container services available.","copper, aluminum, steel, iron, brass, wire",container
"Colorado Iron & Metal, Inc. – Colorado Iron & Metal, Inc.",1748681375,,https://coloradoironmetal.com/,,,,United States,"




Colorado Iron & Metal, Inc. – Colorado Iron & Metal, Inc.

























































Search for:




 
 
 
 
 








 


 
 
 







Welcome to Colorado Iron & Metal, Inc.
Open to the Public - Two Locations to Serve Your Recycling Needs
Fort Collins Location
903","aluminum, steel, iron","container, processing"
"Buying and Recycling Scrap Metals - Denver, CO - Rocky Mountain Recycling, Inc.",3032886868,info@rmrscrap.com,https://www.rmrscrap.com/,,,,United States,"We buy and recycle all scrap metals including copper, aluminum, brass, stainless steel, zinc, lead, and all types of iron and ferrous metals.","copper, aluminum, steel, iron, brass","pickup, container, demolition"
Colorado Recycling,(719) 580-6695,info@scrapmonster.com,https://www.scrapmonster.com/scrap-yard/colorado-recycling/64649,,,,United States,"Colorado Recycling Scrap Yard. Recycling Centers in ,1567 US-160,Monte Vista,Colorado, United States-ZIP:81144. ","copper, aluminum, steel, iron, brass","pickup, container"
Check Out One of Colorado’s Best Scrapyards for Cool Old Cars,2262688747,grandjunction.dme@townsquaremedia.com,https://95rockfm.com/colorado-scrapyard-vintage-cars/,,,,United States,"Take a virtual tour of a scrapyard in Colorado filled with cool, vintage vehicles.","iron, wire",container
"Holiday Schedule:Closed:  Friday July 4th and Saturday July 5thPlease note we no longer accept Refrigerators, freezers, air conditioners, or any material that contains Freon gases. Please call for more information.",2018093015,,https://www.recyclingconnections.net/,,,,United States,Home ,"copper, aluminum, steel, iron, brass, wire","pickup, container"
,(719) 390-9500,,https://coloradoindustrialrecycling.com/,,,,United States,"Recycle For My Business 
Recycling | Wire Processing | Roll Off Trash Services | Other Services | Receive A Quote   
Recycle For My Home 
Location and Hours | Metal and Automotive Recycling | Wire Processing | Purchase Scrap Metal    Recycling services that provide value, convenience,","iron, wire","container, processing"
Scrap Metal Recycling,651-454-9215,recycle@jrsadvancedrecyclers.com,https://jrsadvancedrecyclers.com/scrap-metal-prices/,,,,United States,Scrap Metal Recycling,"copper, aluminum, steel, iron, brass, battery, wire",container
Colorado,1747741523,,https://iscrapapp.com/yards-in/colorado/,,,,United States,"Find scrap yards and salvage yards in Colorado through the iScrap App. Find the best place to recycle your scrap metal, view current prices, request containers, and more.","copper, aluminum, steel, iron, brass, battery, wire, cable","container, processing"
Transfer Station / Recycling Center,1042644833,SustainableTrumbull@gmail.com,https://www.trumbull-ct.gov/275/Transfer-Station-Recycling-Center,,,,United States,"The Transfer Station is a processing site where Trumbull, Monroe, and Easton residents can bring their local waste and recycling items. Waste is temporarily collected before it is transported to disposal in an incinerator, landfill, hazardous waste, or recycling facility.","iron, cable","pickup, container, demolition, processing"
Middletown Recycling Center,1291236396,recycling@middletownct.gov,https://www.middletownct.gov/951/Middletown-Recycling-Center,,,,United States,Description of Middletown Recycling Center ,cable,"container, demolition"
"Scrap Metal Facility, Essex CT",(860) 767-2267,calamarirecycling@gmail.com,https://calamarirecycling.com/,,,,United States,"At Calamari Recycling, we excel in scrap metal recycling, dumpster rental, and C&D removal. Trust us for comprehensive, sustainable waste management","copper, aluminum, steel, brass","pickup, container, demolition"
"Scrap Metal Buyer in Hartford, CT",(860) 819-7281,,https://abauto-scrapmetal.com/,,,,United States,"A&B Auto Salvage and Scrap Metal is your local team of scrap metal buyers and junk car buyers, ready to take any and all scrap if you're in Hartford, CT.","copper, aluminum, steel, iron, brass, wire",container
Top Dog Waste Solutions Services Local Commercial Customers With Metal Recycling Services,(202) 335-3939,,https://wastemanagement.einnews.com/pr_news/782187099/top-dog-waste-solutions-services-local-commercial-customers-with-metal-recycling-services,,,,United States,Top Dog Waste Solutions Provides Metal Recycling Services for Local Commercial Clients.,"copper, aluminum, steel, iron, brass, wire",
Welcome to G&S Scrap Metal,860-528-7033,,http://gsscrap.com/,,,,United States,"Our new state-of the-art facility is now open to service all of your scrap metal needs. 444 NUTMEG RD NORTH SOUTH WINDSOR, CT 06074. 860-528-7033",,container
R W Scrap Metal Collection ajakohastatud teave,07970 323924,,https://gb.bizin.eu/est/R-W-Scrap-Metal-Collection--CT21-4NF/update,,,,United States,"R W Scrap Metal Collection, andmeid uuendama: Töötajate arv, Aastatulu, Tegevuskulud Territory",,container
This old man has been collecting scrap metal to feed stray cats in his neighborhood… Learn more about this touching story below…,1084151644,,https://iq23.ru/2022/04/13/this-old-man-has-been-collecting-scrap-metal-to-feed-stray-cats-in-his-neighborhood-learn-more-about-this-touching-story-below/,,,,United States,"




This old man has been collecting scrap metal to feed stray cats in his neighborhood… Learn more about this touching story below… – Cat and Dog Lovers

















































Skip to content








Sat. Jul 19th, 2025                 






















 Cat and Dog",,container
"""scrap metal collection"" in KwaZulu-Natal",8252589475,,https://www.gumtree.co.za/s-kwazulu+natal/scrap+metal+collection/v1l3100002q0p1,,,,United States,Find scrap metal collection in KwaZulu-Natal! View Gumtree Free Online Classified Ads for scrap metal collection and more in KwaZulu-Natal.,"copper, steel, iron, brass, wire, cable","container, demolition, processing, weighing"
Delaware Scrap Metal Buyers & Recycling Centers,(302) 284-7497,,https://scrapvisor.com/delaware/,,,,United States,"Find trusted scrap metal buyers and recycling centers in Delaware. View up-to-date scrap metal prices, explore our interactive map of local scrap yards, and connect with reputable companies for fast and profitable scrap sales.","copper, aluminum, steel, iron, brass, wire, cable","pickup, container, demolition"
,1413939426,,https://www.newarkrecycling.com/,,,,United States,"Newark Recycling is the best at turning your unwanted scrap metal into more 
useable cash. We accept any and all types of metals!! Call us today for our 
prices!!","copper, aluminum, steel, iron, brass","container, processing"
,1452183797,sjsherr@comcast.net,http://www.diamondstaterecycling.com/,,,,United States,"Diamond State Recycling in Wilmington, Delaware, pays high prices for scrap 
ferrous and nonferrous metals such as iron, copper, aluminum, cans, brass, 
lead. We use a calibrated digital scale for the most honest weights and our 
scrap yard is paved and clean. We offer container service for indus","copper, aluminum, steel, iron, brass","container, processing"
EMR New CastleScrapMetal,(302) 656-8354,usainfo@emrgroup.com,https://us.emrlocal.com/yards/emr-new-castle-scrap-metal,,,,United States,"EMR New Castle local scrap metal junkyard. Open from 07.30 Call (302) 656-8354. Best prices paid for junk cars, ferrous (steel / iron) and non-ferrous (aluminium, brass, bronze, copper, lead) metals, cans, and appliances.","copper, aluminum, steel, iron, brass, wire",container
Delaware,1747741523,,https://iscrapapp.com/yards-in/delaware/,,,,United States,"Find scrap yards and salvage yards in Delaware with ease through the iScrap App. You can see scrap metal prices, request containers for job sites, and more.","copper, aluminum, steel, iron, brass, battery, wire, cable","container, demolition"
Sussex Scrap Metal,302-846-9749,,https://iscrapapp.com/yards/us-delaware-delmar-sussex-scrap-metal/,,,,United States,"Sussex Scrap Metal, Scrap Metal Yard in Delmar, Delaware","copper, aluminum, steel, iron, brass, battery, wire, cable","pickup, container"
Delawareka,1747741523,,https://iscrapapp.com/scrap-laws/delaware/,,,,United States,Check the Delaware Scrap Metal Laws on the iScrap App website for the important information to know before you bring your metal to the local scrap yards.,"copper, aluminum, steel, iron, brass, battery, wire, cable",container
Delaware Auto Salvage,302-322-2326,,https://iscrapapp.com/yards/us-delaware-new-castle-delaware-auto-salvage/,,,,United States,"Delaware Auto Salvage, Scrap Metal Yard in New Castle, Delaware","copper, aluminum, steel, iron, brass, battery, wire, cable","pickup, container"
SJM Metal Recycling,302-276-2616,,https://iscrapapp.com/yards/us-delaware-new-castle-sjm-metal-recycling/,,,,United States,"SJM Metal Recycling, Scrap Metal Yard in New Castle, Delaware","copper, aluminum, steel, iron, brass, battery, wire, cable","pickup, container"
,1413939426,,http://www.newarkrecycling.com/,,,,United States,"Newark Recycling is the best at turning your unwanted scrap metal into more 
useable cash. We accept any and all types of metals!! Call us today for our 
prices!!","copper, aluminum, steel, iron, brass","container, processing"
"Scrap Metal Services in NY, NJ, PA, and DE",(856) 356-2516,,https://sgt-scrap.com/services/,,,,United States,Discover our various scrap metal services and make money from your scrap. Trust the team at Sgt. Scrap.,"copper, aluminum, steel, iron, brass, wire","pickup, container"
A & R Scrap Metal Recycling CompanyA Scrap Metal Buyer in Delaware,2541746979,,https://www.armetalrecyclers.com/Delaware.html,,,,United States,"A & R Recycling Company, Scrap Metal Buyer in Delaware, Recycling Service, Scrap Buyer","copper, aluminum",
,1452183797,sjsherr@comcast.net,https://www.diamondstaterecycling.com/,,,,United States,"Diamond State Recycling in Wilmington, Delaware, pays high prices for scrap 
ferrous and nonferrous metals such as iron, copper, aluminum, cans, brass, 
lead. We use a calibrated digital scale for the most honest weights and our 
scrap yard is paved and clean. We offer container service for indus","copper, aluminum, steel, iron, brass","container, processing"
Delaware Scrap Metal Prices - USA,5247816020,,https://www.priceofscrapmetals.com/delaware/,,,,United States,"Find the Latest Scrap Metal Prices in Delaware today. Check the current scrap price for copper, steel, aluminum, brass, gold and other ferrous and non-ferrous materials.","copper, aluminum, steel, iron, brass, wire",container
Commercial and Residential: Where to Look for Scrap Metal,(856) 356-2516,,https://sgt-scrap.com/blog/commercial-and-residential-where-to-look-for-scrap-metal/,,,,United States,There are multiple scrap metal sources in every community for collection and recycling. Trust the scrap metal professionals at Sgt Scrap.,"copper, aluminum, steel, iron, brass, wire","pickup, container, demolition"
Safe Handling of Scrap Metal,(856) 356-2516,,https://sgt-scrap.com/blog/safe-handling-of-scrap-metal/,,,,United States,Scrap metal recycling safety is important for better recycling and better health. Learn more at Sgt Scrap.,"copper, aluminum, steel, iron, brass, wire","pickup, container, demolition"
we buy scrap metal!!!,3333333333,operations@jacksonvillemetal.net,https://jacksonvillemetal.net/,,,,United States,"Jacksonville Metal  Recycling
























 Click here to follow our Facebook page for announcements and deals! jacksonville metal recyclingjacksonville 
metal recyclingjacksonville 
metal recyclingjacksonville 
metal recyclingjacksonville metal recyclingjacksonville 
metal recyclingjacks","copper, aluminum, steel, iron, brass, wire","container, weighing"
"All Florida Scrap Metals, Inc.",5559867006,INFO@ALLFLORIDASCRAPMETAL.COM,http://www.allfloridascrapmetal.com/,,,,United States,"We pay you to recycle. Family owned & operated scrap yard, since 1953. We 
buy ferrous & non-ferrous metals from the public, industrials, imports, and 
wholesalers.","copper, aluminum, steel, iron, brass","container, demolition, processing"
"It Pays to Recycle, Recycling Makes Cents",1176422731,strscrapmetal@gmail.com,https://www.scrapmetalrecyclingportricheyfl.com/,,,,United States,STR Scrap Metal is a local recycling and steel distributing center located in Port Richey.,"aluminum, steel",container
Trusted Metal Recycling,1709083311,info@alliedscrap.com,https://www.alliedscrap.com/,,,,United States,"Allied Scrap Processors, Inc. offers metal recycling Lakeland, FL residents can rely on. Contact us today to learn more!","aluminum, steel, iron","pickup, container"
Florida Scrap Metal Buyers & Recycling Centers,(407) 545-2025,,https://scrapvisor.com/florida/,,,,United States,"Find trusted scrap metal buyers and recycling centers in Florida. View up-to-date scrap metal prices, explore our interactive map of local scrap yards, and connect with reputable companies for fast and profitable scrap sales.","copper, aluminum, steel, iron, brass, wire, cable","pickup, container, demolition"
Florida,1747741523,,https://iscrapapp.com/yards-in/florida/,,,,United States,"Search for the scrap yards and salvage yards in Florida through the iScrap App. You can search for the current scrap metal prices, request containers to job sites, and more.","copper, aluminum, steel, iron, brass, battery, wire, cable","pickup, container"
"Scrap Metal Prices in Florida, United States",0349095502,info@scrapmonster.com,https://www.scrapmonster.com/scrap-yards/prices/florida/state/3374,,,,United States,"Scrap Prices in Florida. United States Scrap Metal Prices,Copper Scrap Price, Bronze Scrap, Aluminum Prices. Scrap Yards in Florida","copper, aluminum, steel, iron, brass, wire","pickup, container"
"Premier Metal Recyclers in Tampa Bay, FL",813-951-4584,,https://www.thescrapking.com/,,,,United States,"We are a leader among metal recyclers in Tampa Bay, FL. Whether you bring your scrap to us or we come to you, we offer top dollar for your scrap metal waste.",iron,"pickup, container, demolition"
Get Top Dollar for Scrap Metal Recycling,1658768693,,https://glescrap.com/,,,,United States,"Scrap metal recycler with locations throughout Florida & Michigan, GLE Scrap Metal offers top dollar for your metal.","copper, aluminum, iron","pickup, container, demolition, processing"
We Operate United,3307746988,,https://unitedscrap.com/florida/,,,,United States,"


Florida – United Scrap Metal Buyers and Recyclers



































 








EnglishEspañolPolskiCustomer Log InGet a QuoteSchedule PickupEnglishEspañolPolskiWho We AreBusiness DiversityCommunity EngagementOur PromiseCore ValuesSustainabilitySafety and ComplianceQEHS & PolicyOur",,"pickup, container, demolition"
Scrap Metal Pricing,(904) 353-3694,,https://www.bermanbros.com/scrap-recycling/,,,,United States,"Berman Brothers scrap metal recycling services and pricing for purchasing your aluminum, brass, and other scrap metal in Jacksonville, Florida.","copper, aluminum, steel, iron, brass, wire, cable","container, demolition, processing"
Scrap Metal Recycling for Roswell Businesses & Residents,1973157608,support@blueoakmarketing.com,https://fultonmetalsrecycling.com/scrap-metal-recycling-yard-in-roswell/,,,,United States,Scrap Metal Recycling for Roswell Businesses & ResidentsClean. Fast. Fair. Roswell’s go-to solution for responsible metal recycling with top-dollar payo ...,"aluminum, wire","pickup, container"
Pricing for Scrap Metal,1764444095,info@reliablerecyclingcenter.com,https://www.reliablerecyclingcenter.com/pricing/,,,,United States,"We pay cash for steel, copper, brass, stainless steel, aluminum, lead, and batteries. Check out our estimated pricing for scrap metal. Call to learn more.","copper, aluminum, steel, iron, brass, wire",container
Recycling,156543.0339,,https://www.floydcountyga.gov/recycling,,,,United States,"







Recycling | Floyd County Georgia




























Skip to main content












 

  
 
2025 Millage Rate Ads
 
 
 




Navigation








Floyd County
Georgia













 



Community
Residents & Visitors


Column 1

Adopt a Pet
Calendar
Car Tags
City of Rome Services
Code ","aluminum, steel",container
Recycling/Waste Centers,1611158179,kocbc@oconee.ga.us,https://www.oconeecountyga.gov/302/RecyclingWaste-Centers,,,,United States,Find recycling sites and acceptable and unacceptable items.,"aluminum, steel, wire, cable","pickup, container, demolition"
SA Recycling Griffin,1752775786,inquiries.Griffin-Slaton@sarecycling.com,https://www.sarecycling.com/yard/sa-recycling-griffin/,,,,United States,"










SA Recycling Griffin - SA Recycling







































































 






























Services

Manufacturing Scrap Services
Appliance Recycling
Automobile Recycling
Certified Destruction
Demolition Scrap
Green Waste
Carbon Plate


Sell","copper, aluminum, steel, iron, brass, wire","pickup, container, demolition"
SA Recycling Macon,1752775413,inquiries.Macon-Broadway@sarecycling.com,https://www.sarecycling.com/yard/sa-recycling-macon/,,,,United States,"










SA Recycling Macon - SA Recycling







































































 






























Services

Manufacturing Scrap Services
Appliance Recycling
Automobile Recycling
Certified Destruction
Demolition Scrap
Green Waste
Carbon Plate


Sell T","copper, aluminum, steel, iron, brass, wire","pickup, container, demolition"
Georgia,1747741523,,https://iscrapapp.com/yards-in/georgia/,,,,United States,"Search for the scrap yards and salvage yards on the iScrap App in Georgia within minutes. You can also view the current scrap metal prices, containers available for pick up, and more.","copper, aluminum, steel, iron, brass, battery, wire, cable","container, demolition"
The Scrap Yard — Turning Scrap Into Cash,2298881904,sales@thecefamily.com,https://thecefamily.com/scrapyard/,,,,United States,"Offering convenient, eco-friendly recycling solutions for both individuals and businesses to responsibly handle their metal waste.","copper, aluminum, steel, iron, brass",container
Your Full-Service Scrap Metal Buyer,2545352419,rdmetal@rose.net,https://www.rdmetalrecycling.com/,,,,United States,"R&D Metal Recycling is a family-owned scrap metal buyer in Thomasville, GA. We serve individuals as well as large-scale industrial clients in South Georgia, North Florida and East Alabama. ","aluminum, iron",container
Aluminum Recycling in Metro Atlanta,8004755270,support@blueoakmarketing.com,https://fultonmetalsrecycling.com/aluminum-recycling/,,,,United States,"Aluminum Recycling in Metro AtlantaAluminum is one of the most valuable and widely recycled materials in the U.S. At Fulton Metals Recycling, we make it eas ...","aluminum, iron, wire, cable","container, processing"
"Southern Metals Recycling at 566 Fair Ground Rd, Swainsboro, GA 30401",1674700345,icons-ffffff@2x.png,https://www.u-pull-it.com/junkyards-directory/southern-metals-recycling-at-566-fair-ground-rd-swainsboro-ga-30401/,,,,United States,"Southern Metals Recycling Recycling center at 566 Fair Ground Rd, Swainsboro, GA 30401",,container
Bizzy Brians Metal Recycling and Junk Removal,0349095502,info@scrapmonster.com,https://www.scrapmonster.com/company/bizzy-brians-metal-recycling-and-junk-removal/116443,,,,United States,"Bizzy Brians Metal Recycling And Junk Removal. Scrap Metal Recycling Company in United States,Georgia,Braselton, . Waste Recycling Company","copper, aluminum, steel, brass","pickup, container"
"Scrap Metal Recycling Atlanta |  Top Paying Scrap Metal Buyers in Marietta | Conyers, GA | M&M Recycling",404-234-9401,,https://www.mandmrecycling.com/,"5491 Austell Powder Springs Rd Austell , GA 30106",5491 Austell Powder Springs Rd Austell,GA,United States,"Searching for scrap metal recycling in Atlanta to sell your scrap metals. M&M Recycling is a top paying scrap metal buyer in Atlanta. Contact us now to sell your scrap metals in Atlanta,  Marietta, Conyers, Smyrna, GA and all nearby towns.","copper, aluminum, steel, iron, brass, wire",container
Georgia Scrap Metal Prices - USA,5247816020,,https://www.priceofscrapmetals.com/georgia/,,,,United States,"Find the Latest Scrap Metal Prices in Georgia today. Check the current scrap price for copper, steel, aluminum, brass, gold and other ferrous and non-ferrous materials.","copper, aluminum, steel, iron, brass, wire",container
Serving Industrial Clients,2545352419,605a7baede844d278b89dc95ae0a9123@sentry-next.wixpress.com,https://www.rdmetalrecycling.com/industrial-services,,,,United States,"R&D Metal Recycling is a family-owned scrap metal buyer in Thomasville, GA. We serve individuals as well as large-scale industrial clients in South Georgia, North Florida and East Alabama. ",iron,container
Scrap Metal Recycling Center,4110341396,,http://scrapmetalrecyclingcenter.com/scrap-metal-in-georgia-scrap-gold-and-metals-buyers-prices/,,,,United States,"Scrap gold can fetch good money Scrap metal, of any kind, is in demand these days. In these times of recession, people are trying to find different ways to","copper, aluminum, steel, iron","container, processing"
Bare Metals - Scrap Metal Recycling Georgia | Fast Cash For Scrap,770-467-9573,info@bare-metals.com,https://www.bare-metals.com/,,,,United States,"Get top dollar for your scrap metal at Bare Metals Georgia. Fast 15-minute processing, competitive pricing, and three convenient locations. Call for instant quote!","copper, aluminum, steel, iron, brass",processing
County of Hawai‘i Department of Environmental Management,241109-5413,,https://www.hawaiizerowaste.org/recycle/scrap-metal/,,,,United States,"




Scrap Metal - County of Hawai‘i Department of Environmental Management







































































 



 




















 County of Hawai‘i Department of Environmental Management


Menu



Home
About the Department
Contact Us
 





County of Hawa","copper, aluminum, steel, iron, brass, cable","pickup, container"
LEADERS IN RECYCLING & WASTE MANAGEMENT,005.7910357,jobs@islandrecycling.com,https://www.islandrecycling.com/,,,,United States,Island Recycling is Oahu's leading recycler. Also providing hauling and disposal services.,"copper, aluminum, steel, iron, brass, wire","pickup, container, demolition"
Scrap Metal & Auto Parts - Mr. K's Recycle & Redemption Center,1586990339,,https://www.mrksrecyclehawaii.com/auto-parts--scrap-metals.html,,,,United States,"Mr. K's buys and recycles auto parts and scrap metals, including catalytic converters, radiators, lead acid batteries, copper, aluminum and more.","copper, aluminum, brass, battery, wire",container
Metal Recycling,6381882733,,https://www.kauai.gov/Government/Departments-Agencies/Public-Works/Solid-Waste/Recycling/Metal-Recycling,,,,United States,"Puhi Metals Recycling FacilityThe Puhi Metals Recycling Facility is operated by Resource Recovery Solutions. The mission of the Puhi Metals Recycling Facility is to accept and recycle abandoned, untaxed, derelict and junked motor vehicles, white goods, scrap metal, and other...","copper, aluminum, steel, battery, cable",container
Hawaii,1747741523,,https://iscrapapp.com/yards-in/hawaii/,,,,United States,"Find scrap yards and salvage yards in Hawaii on the iScrap App in minutes. See current scrap prices, request containers, ask for auto parts, and more.","copper, aluminum, steel, iron, brass, battery, wire, cable","container, demolition"
Hawaii Scrap Metal Buyers & Recycling Centers,(808) 868-4362,,https://scrapvisor.com/hawaii/,,,,United States,"Find trusted scrap metal buyers and recycling centers in Hawaii. View up-to-date scrap metal prices, explore our interactive map of local scrap yards, and connect with reputable companies for fast and profitable scrap sales.","copper, aluminum, steel, iron, brass, wire, cable","pickup, container, demolition"
"Lenox Metals, LLC",8086825539,info@lenoxmetals.com,https://www.lenoxmetals.com/,,,,United States,"




Lenox Metals, LLC



















Toggle navigation




Lenox Metals



Services
About
In the News
Contact













Lenox Metals

Providing protection to the environment as well as a safe and efficient means of recycling and reducing commercial, industrial and residential metals in Hawai","copper, aluminum, steel, iron, brass, wire","pickup, container, demolition, processing"
Scrap Metal,808-487-2802,,https://www.reynoldsrecycling.com/procedures/scrap-metal,,,,United States,"








Scrap Metal / Reynolds Recycling


















Home


About


Locations


Procedures


Employment


Fundraising


Contact













Home


About


Locations


Procedures


Employment


Fundraising


Contact












Scrap Metal
Checkout our scrap metals policies, the types of scra","copper, aluminum, steel, brass, wire",pickup
Metal Scrap Made Easy,(808) 854-4530,atlas@hawaii.rr.com,https://bigislandscrapmetal.com/,,,,United States,Choose Big Island Scrap Metal for trusted scrap metal recycling. Keep our island clean. Act Now.,steel,container
Scrap Metal Collection Burton upon Trent,2545352419,605a7baede844d278b89dc95ae0a9123@sentry-next.wixpress.com,https://www.scrapmetalcollection.net/burtonupontrent,,,,United States,"Professional scrap metal collection in Burton upon Trent. We provide fast, eco-friendly scrap removal services. Contact us to schedule a collection today!","copper, steel, iron, brass, cable","pickup, container, processing, sorting"
Scrap Metal Collection Atherton - Manchester,0751627745,,https://circular-waste.eu/scrap-metal-collection-atherton/,,,,United States,"Scrap Metal Collection Atherton: Una Compañía de Reciclaje de Metal con Ubicación en Mealhouse Ln, Atherton, Manchester M46 0EW",,container
Scrap metal master looks after regions,1736962212,,https://www.valleyprofile.co.nz/2024/04/10/scrap-metal-master-looks-after-regions/,,,,United States,"



Scrap metal master looks after regions – The Valley Profile














































Skip to content
















AdvertiseAboutArchivesContact



Search this website









Menu
Close






Advertise
About
Archives
Contact






 








Scrap metal master looks after","copper, steel, iron, brass",container
"""scrap metal collection"" in Western Cape",8252589475,,https://www.gumtree.co.za/s-western-cape/scrap+metal+collection/v1l3100001q0p1,,,,United States,Find scrap metal collection in Western Cape! View Gumtree Free Online Classified Ads for scrap metal collection and more in Western Cape.,"copper, aluminum, steel, brass, wire, cable","container, processing"
WELCOME TO MILLCREEK METALS,(208) 271-4361,prestonbond@metrogroup.com,https://millcreekmetals.com/,,,,United States,Explore top-tier scrap metal recycling services at Mill Creek Metals. We offer efficient scrap metal collection and recycling solutions in Idaho. Turn your scrap into cash today!,"copper, aluminum, steel, iron, brass","pickup, container"
Turn Scrap Metal into Fast Cash!,(208) 466-3164,eben@eyebytes.com,https://tvmrecycling.com/,,,,United States,"Recycle your metal hassle-free at TVM Recycling in Nampa, ID! We accept scrap steel, aluminum, copper & more. Fast, friendly service and top payouts.","copper, aluminum, steel, iron, wire","container, demolition"
Boise Steel & Recycling,4549394706,,https://www.pacific-steel.com/location/boise-steel-recycling/,,,,United States,Pacific Steel and Recycling offers steel and recycling services focused on sustainability and improvement to the supply chain. Give us a call at our Boise location today to discuss the services we offer.,"copper, aluminum, steel, iron, brass",container
Idaho Salvage & Metals Welcomes You,1565189062,bshulsen@yahoo.com,https://www.idahosalvageandmetals.com/,,,,United States,"Idaho Salvage and Metals in Preston, ID is a scrap metal recycling center serving various areas.",steel,container
"Idaho Recycling & Salvage, Inc",0349095502,info@scrapmonster.com,https://www.scrapmonster.com/scrap-yard/idaho-recycling-salvage-inc/48965,,,,United States,"Idaho Recycling & Salvage, Inc Scrap Yard. Recycling Centers in 3900 Garrity Blvd  ,,Nampa,Idaho, United States-ZIP:83687. ","copper, aluminum, steel, iron, brass","pickup, container"
Idaho,1747741523,,https://iscrapapp.com/scrap-laws/idaho/,,,,United States,Get the important information you need for the Idaho Scrap Metal Laws on the iScrap App website. Check the Idaho regulations before recycling your scrap.,"copper, aluminum, steel, iron, brass, battery, wire, cable",container
"scrap yard FS - 8,000 cars on 80 acres - Idaho",1646171805,,https://ohmo.co/topic/104015-scrap-yard-fs-8000-cars-on-80-acres-idaho/,,,,United States,"Auto salvage yard, 8000 cars on 80 acres in Idaho Asking price is 3 million. if every body on the board chipped in, we could each get two cars out of the deal http://blog.hemmings.com/index.php/2014/02/20/hemmings-find-of-the-day-8000-cars/",steel,container
Idaho Falls Recycling,4549394706,,https://www.pacific-steel.com/location/idaho-falls-recycling/,,,,United States,Pacific Steel and Recycling offers recycling services focused on sustainability and improvement to the supply chain. Give us a call at our Idaho Falls location today to discuss the services we offer.,"copper, aluminum, steel, iron, brass",container
AnyScrap Anywhere Anytime,(208) 562-1200,info@umrecycling.com,https://umrecycling.com/,,,,United States,"








Home | United Metals Recycling






















































































HomeHistory
Environmental Commitment


ServicesBin Exchange
MOBILE SHREDDING
Scrap Management
Transportation
Processing
Converter Reclaim
Copper Reclaim
Electronics Recycling","copper, aluminum, iron, wire","pickup, container, demolition, processing"
"There May Be Recyclable Metals in Your Barrington, IL Home",1537309453,,https://www.centralmetalrecycling.net/there-may-be-recyclable-metals-in-your-barrington-il-home-3/,,,,United States,"


There May Be Recyclable Metals in Your Barrington, IL Home - Central Metal Recycling


























































































 5618 W. Fillmore Street, Chicago, IL 60644 



 773.345.8610 










 




     

 







Home
Recycling
Blog
Contact","aluminum, steel, iron, brass, battery, wire",container
Cozzi Recycling Featured in Illinois Manufacturing Association’s Friday Five,5672989785,info@cozzirecycling.com,https://cozzirecycling.com/cozzi-recycling-illinois-manufacturing-associations-friday-five/,,,,United States,"









Cozzi Recycling Featured in Illinois Manufacturing Association's Friday Five - Cozzi Recycling | Chicago's Best Scrap Metal Recycling Company





















































Skip to content



















 (847) 233-0300












 (847) 233-0300
















",cable,"container, demolition"
"Rather Recycling – Copper Scrap Metal, Recycling Center & Scrap Yards in Birmingham AL at 323 Finley Blvd, Birmingham, AL 35204",1674700345,icons-ffffff@2x.png,https://www.u-pull-it.com/junkyards-directory/rather-recycling-copper-scrap-metal-recycling-center-scrap-yards-in-birmingham-al-at-323-finley-blvd-birmingham-al-35204/,,,,United States,"Rather Recycling - Copper Scrap Metal, Recycling Center & Scrap Yards in Birmingham AL Recycling center at 323 Finley Blvd, Birmingham, AL 35204","copper, aluminum, steel, iron, brass",container
"Cash For Scrap Metal in Mt. Airy, MD",1752069963,info@reliablerecyclingcenter.com,https://www.reliablerecyclingcenter.com/about-us/service-areas/scrap-metal-recycling-mt-airy-md/,,,,United States,"Received cash for scrap metal in Mt. Airy, MD. Get paid to recycle! Call Reliable Recycling to learn more. We also offer roll-off containers!","copper, aluminum, steel, iron, brass, wire",container
"Why Pay?Elgin,IL Appliance / Disposal Removal & Machinery Recycling",872-985-3843,pkenterprise@getjunk.net,https://getjunk.net/Kane-County-IL-North-N-Free-Appliance-Removal-Elgin-IL-Illinois-60123-60124-Disposal-Fridges-Refrigerator-Freezer-Stoves-Washer-Dryer-Haul-Away-Pickup-Recycle-Recycling.html,,,,United States,"Appliance & Equipment Pick Up Elgin, IL- Recycle/Recycling: Dryer, Washer, Stove, Water Heater Disposal +more 60123, 60124 (Free Removal Depends On Amount)","copper, aluminum, steel, iron, brass, battery, wire, cable",pickup
Hitchcock Scrap Yard,(309) 668-3217,bobs@hsyinc.com,https://hitchcockscrapyard.com/,,,,United States,"ï»¿





Hitchcock Scrap Yard




Home
About Us
Services
Employment













1
2
3
4




Hitchcock Scrap Yard is a small business working to make a big difference. We offer our customers small town personal service with the advantage of competitive pricing, professional grade equipment, and the ",,container
Welcome to Legacy scrap!,2029948484,info@indiantypefoundry.com,https://legacyscrap.com/,,,,United States,Legacy Scrap is a leading metal recycling center offering top-notch services for copper recycling and scrap metal recycling. Contact us today for all your recycling needs.,"copper, aluminum, steel, iron, brass","container, processing"
United Scrap Metal Buyers and Recyclers – Committed to Making a Positive Impact in the Lives of Others,1174335649,,https://unitedscrap.com/,,,,United States,"


United Scrap Metal Buyers and Recyclers – Committed to Making a Positive Impact in the Lives of Others











































 








EnglishEspañolPolskiCustomer Log InGet a QuoteSchedule PickupEnglishEspañolPolskiWho We AreBusiness DiversityCommunity EngagementOur PromiseC",,"pickup, container"
"1-800-MyScrap :: Ecology, Inc. Scrap, Recycling, Balers, Illinois, Paper, copper, aluminum, plastic",630.377.0008,,https://www.1800myscrap.com/,,,,United States,"



1-800-MyScrap :: Ecology, Inc. Scrap, Recycling, Balers, Illinois, Paper, copper, aluminum, plastic






Home
Pickup Service
Balers
About Us 
Contact Us 




Items that we recycle:




copper
copper wire and cable 
aluminum 
aluminum cans 
aluminum siding 
iron and steel
 


lead 
zinc 
mercury","copper, aluminum, steel, iron, brass, wire, cable",pickup
Your Scrap Metal Connection,1537309453,,https://www.centralmetalrecycling.net/,,,,United States,"Full-service metal recycling center in Chicago. We accept all kinds of scrap metals, including aluminum, iron, copper, brass, stainless steel, e-scrap and more. We provide exceptional service and payments on the spot.","copper, aluminum, steel, iron, brass",container
"We Pay Cash for Scrap Metal from Residential, Commercial and Industrial Customers - Top Recycling Company",630-844-3344,,https://ssmetalrecyclers2.com/,,,,United States,"Find the leading recycling company in Chicagoland area. Get competitive rates for recycling metal as a homeowner, business or industrial facility.","copper, aluminum, iron, brass, wire","pickup, container"
Elgin Recycling,(847) 741-4100,,https://www.elginrecycling.com/,,,,United States,Do your part for the environment and earn cash by bringing your recyclable loads to an Elgin recycling center near you. Learn more at ElginRecycling.com.,"copper, aluminum, steel, iron, brass, battery, wire","pickup, demolition, processing"
Finding the Best Scrap Metal Buyers in Illinois: Chicago,7735582216,info@greenwaymetalrecycling.com,https://greenwaymetalrecycling.com/finding-the-best-scrap-metal-buyers-in-illinois-chicago/,,,,United States,"When searching for scrap metal buyers in Illinois, you first need to narrow down your options to small or large-scale metal recyclers. If you are recycling  ...","aluminum, steel","pickup, container"
SCRAP METAL PRICES MICHIGAN : SCRAP METAL,1751981882,,https://typesofferrousmetalshxi.wordpress.com/,,,,United States,"Scrap metal prices michigan : Buy metal mesh : Scrap metal buyers illinois Scrap Metal Prices Michigan metal prices Metal prices (metal commodities) are only for a few metals quoted on exchanges. Only Aluminium Alloy, Aluminium, Copper, Lead, Nickel, Tin, Zinc and Nasaac (North American special Alum","copper, steel, iron, cable",processing
How to Start a Scrap Metal Buyers Business,1585870404,,https://www.gaebler.com/How-to-Start-a-Scrap-Metal-Buyers-Business.htm,,,,United States,Contemplating starting a scrap metal buyers business? Here are the first steps you'll need to take to get started.,,container
AMERICAN SCRAP METAL SERVICES,1619590516,americanscrapmetal@comcast.net,https://www.scrapmanchicago.com/,,,,United States,"Contact American Scrap Metal for our Scrap Metal pick up services in Alsip, IL","copper, aluminum, steel, iron, brass, wire","pickup, container, demolition"
East Chicago's Best Scrap Metal Recycling | Scrap Metal Services,(708) 730-1400,,https://scrapmetalservices.com/,,,,United States,"Since 2005, SMS provides scrap metal to steel mill recycling services. We buy scrap metal from the public & offer scrap management.","steel, iron","container, demolition, processing"
Zore’s Recycling,317-244-0700,zoresinc@gmail.com,https://www.zoresrecycling.com/,,,,United States,"Zore’s Recycling is a leading scrap metal recycling company in Indianapolis, Indiana. We pay cash on the spot for all metal, including junk cars.","copper, aluminum, steel, iron, wire","container, processing, sorting"
Farnsworth Metal Recycling,1720711500,scalehouse@farnsworthmetals.com,https://www.farnsworthmetals.com/,,,,United States,"






Farnsworth Metal Recycling























































0































































        Skip to Content
      




























        About
      





                  About
                





               ","copper, aluminum, iron, brass","container, demolition, processing"
Aluminum Producer and Scrap Metal Recycler,5876159866,,https://www.metalsourcellc.com/,,,,United States,Providing full-service scrap and metal recycling services for individuals and businesses throughout Indiana.,"copper, aluminum, steel, iron",container
We Buy Your Scrap,1751892472,,https://rmrecycling.com/,,,,United States,"





River Metals Recycling | RMR












































Sell Your Scrap

Household Scrap
Junk Car
E-Scrap
Industrial Scrap


Industrial Scrap

Dispatch
MyScrapInfo


Locations

Indiana

Greensburg
New Albany
Seymour/North Vernon


Kentucky

Ashland
Danville
Glasgow (Speedway R","copper, aluminum, steel, iron, brass, wire","container, demolition"
Indiana,1747741523,,https://iscrapapp.com/yards-in/indiana/,,,,United States,"Search for scrap yards and salvage yards in Indiana on the iScrap App. You can see the current scrap prices, request containers, and search for auto parts with the yards listed.","copper, aluminum, steel, iron, brass, battery, wire, cable",container
All Kinds of Scrap,812-547-3101,donnalynam@att.net,https://iscrapapp.com/yards/us-indiana-cannelton-all-kinds-of-scrap/,,,,United States,"All Kinds of Scrap, Scrap Metal Yard in Cannelton, Indiana","copper, aluminum, steel, iron, brass, battery, wire, cable","pickup, container"
Pauls Auto Yard,219-962-1177,,https://iscrapapp.com/yards/us-indiana-lake-station-pauls-auto-yard/,,,,United States,"Pauls Auto Yard, Scrap Metal Yard in Lake Station, Indiana","copper, aluminum, steel, iron, brass, battery, wire, cable","pickup, container"
Howard Salvaging LLCOPEN NOW,1574226037,info@howardsalvaging.com,https://iscrapapp.com/yards/us-indiana-bristol-howard-salvaging-llc/,,,,United States,"Howard Salvaging LLC, Scrap Metal Yard in Bristol, Indiana","copper, aluminum, steel, iron, brass, battery, wire, cable","pickup, container"
Indiana,1747741523,,https://iscrapapp.com/scrap-laws/indiana/,,,,United States,Visit the iScrap App website for the Indiana Scrap Metal Laws and other important information you should know before you bring your metal in.,"copper, aluminum, steel, iron, brass, battery, wire, cable",container
Newco Metals,(317) 485-7721,,https://newcometals.com/,,,,United States,"With two locations in Pendleton, IN and Anderson, IN, we specialize in Industrial and General Public metals recycling nationwide.",,container
"Towing, Auto Parts, Metal Recycling & Cash for Cars",317-247-8484,,https://www.zoresindy.com/blog/information-about-indiana-scrap-metal-prices/,,,,United States,"





Information About Indiana Scrap Metal Prices | Towing, Auto Parts, Metal Recycling & Cash for Cars	























Skip to primary content


Towing, Auto Parts, Metal Recycling & Cash for Cars



 

Search




Main menu
Blog Home Page
Visit our Website
 





Post navigation
← Previous",,container
Zore’s Recycling,317-244-0700,,https://www.zoresrecycling.com/blog/tag/scrap-metal/,,,,United States,"





scrap metal | Zore’s Recycling	




















Skip to primary contentSkip to secondary content


Zore’s Recycling



 

Search




Main menu
Blog Home Page
Visit our Website
 






					Tag Archives: scrap metal 



Are You Searching for Local Metal Recycling Centers in Indianapolis?

P","copper, aluminum, steel, iron, brass, wire","pickup, container, processing"
Garden City Iron & Metal,888-586-5322,,https://www.gardencityironandmetal.com/blog/who-pays-top-dollar-for-scrap-metal-in-central-indiana/,,,,United States,"





Who Pays Top Dollar for Scrap Metal in Central Indiana? | Garden City Iron & Metal	























Skip to primary content


Garden City Iron & Metal



 

Search




Main menu
Blog Home Page
Visit our Website
 





Post navigation
← Previous
Next →



Who Pays Top Dollar for Scrap Me","copper, aluminum, steel, iron, brass","pickup, container"
Scrap Metal Collection Lytham St Annes,2545352419,605a7baede844d278b89dc95ae0a9123@sentry-next.wixpress.com,https://www.scrapmetalcollection.net/lythamstannes,,,,United States,"We offer Free Scrap Metal Collection Services for both the residential and commercial sectors. Need some scrap metal removing ? We will collect it today!
","copper, steel, iron, brass, cable","pickup, container, processing, sorting"
Scrap metal collecting,1551358716,,https://indianbusinesscanada.com/scrap-metal-collecting/,,,,United States,"


Scrap metal collecting Rubbish / Junk Removal Services Peterborough Ontario


 








HomeContactAccountAdd Listing

Scrap metal collecting
Contact Details

Peterborough, ON K9J 3P3, Canada More Info: Click Here







Free scrap metal drop off at 124 indian rd hastings Ontario. Free junk remo",,container
Man And Van Barnet - London,2025071914,,https://www.manandvantree.co.uk/man-and-van-barnet-free-scrap-metal-collection-247-al-london-areas-scrap-metal-yard_i21271,,,,United States,"Reliable Man and Van removals in Barnet for house moves, office relocation, and deliveries. Fast, affordable, and fully insured service.","copper, steel, brass, wire, cable","pickup, container"
"Iowa Metal Recycling at 212 N Evans Rd, Evansdale, IA 50707",1674700345,icons-ffffff@2x.png,https://www.u-pull-it.com/junkyards-directory/iowa-metal-recycling-at-212-n-evans-rd-evansdale-ia-50707/,,,,United States,"Iowa Metal Recycling Recycling center at 212 N Evans Rd, Evansdale, IA 50707","copper, aluminum, steel, iron, brass, wire","container, sorting, weighing"
A & R  Scrap Metal Recycling CompanyScrap Metal Buyer in Des Moines,2541746979,,"https://www.armetalrecyclers.com/Des_Moines,_Iowa.html",,,,United States,"A & R Scrap Metal Recycling Company, scrap metal buyer in Des Moines, OH, scrap metal recycler, recycle scrap metal, scrap metal prices, scrap buyer, Des Moines, IA","copper, aluminum",
Taney Co Metal & Recycling,(417) 546-6700,,https://www.salvage-parts.com/junk-yards/taney-co-metal-amp-recycling,"Location: USA , Missouri, Taney, Taneyville Address: 381 Central Ave, Taneyville, MO 65759 Phone: +1 417-546-6700 Website: Last update: September 23, 2024","Location: USA , Missouri, Taney, Taneyville Address: 381 Central Ave, Taneyville",MO,United States,"Check the info on Taney Co Metal & Recycling, which is located in Taneyville (Missouri).",,container
Alineironandmetals.com,1000035869,allan.mishra@gmail.com,https://webstatsdomain.org/d/www.alineironandmetals.com,,,,United States,"A-Line Iron and Metals in Waterloo, Iowa provides the areas most comprehensive ferrous and non-ferrous scrap metal recycling and processing services.","copper, aluminum, iron, brass, wire",processing
Omaha Auto Recyclers | Scrap Metal Recycling Yard | Scrap Junk Cars,8571428571,contact@lakesideautorecyclers.com,https://lakesideautorecyclers.com/,,,,United States,"Lakeside Auto Recyclers serving Omaha, Carter Lake and Council Bluffs pays the best cash for scrap metal! We offer free towing and a container service to pick up your scrap!","copper, aluminum, steel, iron, brass, wire",container
Scrap Processors Inc.,(052) 638000,Info@scrapprocessorsiowa.com,https://scrapprocessorsiowa.com/,,,,United States,"






Scrap Processors Inc. | ""Making Recycling a Reality""








































































CLEAN. FRIENDLY. CONVENIENT.
VISIT US TODAY
SPI Appliance Recycling Center
+ 515 263 8000
918 SE 21st St.
Des Moines, IA 50317

SPI Webster City
+ 515 832 5360
505 Sene","copper, aluminum, steel, iron","container, processing"
"Scrap Metal Recycling - Coralville, IA",319-351-1331,,https://www.petersenironmetalrecycler.com/,"420 1st Street Coralville , IA 52241",420 1st Street Coralville,IA,United States,"









Petersen Iron & Metal - Scrap Metal Recycling - Coralville, IA















Scroll










420 1st Street Coralville, IA 52241




319-351-1331















Phone 319-351-1331



MENU


HomeAbout UsAcceptable MaterialsContainer ServiceInformationGalleryReviewsContact Us








Scrap","steel, iron",container
Garbage,3141925352,clerk@cityofwalfordiowa.com,https://www.cityofwalfordiowa.com/garbage-recycling-yardwaste,,,,United States,"






Garbage, Recycling, Yard Waste — WALFORD | IOWA








































        
          
            WALFORD | IOWA
          
        
      




















































            About
          

Residents


City


            Make A Payment
   ",,"pickup, container, processing"
Why Iowa Metal Recycling?,42475,office@iowametalrecycling.com,https://www.iowametalrecycling.com/services,,,,United States,"

















































Services | Iowa Metal Recycling




















top of pageHomeAbout UsServicesHours Materials ContainersFAQsContactWhy Iowa Metal Recycling?Iowa Metal Recycling is a full-service metal recycling facility that purchases ferrous and non-ferrous sc",iron,container
Buying Scrap Metal | Rd Metal Recycling Iowa,2545352419,rdmetal@ccrrecycling.com,https://www.rdmrecycling.com/,,,,United States,"Information on the services offered at RD Metal Recycling. Including buying scrap ferrous and non-ferrous metals, dumpster and rolloff box services, junk car towing, and more. ","copper, aluminum, steel, iron, brass",container
Subscribe to our newsletter • Don’t miss out!,2545352419,email@example.com,https://www.pushironandmetals.com/,,,,United States,"Scrapyard:
Push Iron & Metals:
With 3 locations across Iowa, our facilities have been serving the Cedar Valley, and beyond, for over 80 years! With our experience in ferrous and non-ferrous metal recycling and our contacts in the industry, we ensure you the highest returns for your recycled metal.","iron, wire",container
Free Scrap Metal Collection Holton Heath | Dorset | BH16 | Recycle,1734663794,,https://www.free-scrapmetalcollection.co.uk/free-scrap-metal-collection-holton-heath/,,,,United States,"Free Scrap Metal Collection Holton Heath, Free Scrap Metal Recycling Holton Heath, Free Acid Battery Collection Holton Heath, Boiler/Cylinder","steel, iron, battery",container
Scrap Metal Collection | Acompio United Kingdom,8785953974,Scrapmetalcollectionteam@gmail.com,https://www.acompio.co.uk/Scrap-Metal-Collection-36343754.html,,,,United States,"Manchester, King St, Acompio United Kingdom | reviews, offers, coupons, opening hours, directions – all information at a glance",,container
Scrap Metal Recycling & Pick Up,8530392562,,https://junkremovalguysofkansas.com/scrap-metal-recycling-pick-up/,,,,United States,"Table of Contents The landfill is not the best place for scrap metal. The US Environmental Protection Agency ""EPA"" disapproves of landfill disposal of scrap metal. Scrap metal releases carbon dioxide and methane in landfills, two extremely powerful greenhouse gases. As a result, many cities, municip","copper, steel, iron, brass","pickup, container, demolition"
Kansas City’s Same-Day Scrap Metal Recycling,2147483647,,https://www.1800gotjunk.com/us_en/locations/junk-removal-kansas-city/scrap-metal-pickup,,,,United States,1-800-GOT-JUNK? offers Kansas City same-day scrap metal recycling services if you book early enough. Check your next available time online!,"copper, iron, brass","pickup, container"
Kansas,1747741523,,https://iscrapapp.com/yards-in/kansas/,,,,United States,"Find the scrap yards and salvage yards in Kansas in a few minutes on the iScrap App. You can see the current scrap prices, request containers for pick ups, and request auto parts too.","copper, aluminum, steel, iron, brass, battery, wire, cable","container, processing"
"Scrap Metal Prices in Kansas, United States",0349095502,info@scrapmonster.com,https://www.scrapmonster.com/scrap-yards/prices/kansas/state/3381,,,,United States,"Scrap Prices in Kansas. United States Scrap Metal Prices,Copper Scrap Price, Bronze Scrap, Aluminum Prices. Scrap Yards in Kansas","copper, aluminum, steel, iron, brass, wire","pickup, container"
Kansas Scrap Metal Buyers & Recycling Centers,(620) 471-1365,,https://scrapvisor.com/kansas/,,,,United States,"Find trusted scrap metal buyers and recycling centers in Kansas. View up-to-date scrap metal prices, explore our interactive map of local scrap yards, and connect with reputable companies for fast and profitable scrap sales.","copper, aluminum, steel, iron, brass, wire, cable","pickup, container, demolition"
BG Battery/Metal Recycling,(913) 952-2007,bradncakes4ever13@gmail.com,https://www.recyclingmonster.com/recycling-center/bg-batterymetal-recycling/61716,,,,United States,"BG Battery/Metal Recycling, Recycling Center at N 60 St, Kansas City, Kansas, United States - Open hours, accepting materials, scrap prices, phone number and location address","aluminum, steel, battery",container
"Axis Iron & Metal Recycling Co., Inc. at 5546 N Broadway St, Park City, KS 67219",1674700345,icons-ffffff@2x.png,https://www.u-pull-it.com/junkyards-directory/axis-iron-metal-recycling-co-inc-at-5546-n-broadway-st-park-city-ks-67219/,,,,United States,"Axis Iron & Metal Recycling Co., Inc. Recycling center at 5546 N Broadway St, Park City, KS 67219","copper, aluminum, steel, iron, brass",container
Glickman Metal Recycling LLC,(316) 838-9381,help@mapquest.com,https://www.mapquest.com/us/kansas/glickman-metal-recycling-8341457,,,,United States,"Get more information for Glickman Metal Recycling LLC in Wichita, KS. See reviews, map, get the address, and find directions.","copper, aluminum, steel, iron, brass, wire","container, demolition, processing"
Current Prices,1714400026,,https://www.baileyrecyclingandscrapmetal.com/current-pricing,,,,United States,Learn more about the current prices at Bailey Recycling & Scrap Metals. Friendly staff. Visit us today.,,"pickup, container"
A LEADER IN SCRAP METAL RECYCLING FOR TOMORROW'S ENVIRONMENT,1655949744,info@smirecyclers.com,https://smirecyclers.com/,,,,United States,"Scrap Management Industries (SMI) specializes in ferrous & nonferrous scrap metal recycling. A premier Midwest metal processor with locations in MO, KS, and OK.","copper, aluminum, steel, iron","container, demolition, processing"
We Buy Your Scrap,1631538900,,https://advantagerecycling.com/,,,,United States,"





Advantage Metals Recycling | AMR





































Sell Your Scrap

Household Scrap
Junk Car


Industrial Scrap

Dispatch
MyScrapInfo


Locations

Columbus, KS
Emporia, KS
Fort Scott, KS
Kansas City, KS (12th Street)
Kansas City, KS (Cheyenne)
Topeka, KS
Columbia, MO
Kansas ","copper, aluminum, steel, iron, brass, wire",container
Scrap Metal Dealers,(999) 999-9999,smtra_enforcement@ag.ks.gov,https://www.ag.ks.gov/divisions/civil/licensing-inspections/scrap-metal-dealers,,,,United States,"


	
    Scrap Metal Dealers | Attorney General of KS








































Please enable JavaScript in your browser for a better user experience.








Skip to main content



Home
Menu




Attorney General's Office
Kansas Bureau of Investigation (KBI)




Search

CLOSE


Se",,container
Kentucky Scrap Metal Buyers & Recycling Centers,(270) 830-6622,,https://scrapvisor.com/kentucky/,,,,United States,"Find trusted scrap metal buyers and recycling centers in Kentucky. View up-to-date scrap metal prices, explore our interactive map of local scrap yards, and connect with reputable companies for fast and profitable scrap sales.","copper, aluminum, steel, iron, brass, wire, cable","pickup, container, demolition"
,111 120 1006,bridget.acjudge@gmail.com,https://eec.ky.gov/Environmental-Protection/Waste/recycling-and-local-assistance/Documents/RecyclingFacilities.pdf,,,,United States,"%PDF-1.5
%����
1 0 obj
<>
endobj
2 0 obj
<>
endobj
3 0 obj
<>/Font<>/ProcSet[/PDF/Text/ImageB/ImageC/ImageI] >>/Annots[ 18 0 R 19 0 R 20 0 R] /MediaBox[ 0 0 792.24 612.16] /Contents 5 0 R/Group<>/Tabs/S>>
endobj
4 0 obj
<>
endobj
5 0 obj
<>
stream
x��YmS���*��~J�^�a�g�����9;B��J�B�q","steel, iron, battery, cable","pickup, demolition"
Multi Metal Recycling Center LLC,(270) 756-0040,112505AKS@GMAIL.COM,https://kentuckyscrapmetals.com/,,,,United States,"Multi Metal Recycling Center is a scrap business based in Hardinsburg. We deal with ferrous & non-ferrous materials. For more information, contact us!","copper, aluminum, brass","container, demolition, processing"
Scrap Metal Pricing,6385631277,,https://transportation.ky.gov/Maintenance/Pages/Scrap-Metal-Pricing.aspx,,,,United States,"








	Scrap Metal Pricing | KYTC











































































































Ky.gov
An Official Website of the Commonwealth of Kentucky


Governor Andy Beshear




















Toggle navigation









It looks like your brows","aluminum, iron",container
Home,2147483647,,https://www.rustyroosterrecycling.com/,,,,United States,Recycling aluminum cans is only one aspect of the types of aluminum recycling that Rusty Rooster Recycling accepts. We pay the best prices for aluminum cans and other types of aluminum.,"copper, aluminum, iron","container, demolition"
Stuff Recycling,1731782586,email@example.com,https://www.stuffrecycling.com/,,,,United States,"Stuff Recycling is a full scrap metal recycling facility. Veteran-owned and 
locally-operated with two locations in Winchester, KY and Taylor, MI.",,"container, processing"
Ownership,(859) 292-8400,,https://metalrecyclingservices.com/fast-facts/,,,,United States,"




Fast Facts | Metal Recycling Services







































Sell Your Scrap

Household Scrap
Junk Car
Non-Ferrous/E-Scrap


Industrial Scrap

Dispatch
MyScrapInfo


Locations

Gastonia, NC
Monroe, NC
Whiteville, NC


Careers
About

Affiliates
Community
Environment
Fast Facts
Le","copper, iron","container, demolition, processing"
About recycling,2787432837,wastemanagement@lexingtonky.gov,https://www.lexingtonky.gov/living/waste-collection/about-recycling,,,,United States,Items that can be recycled are picked up weekly through city waste collection services and in drop-off containers throughout Lexington.,"aluminum, steel, iron, cable","pickup, container, sorting"
"Scrap Metal Recycling in Jeffersonville, IN",5036843508,,https://www.redballrecycling.com/scrap-metal-recycling,,,,United States,"We're the experts in scrap metal recycling in Jeffersonville, IN. Contact our team at Red Ball Recycling today to learn more.","copper, aluminum, steel, brass",container
Scrap Metal Recycling Services Suppliers located in Kentucky,5895271387,,https://www.thomasnet.com/suppliers/kentucky/all-cities/scrap-metal-recycling-services-97001183,,,,United States,Scrap Metal Recycling Services Suppliers located in Kentucky,"copper, aluminum, steel, iron, brass, battery","container, demolition, processing, sorting"
Freedom Metals-Louisville,502-637-7657,info@freedommetals.com,https://iscrapapp.com/yards/us-kentucky-louisville-freedom-metals-louisville/,,,,United States,"Freedom Metals-Louisville, Scrap Metal Yard in Louisville, Kentucky","copper, aluminum, steel, iron, brass, battery, wire, cable","pickup, container, demolition"
Freedom Metals- Winchester,502-637-7657,info@freedommetals.com,https://iscrapapp.com/yards/us-kentucky-winchester-freedom-metals-winchester/,,,,United States,"Freedom Metals- Winchester, Scrap Metal Yard in Winchester, Kentucky","copper, aluminum, steel, iron, brass, battery, wire, cable","pickup, container, demolition"
"Scrap Metal Prices in Kentucky, United States",0349095502,info@scrapmonster.com,https://www.scrapmonster.com/scrap-yards/prices/kentucky/state/3382,,,,United States,"Scrap Prices in Kentucky. United States Scrap Metal Prices,Copper Scrap Price, Bronze Scrap, Aluminum Prices. Scrap Yards in Kentucky","copper, aluminum, steel, iron, brass, battery","pickup, container"
Louisiana Scrap Metal Recycling,(337) 439-5475,,https://www.salvage-parts.com/junk-yards/louisiana-scrap-metal-recycling-lake-charles,"Location: USA , Louisiana, Calcasieu, Lake Charles Address: 1225 N 1st Ave, Lake Charles, LA 70601 Phone: +1 337-439-5475 Website: http://www.lascrapmetal.com/ Last update: September 23, 2024","Location: USA , Louisiana, Calcasieu, Lake Charles Address: 1225 N 1st Ave, Lake Charles",LA,United States,"Check the information on Louisiana Scrap Metal Recycling, which is placed in Lake Charles (Louisiana).",iron,container
Louisiana Scrap Metal Recycling - About,3141925352,info@lascrapmetal.com,https://www.lascrapmetal.com/about,,,,United States,"Family Owned & Operated Since 1988, Louisiana Scrap Metal Recycling has 
revolutionized the recycling industry, providing exceptional customer 
experiences. With cutting-edge technology and experienced professionals, we 
ensure efficient and high-quality service. Our commitment to excellence and ",aluminum,"container, demolition, processing"
What Do You Need to Know About Recycling Scrap Metal Louisiana?,1726233326,,https://www.greatbizwork.com/what-do-you-need-to-know-about-recycling-scrap-metal-louisiana/,,,,United States,"
















What Do You Need to Know About Recycling Scrap Metal Louisiana? - Great Biz Work














































































Business
shopping
Dentist
Contact Us












 










What Do You Need to Know About Recycling Scrap Metal Louisiana?","copper, aluminum, steel, iron, brass","container, processing"
Louisiana Scrap Metal Recycling,0349095502,info@lascrapmetal.com,https://www.scrapmonster.com/scrap-yard/louisiana-scrap-metal-recycling/17694,,,,United States,"Louisiana Scrap Metal Recycling Scrap Yard. Recycling Centers in 2200 Cameron Street ,,Lafayette,Louisiana, United States-ZIP:70506. 1225 N 1st Ave,, Lake Charles,Louisiana, United States-ZIP:70601. ","copper, aluminum, steel, iron, brass","pickup, container, demolition, processing"
Northside scrap metal yard,(985) 536-5686,,https://www.recyclingmonster.com/recycling-center/northside-scrap-metal-yard/62260,,,,United States,"Northside scrap metal yard, Recycling Center at 450 Terre Haute Rd, Reserve, Louisiana, United States - Open hours, accepting materials, scrap prices, phone number and location address","copper, aluminum, steel, wire",container
Reviews of  EMR Southern Recycling - New Orleans (Scrap Yards),(504) 942-0340,,https://trustreviewers.com/scrap-yards/louisiana/emr-southern-recycling-new-orleans/,,,,United States,We have the reviews of real people who consume the products and services of EMR Southern Recycling - New Orleans (Scrap Yards) near to the state of Louisiana. Currently this firm receives a score of 2.6 stars out of 5 and that score is based on 7 reviews. Don't consume before you get all opinions!,,container
Amite Metal Recycling,(985) 247-2919,help@mapquest.com,https://www.mapquest.com/us/louisiana/amite-metal-recycling-555273026,,,,United States,"Get more information for Amite Metal Recycling in Amite, LA. See reviews, map, get the address, and find directions.",iron,"container, processing"
Beaufort Metal Recycling,3085852732,,https://www.recyclingmonster.com/recycling-center/beaufort-metal-recycling/60629,,,,United States,"Beaufort Metal Recycling, Recycling Center at 130 Laurel Bay Rd, Beaufort, South Carolina, United States - Open hours, accepting materials, scrap prices, phone number and location address","copper, aluminum, steel, wire",container
"Recycling Centers inBaton Rouge,Louisiana",373-9893979,,https://recyclefind.com/listings/state/la/baton-rouge,,,,United States,"Find 10 recycling centers in Baton Rouge, Louisiana | Average rating: 4.5★ | Most accept: Cardboard, Plastics #1&2, Transfer Station – Complete director...","copper, aluminum, iron, brass, battery, wire","pickup, container, demolition, processing"
Welcome to T & T Recycling,4445535400,,http://tandtrecycling.com/,,,,United States,"


Welcome to T and T Recycling of Southern Illinois * Metal Recycling * Recycle your Scrap Metal * Southern IL * Hurst IL * Benton IL








home
about us
metals
roll offs / trailers
contact us















What kind of metals we buy
Click here to browse our list of ferrous and and non-ferrous m","steel, iron",container
Louisiana Scrap Metal Buyers,713-471-3687,miles@republicalloys.com,https://republicalloys.com/areas-served/louisiana-scrap-metal-buyers/,,,,United States,"When you need to know where to sell scrap metal in Louisiana, call Republic Alloys 713-471-3687. Our Louisiana scrap metal buyers pick up from you and put cash in your pockets.","copper, steel, iron, brass","container, processing"
"Scrap Metal Prices in Louisiana, United States",0349095502,info@scrapmonster.com,https://www.scrapmonster.com/scrap-yards/prices/louisiana/state/3383,,,,United States,"Scrap Prices in Louisiana. United States Scrap Metal Prices,Copper Scrap Price, Bronze Scrap, Aluminum Prices. Scrap Yards in Louisiana","copper, aluminum, steel, iron, brass","pickup, container"
Scrap Metal Laws By State,4242228080,sales@logicnine.com,https://nexusrecycle.com/scrap-metal-laws-by-state.php?state=LA&name=Louisiana,"Business Address: 19197 Golden Valley Rd #333 , Santa Clarita , California , 91350 , USA Office: 424-222-8080 Email: sales@logicnine.com","Business Address: 19197 Golden Valley Rd #333 , Santa Clarita , California , 91350",US,United States,Nexus can help you learn about the Louisiana Scrap Metal Laws with important information to know as a scrap yard purchasing metals in the state.,"copper, aluminum, iron, wire",container
Metal Recycling,(508) 668-8699,Info@arcscrap.com,https://arcscrap.com/,,,,United States,"Allied Recycling Center buys scrap metal for the best prices in Southeastern Massachusetts, offers junk vehicle pickups, rents roll-off dumpsters, & more! Contact us for scrap metal prices!","copper, aluminum, iron, brass, wire","pickup, container, demolition"
Contact Us,(508) 668-8699,Info@arcscrap.com,https://arcscrap.com/contact-us/,,,,United States,"Contact our team of experts in Walpole, MA for your scrap metal & recycling questions, quotes, & more.",copper,"container, processing"
Scrap Metal Recycling Center,4110341396,,http://scrapmetalrecyclingcenter.com/scrap-metal-in-connecticut-buyers-suppliers-disposal-recycling-and-waste-management/,,,,United States,Scrap Metal in Connecticut – How Is Metallic Waste Managed ? Scrap Disposal Scrap metal that is generated in the United States in general and Connecticut in,"copper, aluminum, steel, iron","container, processing"
Scrap Away Metal Recycling,(289) 674-3323,,https://locallistings123.com/location/scrap-away-metal-recycling/,,,,United States,"



Scrap Away Metal Recycling – Local Listings 123



































 Skip to main content
Skip to footer
HomeLocationsAboutAbout UsContact UsLOCAL LISTINGS 123Scrap Away Metal RecyclingHome/Recycling center/Scrap Away Metal RecyclingAt Scrap Away Metal Recycling, we make it easy t","copper, aluminum, steel, iron, cable","pickup, container"
Junk Scrap Yards in Maine,7303359673,garysautosalvage@yahoo.com,https://junkscrapyard.com/state-province/maine/,,,,United States,Junk Scrap Yards in Maine,,"container, demolition"
Junk Scrap Yards in Portland,7303359673,parts@oregonautowrecking.com,https://junkscrapyard.com/location/portland/,,,,United States,Junk Scrap Yards in Portland,"aluminum, iron","pickup, container, demolition, processing"
AIM Recycling,207-947-3710,,https://iscrapapp.com/yards/us-maine-bangor-aim-recycling/,,,,United States,"AIM Recycling, Scrap Metal Yard in Bangor, Maine","copper, aluminum, steel, iron, brass, battery, wire, cable","pickup, container"
AIM Recycling,207-465-2212,,https://iscrapapp.com/yards/us-maine-oakland-aim-recycling/,,,,United States,"AIM Recycling, Scrap Metal Yard in Oakland, Maine","copper, aluminum, steel, iron, brass, battery, wire, cable","pickup, container"
Maine Scrap Metal Prices,1752932089,contact@metalprofy.com,https://metalprofy.com/scrap-metal-prices/maine-scrap-metal-prices/,,,,United States,Find Out the Current Scrap Metal Prices in Maine. Learn How to Get the Best Price for Your Metal and Where to Sell It.,"copper, aluminum, steel, iron, brass, wire, cable","container, demolition, processing"
Kennebec Metal Recycling,2545352419,kennebecmetalrecycling@gmail.com,https://www.kennebecmetals.com/,,,,United States,"

























































HOME | Kennebecmetalrecycli





















top of page



HOMEPricesHoursSee moreCatalytic ConvertersTipsContactAboutCareersMore...Use tab to navigate through the menu items.Kennebec Metal Recycling




ANNOUNCEMENTS:about.AboutLocated ",iron,container
Metal Recycling and Junk Vehicle Hauling,(207) 948-2723,danddmetalrecycling@gmail.com,https://www.danddmetalrecyclingme.com/,,,,United States,"Daddy & Daughters Metal Recycling, Maine Licensed Recycler and Certified Scale recycling Precious Metals, Catalytic Converters, and Junk Cars. Junk-Car Transport. Troy, Maine.","copper, aluminum, brass, wire","pickup, container"
Maine Scrap Metals,(207) 848-5050,thebuyer@mainescrapmetals.com,https://m.mainescrapmetals.com/,,,,United States,"





Maine Scrap Metals





































                                      +12078485050
                                












Bahasa Indonesia
English








Download vCard


Print


 







                    Description                



                    Gall",steel,"pickup, container"
MaineScrapMetals,(207-433-7851,Thebuyer@MaineScrapMetals.com,http://mainescrapmetals.com/,,,,United States,Bangor's newest recycling center only one mile off I-95 in Bangor (207-433-7851) Maine Scrap Metals is dedicated to becoming one of the top companies in the steel recycling industry in this area.,"copper, steel","pickup, container"
Home - Corey Recycling - Metal Recyling - Junk vehicle hauling,207-825-3595,mcoreyrecycling@gmail.com,https://coreyrecycling.net/,,,,United States,"Remove clutter for cash with metal recycling, junk vehicle hauling, abandoned vehicle pick-up, and junk car services. For over 15 years in Orrington Maine.",,container
"Scrap Metal Prices in Maine, United States",0349095502,info@scrapmonster.com,https://www.scrapmonster.com/scrap-yards/prices/maine/state/3384,,,,United States,"Scrap Prices in Maine. United States Scrap Metal Prices,Copper Scrap Price, Bronze Scrap, Aluminum Prices. Scrap Yards in Maine","copper, aluminum, steel, iron, brass, wire","pickup, container"
B&S Scrap Recycling - Home,763918-2378,,https://www.bsscrap.com/,,,,United States,B&amp;amp;S Scrap Recycling is a metal scrap recycling company and metal dealer that services customers in Maine.,"copper, aluminum, brass","container, weighing"
A Trusted Recycling Source for a Century,1752069963,info@reliablerecyclingcenter.com,https://www.reliablerecyclingcenter.com/,,,,United States,"At Reliable Recycling Center, we accept most ferrous and non-ferrous metals, clean cardboard, computer parts, and most electronics. We also offer roll-off and pickup services, making recycling even easier. Call us today to check our prices!","copper, aluminum, steel, iron, brass, wire, cable","pickup, container"
Maryland Recycle | Glen Burnie | Golden Ring | Elkridge | Forest Hill,1626268821,,https://www.marylandrecycle.com/,,,,United States,410-760-9088 - Top cash for scrap. Serving the Baltimore Area since 1979. Locally owned. Scrap metal. Copper recycling. Brass recycling. Aluminum recycling. Steel scrap.,"copper, aluminum, steel, iron, brass, wire","container, processing"
"Money for Recycling | Hagerstown, MD | Maryland Metals Inc.",1643630777,your@email.com,https://www.marylandmetalsinc.com/,,,,United States,"Want to recycle scrap metal? Maryland Metals Inc. pays top market prices in Hagerstown, MD. Call us today at (301)739-5525!",steel,"container, processing"
Get Top Dollar For Your Recyclable Scrap MetalsAsk about our Pick up Services,6660476944,rich.midatlanticrecycling@comcast.net,https://www.midatlanticrecyclecenter.com/,,,,United States,410-268-2274 - FREE consultations. FREE parking. Scrap metal trade-ins. Copper scrap metal recycling. Nonferrous metal scrap purchase.,"copper, aluminum, steel, brass, wire",container
"Scrap Metal, Metal Recycling Elkton MD",6666666666,elktonrecycling@yahoo.com,https://www.elktonrecycling.com/,,,,United States,"








Scrap Metal, Metal Recycling Elkton MD


































Skip to content




Toggle NavigationHOMEABOUTMETAL RECYCLING SERVICESUNACCEPTABLE ITEMSJUNK CARSSECURE DESTRUCTIONCONTACT US
 
 






#1 METAL RECYCLER INCECIL COUNTY 
										16 YEARS IN A ROW! 
										
 





","copper, steel, iron, brass, wire","container, demolition"
Maryland,1747741523,,https://iscrapapp.com/yards-in/maryland/,,,,United States,"Find the closest scrap yards and salvage yards in Maryland on the iScrap App. You can see current scrap prices,","copper, aluminum, steel, iron, brass, battery, wire, cable",container
"Baltimore Scrap Yards, MD",1747741523,,https://iscrapapp.com/scrap-yards/baltimore-md/,,,,United States,"Locate Baltimore scrap yards or junk yards in minutes with the iScrap App. You can see their contact information, like phone number, email address, and even their scrap metal prices.","copper, aluminum, steel, iron, brass, battery, wire, cable",container
Potomac Metals-WaldorfPREMIUM YARD,240-222-4001,eric@potomacmetals.com,https://iscrapapp.com/yards/us-maryland-waldorf-potomac-metals-waldorf/,,,,United States,"Potomac Metals-Waldorf, Scrap Metal Yard in Waldorf, Maryland","copper, aluminum, steel, iron, brass, battery, wire, cable","pickup, container"
Maryland,1747741523,,https://iscrapapp.com/scrap-laws/maryland/,,,,United States,"We can provide you with the Maryland Scrap Metal Laws on the iScrap App Website, along with any regulations you should know about when scrapping.","copper, aluminum, steel, iron, brass, battery, wire, cable",container
Junk Scrap Yards in Maryland,7303359673,PARTSMART@AOL.COM,https://junkscrapyard.com/state-province/maryland/,,,,United States,Junk Scrap Yards in Maryland,"aluminum, steel, iron","pickup, container, demolition"
Service Areas,6315779903,info@reliablerecyclingcenter.com,https://www.reliablerecyclingcenter.com/about-us/service-areas/,,,,United States,"At Reliable Recycling, we pay cash for scrap metals, clean cardboard, copper, and most electronics, in Maryland. Call us today for prices!","copper, wire","pickup, container"
"Rockville, Maryland",8281242804,info@reliablerecyclingcenter.com,https://www.reliablerecyclingcenter.com/about-us/service-areas/rockville-maryland/,,,,United States,"Reliable Recycling has served Rockville, MD, for over a century. We accept most ferrous and non-ferrous metals, clean cardboard, and most electronics.","copper, aluminum, steel, iron, brass, wire","container, processing"
"Scrap Metal Recycling near Potomac, MD",1752069963,info@reliablerecyclingcenter.com,https://www.reliablerecyclingcenter.com/about-us/service-areas/scrap-metal-recycling-near-potomac-md/,,,,United States,"Reliable Recycling Center has been committed to Potomac, MD, for a century. We want to make the recycling process as simple as possible for our customers.","copper, aluminum, steel, iron, brass, wire","container, demolition, weighing"
Recycling Maryland | Recycling Maryland,410-255-9151,,http://www.recyclingmaryland.com/,,,,United States,"



Recycling Maryland | Recycling Maryland

























Facebook


Connect with us!



						410-255-9151
					
|

						7946 Fort Smallwood Road
						Baltimore, MD 21226
					





Map It
Going Green!
Pasadena Recycling Center


















Services


Computer Recycling
Metal Recy",iron,demolition
"Money for Recycling | Hagerstown, MD | Maryland Metals Inc.",1643630777,your@email.com,https://www.marylandmetalsinc.com/blank-page,,,,United States,"Want to recycle scrap metal? Maryland Metals Inc. pays top market prices in Hagerstown, MD. Call us today at (301)739-5525!","copper, aluminum, steel, iron, brass, wire",container
"Sustainable Scrap Metal Recycling in Severn, Maryland",(410) 799-9470,,https://www.interamaterials.com/scrap-metal-recycling-severn-maryland/,,,,United States,"Intera Materials is a recycling center that buys scrap metal located just minutes from Severn, Maryland.","copper, aluminum, steel, iron, brass","container, processing, sorting"
Scrap Metal Recycling Services in the Greater Boston Area,42475,info@ssironmetal.com,https://ssironmetal.com/,,,,United States,"Second Street Iron & Metal, located at 285 Second St. in Everett, MA, purchases scrap metal & offers roll-off dumpster rentals in the Greater Boston area!","iron, battery","container, demolition"
Metal Recycling Services for Companies and Individuals,1752932188,info@middlebororecycling.com,https://www.middlebororecycling.com/,,,,United States,"Middleboro Recycling buys scrap metal, rents roll-off dumpsters, & offers junk vehicle pickup services throughout Southeastern Massachusetts! Contact us for prices!","copper, aluminum, steel, iron, brass","pickup, container"
SCRAP METAL,1647462422,info@spiegelscrapmetal.com,https://www.spiegelscrapmetal.com/,,,,United States,"




Spiegel Scrap Metal Inc – Brockton, MA – Scrap Metal Recycling

















































































 























  
















Home
About Us
Services
Pricing
What We Buy
Careers
Middleboro Recycling
 






















    		Searc",,container
Massachusetts Scrap Metal Buyers & Recycling Centers,(978) 433-2503,,https://scrapvisor.com/massachusetts/,,,,United States,"Find trusted scrap metal buyers and recycling centers in Massachusetts. View up-to-date scrap metal prices, explore our interactive map of local scrap yards, and connect with reputable companies for fast and profitable scrap sales.","copper, aluminum, steel, iron, brass, wire, cable","pickup, container, demolition"
"Excel Recycling, LLC – New England-Wide Scrap Metal Recycling Services",1752629640,,https://excelscrapmetalrecycling.com/,,,,United States,"




Excel Recycling, LLC – New England-Wide Scrap Metal Recycling Services



























































Skip to content








Call For Best Pricing: 508-301-9600 












 













New England-wide Scrap Metal Recycling Services 



Two Convenient Drop-Off L","copper, aluminum, steel, iron, brass, wire","container, demolition, processing"
,1739998335,,https://midcityscrap.com/,,,,United States,"Mid City Scrap has been a trusted name in scrap metal recycling for years, proudly serving our community with honest weights and fair prices.","copper, aluminum, steel, iron, brass, wire","pickup, container, demolition, processing, sorting"
"Excel Recycling,LLC",508.636.2780,wedwards@excelrecycle.com,https://excelrecycle.com/,,,,United States,"Excel Recycling of Fall River, has 2 locations and services MA, RI, and CT. We buy scrap materials, wire, metal, auto salvage, etc call us at 508.636.2780.","iron, wire","container, demolition, processing"
"Scrap Metal Recycler in Detroit, MI",3133666311,sikorametals@hotmail.com,https://www.sikorametals.com/,,,,United States,"Detroit #1 Scrap Yard We pay Top Dollar for scrap metal, ferrous and nonferrous metals. Established, independent, privately-held scrap metal recycler.","copper, aluminum, steel, iron, brass","pickup, container, demolition"
Scrap Yard Plymouth Michigan,1718977040,,https://www.haggertymetal.com/,,,,United States,"Scrap Yard Plymouth MI is our specialty at Haggerty Metal Company. Some of the metals we recycle include copper, aluminum, steel, and tungsten carbide. We have been Plymouth's #1 scrap yard since 1985. Call today for additional information!","copper, aluminum, steel, iron, brass, wire","pickup, container"
CASH FOR SCRAP,1733254604,questions@scrapdogrecycling.com,https://scrapdogrecycling.com/,,,,United States,"








Home - Scrap Dog Recycling & Salvage











































ABOUT US
COMMERCIAL & INDUSTRIAL
CONSUMER & PUBLIC
JUNK CARS & VEHICLES
WHAT CAN YOU RECYCLE

Aluminum
Appliances
Backyard
Brass
Computers & Electronics
Cords & Wires
Copper
Demolition
Garage & Basement
Heating ","copper, aluminum, brass, wire","container, demolition"
Michigan Recycling Directory,1533409035,KaranaA@michigan.gov,https://www.michigan.gov/egle/about/organization/materials-management/recycling/michigan-recycling-directory,,,,United States,"



Michigan Recycling Directory









































Skip to main content














EGLE









Department of Environment, Great Lakes, and Energy








 



 








                                            About
                                            
About ",iron,container
Menu,(866) 337-7687,,https://www.fptscrap.com/,,,,United States,"














































































Call Toll Free:

1-866-FERROUS


















Menu



Home
About

News
Mission, Vision and Core Values
Company History
Financial Strength
Meet the Staff
Cleveland Cliffs
Strategic Alliances


Metal Recycling

Purchasin","steel, iron","container, processing"
879 ads Cars Wanted,1416928546,,https://www.gumtree.com/p/cars-wanted/-free-scrap-metal-collection-/1479539973,,,,United States,"Looking to sell your car? Cars wanted ✅ Shop hassle-free with Gumtree, your local buying &amp; selling community.","iron, battery",container
TikTok - Make Your Day,7528786509,example@example.com,https://www.tiktok.com/discover/collecting-scrap-metal-megaphone,,,,United States,"



TikTok - Make Your Day












",,container
Fleming Metal Recycling Newry Scrap Metal Yard,1752427994,info@fmr-online.com,https://recyclingcentrenear.me/listing/fleming-metal-recycling-newry-scrap-metal-yard/,,,,United States,"Fleming Metal Recycling Newry Scrap Metal Yard is located at 21 Lissummon Road, Newry BT35 6NA. Fleming Metal offers competitive..",battery,"container, processing"
"Towing, Auto Parts, Metal Recycling & Cash for Cars",317-247-8484,,https://www.zoresindy.com/blog/tag/indianapolis-scrap-metal-recycling-center/,,,,United States,"





Indianapolis scrap metal recycling center | Towing, Auto Parts, Metal Recycling & Cash for Cars	




















Skip to primary contentSkip to secondary content


Towing, Auto Parts, Metal Recycling & Cash for Cars



 

Search




Main menu
Blog Home Page
Visit our Website
 






					T","copper, aluminum, steel, iron, brass, battery",container
Anderson Recycling Proudly Serves Mille lacs County,(320) 216-5443,dispatch@andersonrecycling.com,https://andersonrecycling.com/mille-lacs-county,,,,United States,"Anderson Recycling, a leading scrap metal recycler and buyer in Sandstone, MN, ensures a quick and hassle-free junk metal collection service. Scrap metal yard near me in Pine County.","copper, aluminum, steel, iron, brass, wire","pickup, container, weighing"
Drive Thru Scrap Metal Recycling,(07) 3892 2033,info@tallingots.com.au,https://www.tallingots.com.au/services/drive-through-scrap-metal-recycling/,,,,United States,Enjoy the convenience of our drive-through scrap metal recycling service. Fast and easy collection for safe disposal. Contact us for a hassle-free experience!,"copper, steel, iron","pickup, container"
We Recycle Scrap Metal,651-454-9215,recycle@jrsadvancedrecyclers.com,https://jrsadvancedrecyclers.com/,,,,United States,We Recycle Scrap Metal,,container
"Miller Recycling, LLC 
 651-425-0527",651-425-0527,contact@sansoxygen.com,https://millerrecyclingllc.com/,,,,United States,"Miller Recycling, LLC offers conveniently located scrap yard near you. Learn more about our recycling and scrap metal recycling solutions today.","copper, aluminum, steel, iron, brass, wire","container, demolition"
Metal Recycling,3333333333,,https://dem-con.com/residential/metal-recycling/,,,,United States,Get cash for your scrap metal. Find out how easy it is to turn your leftover and scrap metal into cash at our Blaine and Shakopee locations.,"copper, aluminum, steel, brass, wire",container
Miller Scrap & Disposal,(507) 452-2067,info@millerscrap.com,https://www.millerscrap.com/,,,,United States,Miller Scrap are scrap metal buyers. We buy scrap metal in Minnesota & the US. We provide a market for scrap metal and recycle scrap metal containing products.,"copper, aluminum, steel, iron, battery, wire","pickup, container, demolition"
100 Years of Scrap Metal Recycling Service in Minnesota,6127216244,,https://www.lederbros.com/scrap-metal-recycling-company,,,,United States,"Leder Brothers is the leading Minnesota scrap metal recycling company located in Minneapolis. We pay best prices for scrap metal in Minneapolis St Paul, MN.","copper, aluminum, steel, iron, brass","container, demolition, processing"
Minnesota Scrap Metal Sellers Are Our Highest Priority,6127216244,,https://www.lederbros.com/scrap-metal-sellers,,,,United States,"Minnesota scrap yard pays competitive prices to scrap metal sellers in Minneapolis St Paul, including scrap haulers, manufacturers and demolition scrap sellers.","copper, aluminum, steel, iron, brass","pickup, container, demolition, sorting"
Leading Minnesota Scrap Metal Buyer – Minneapolis St. Paul,6127216244,,https://www.lederbros.com/scrap-metal-buyer,,,,United States,"Minnesota leading scrap metal buyer purchases all metals at competitive prices and market rates in Minneapolis St Paul. We buy iron, steel, aluminum and copper.","copper, aluminum, steel, iron, brass","container, demolition, processing"
Scrap Metal Recycling for Minnesota Government and Non-Profits,6127216244,,https://www.lederbros.com/recycling-services,,,,United States,"Minnesota scrap metal yard recycles metal waste for government agencies in Minneapolis St Paul. We pay best prices for aluminum, iron, steel, copper, brass.","copper, aluminum, steel, iron, brass","container, demolition, processing, sorting"
"Industrial Scrap Metal Recycling Services – Minneapolis St. Paul, MN",6127216244,,https://www.lederbros.com/industrial-recycling,,,,United States,"Minnesota scrap metal company buys and recycles industrial scrap metal including aluminum, steel, iron, copper and precious metals in Minneapolis St Paul.","copper, aluminum, steel, iron, brass, wire, cable","container, demolition, processing, weighing"
Prime Recycling Solutions,2545352419,605a7baede844d278b89dc95ae0a9123@sentry-next.wixpress.com,https://www.smcrecycling.net/,,,,United States,"



















































Home



















top of page




SMC RECYCLINGCompanySolutionsMaterial HandlingPick UpDrop OffWaste ContainersPorta JohnsLocationsEquipmentCareersMoreUse tab to navigate through the menu items.Contact UsPrime Recycling SolutionsWe are SMC Re","steel, iron","container, processing"
,0000000016,,https://www.mdeq.ms.gov/wp-content/uploads/2004/07/NEWMississippi-Recycling-Directory.pdf,,,,United States,"%PDF-1.3%����
59 0 obj<< /Linearized 1 /O 61 /H [ 1060 263 ] /L 133912 /E 58915 /N 18 /T 132614 >> endobj                                                       xref59 31 0000000016 00000 n
0000000967 00000 n
0000001323 00000 n
0000001531 00000 n
0000001678 00000 n
0000002127 0000",,
"Commercial Scrap Metal Recycling Center in Mobile, AL",(251) 470-0765,,https://www.asmrecycling.com/contact-us/,,,,United States,"A recycling center should serve the customer, creating ease and no charge to haul materials. Contact ASM Recycling to ensure quality, dependable pick-up.","aluminum, iron, wire","pickup, container"
Scrap Metal Recycling Companies in Mississippi,0349095502,info@scrapmonster.com,https://www.scrapmonster.com/companies/scrap-metal-recycling/region/united-states/mississippi/397,,,,United States,"Scrap Metal Recycling Companies, Buyers, Suppliers in Mississippi Region,United States. Mississippi Region Traders Directory","copper, aluminum, steel, iron, brass, battery","pickup, container, demolition"
Junk Scrap Yards in Mississippi,7303359673,nemati_a@bellsouth.net,https://junkscrapyard.com/state-province/mississippi/,,,,United States,Junk Scrap Yards in Mississippi,"steel, iron, cable","pickup, container, demolition, processing"
Junk Scrap Yards in Pearl,7303359673,nemati_a@bellsouth.net,https://junkscrapyard.com/location/pearl/,,,,United States,Junk Scrap Yards in Pearl,,"container, demolition"
Johnson’s Wrecking Yard Inc.,7303359673,slickypickle@hotmail.com,https://junkscrapyard.com/arkansas/johnsons-wrecking-yard-inc/,"712 South Washington Magnolia , AR 71753",712 South Washington Magnolia,AR,United States,"Johnson's Wrecking Yard Inc. - Junk Scrap Yards in Magnolia, Arkansas.",,"container, demolition"
Junk Scrap Yards in Mobile,7303359673,sixstarwrecking@hotmail.com,https://junkscrapyard.com/location/mobile/,,,,United States,Junk Scrap Yards in Mobile,aluminum,"container, demolition"
Metal Processors,601-969-2871,,https://iscrapapp.com/yards/us-mississippi-jackson-metal-processors/,,,,United States,"Metal Processors, Scrap Metal Yard in Jackson, Mississippi","copper, aluminum, steel, iron, brass, battery, wire, cable","pickup, container"
"USA (Neshoba, Mississippi) - Metal Recycling Services - Deadline January 3,2022, Recycling Services RFP USA , Recycling Services RFP Mississippi",5390208494,,https://www.rfpmart.com/305157-usa-neshoba-mississippi-metal-recycling-services-rfp.html,,,,United States,"





USA (Neshoba, Mississippi) - Metal Recycling Services - Deadline January 3,2022, Recycling Services RFP USA , Recycling Services RFP Mississippi










































































Home 
User Login & Register 
About RFPMart LLC
RFP Categories 
RFP Location",,container
Tri-Miss Services Inc.,0349095502,info@scrapmonster.com,https://www.scrapmonster.com/company/tri-miss-services-inc/20215,,,,United States,"Tri-Miss Services Inc.. Scrap Metal Recycling Company in United States,Mississippi,Laurel, 24 Ross Johnson Rd.  39443. Waste Recycling Company","copper, aluminum, steel, iron, brass, battery, wire","pickup, container, demolition"
Atlantic Metal Recycling,(781) 294-1900,tracey3994@comcast.net,https://www.recyclingmonster.com/recycling-center/atlantic-metal-recycling/56519,,,,United States,"Atlantic Metal Recycling, Recycling Center at 1282 Main St, Hanson, Massachusetts, United States - Open hours, accepting materials, scrap prices, phone number and location address","copper, aluminum, steel, wire",container
Scrap Metal Recycling Terre Haute IN,1752359050,,https://www.addlocal.us/detail/257564/scrap-metal-recycling-terre-haute-in.html,,,,United States,"









Scrap Metal Recycling Terre Haute IN




































































Business
Lawyers
Categories

Healthcare
Real Estate Services
Automotive
Lawyers And Law Firms
Dental


Services
Contact
Search Businesses












FollowFollowFollowFollow



 





",iron,"container, processing"
Scrap Metal,3348607322,secretary@sos.ms.gov,https://www.sos.ms.gov/regulation-enforcement/scrap-metal,,,,United States,"












Scrap Metal | Michael Watson Secretary of state





































      Skip to main content
    



























Search












Top Header Menu






Y’all Business


Y'all Vote


About us


About us


Welcome


About Michael


Executive


History


Ne",,container
Garbage Collection/Limbs and Yard Waste,601-856-7113,,https://www.madison-co.com/county-departments/solid-waste-recycling,,,,United States,"Madison County contracts its household garbage collection and recycling services through Waste Management, Inc. This includes any area in Madison County that is NOT within a municipality except the city of Gluckstadt. If you live within a city or town, you should contact their City Hall for informat",,"pickup, container"
Scrap Metal Fee Schedule,3348607322,secretary@sos.ms.gov,https://www.sos.ms.gov/index.php/regulation-enforcement/scrap-metal-fee-schedule,,,,United States,"












Scrap Metal Fee Schedule | Michael Watson Secretary of state





































      Skip to main content
    



























Search












Top Header Menu






Y’all Business


Y'all Vote


About us


About us


Welcome


About Michael


Executive

",,container
Mississippi Recycling Coalition Announces 2016 Environmental Heroes,000002-0000,,https://www.mdeq.ms.gov/mississippi-recycling-coalition-announces-2016-environmental-heroes/,,,,United States,"









Mississippi Recycling Coalition Announces 2016 Environmental Heroes – MDEQ








































 










About MDEQ
Air
Land
Water
Geology
MDEQ News
Regulations
Restoration
Permits
enSearch
How Do I
Notice of Nondiscrimination
Clarity Privacy Statement
 













","copper, aluminum, iron","container, processing"
CALL US TODAY!(713) 799-9960,139-8856531,Info@holmesroadrecycling.com,https://www.holmesroadrecycling.com/missouri-city-metal-recycling/,,,,United States,"Holmes Road Recycling recycles a variety of scrap metals. We offer all types of scrap metal recycling for the Missouri City, TX residents. Call or come by today.","aluminum, steel, iron, brass","container, demolition"
CALL US TODAY!(713) 799-9960,139-8856531,Info@holmesroadrecycling.com,https://www.holmesroadrecycling.com/sugar-land-metal-recycling/,,,,United States,Holmes Road Recycling recycles a variety of scrap metals. We offer all types of scrap metal recycling for the Sugar Land TX residents. Call or come by today.,"aluminum, steel, iron, brass","container, demolition"
CALL US TODAY!(713) 799-9960,139-8856531,Info@holmesroadrecycling.com,https://www.holmesroadrecycling.com/woodlands-metal-recycling/,,,,United States,Holmes Road Recycling recycles a variety of scrap metals. We offer all types of scrap metal recycling for Woodlands TX residents. Call or come by today.,"copper, aluminum, steel, iron",container
CALL US TODAY!(713) 799-9960,139-8856531,Info@holmesroadrecycling.com,https://www.holmesroadrecycling.com/spring-metal-recycling/,,,,United States,Holmes Road Recycling recycles a variety of scrap metals. We offer all types of scrap metal recycling for Spring TX residents. Call or come by today.,"copper, aluminum, steel, iron",container
Scrap Mart MetalsCLOSED NOW,636-256-7400,lucas@scrapmartmetals.com,https://iscrapapp.com/yards/us-missouri-valley-park-scrap-mart-metals/,,,,United States,"Scrap Mart Metals, Scrap Metal Yard in Valley Park, Missouri","copper, aluminum, steel, iron, brass, battery, wire, cable","pickup, container, sorting, weighing"
IF ITS METAL WE BUY IT,1168408308,,https://www.scrapmartmetals.com/,,,,United States,"Scrap Mart Metals is one of the Midwest’s industry-leading processors of scrap metal and other secondary industrial commodities. As a long-established, direct-mill dealer of all ferrous and non-ferrous metals, Scrap Mart Metals can pay top dollar for your scrap iron, steel, aluminum, copper, and oth","copper, aluminum, steel, iron, brass, wire","pickup, container, demolition"
Mid-Missouri’s Leading Salvage Yard | Fusselman Salvage Co.,1714170297,,https://www.fusselmetals.com/,,,,United States,"Buy or sell scrap metal at our full-service recycling center serving Moberly, Mo and the surrounding areas. Contact today to learn more.","copper, aluminum, steel, brass, wire",container
Joplin,(417) 781-7560,myCMC-logo@2x.png,https://www.cmcrecycling.com/locations/joplin,"6565 N. MacArthur Blvd. Suite 800 Irving , TX 75039",6565 N. MacArthur Blvd. Suite 800 Irving,TX,United States,"





Joplin | CMC Recycling





















Skip to content











Locations

























 


Search



Submit Search




 

About Us


Sell Your Scrap


Individual / Commercial Recycling


Industrial Recycling


Scrap Metal Dealers




Why Recycle


Locations


Alabama



Alex","copper, aluminum, steel, iron, brass, wire, cable",container
Missouri Scrap Metal Buyers & Recycling Centers,(573) 438-2541,,https://scrapvisor.com/missouri/,,,,United States,"Find trusted scrap metal buyers and recycling centers in Missouri. View up-to-date scrap metal prices, explore our interactive map of local scrap yards, and connect with reputable companies for fast and profitable scrap sales.","copper, aluminum, steel, iron, brass, wire, cable","pickup, container, demolition, processing"
Merkel Metal Recycling and Roll Off Container Service,1573769230,,https://merkelrecycling.com/,,,,United States,"Merkel Metal Recycling offers reliable dumpster rental, scrap metal recycling, roll-off containers, and scrap removal services within a 50-mile radius of Palmyra, MO.",,"container, demolition, processing, sorting"
Scrap Metal  Importers,1363981929,eg.sample@xyz.com,https://importer.tradekey.com/scrap-metal-buyers-importer.html,,,,United States,"Scrap Metal  Importers - Instantly Connect with Verified Scrap Metal  Buyers & Scrap Metal  Importers from India, USA, Pakistan at TradeKey Importers Directory.","copper, steel, iron, brass",container
Missouri Scrap Metal Prices,8247298754,,https://www.scrapmartmetals.com/2021/02/22/missouri-scrap-metal-prices,,,,United States,"Do you live in the state of Missouri and have scrap metal to recycle? Lucky for you, at Scrap Mart Metals, we offer cash in exchange for your metal! Here’s how it works and what Missouri scrap metal prices are today. What We Buy These are the most common items we accept at Scrap Mart. […]
The post M","copper, aluminum, steel, iron, brass, battery, wire","pickup, container"
Scrap Metal Recycling & Processing Made Easy,1154714656,bret@cityscrapmetal.com,https://www.cityscrapmetal.com/,,,,United States,"City Scrap Metal Inc. is a scrap processing company. We take small and large lots of non-ferrous and ferrous metals. We then separate, clean, and package the material, making feedstock for primary and secondary metal mills in the United States and abroad. Please call us for more details! We have Rol","copper, aluminum, steel, iron, wire","container, processing"
Scrap Metal Recycling,1604949086,,https://www.fusselmetals.com/scrap-metal-recycling,,,,United States,"From aluminum and copper to auto batteries and farm equipment, Fusselman Salvage is the best choice for scrap metal recycling in Missouri. Learn more today.","copper, aluminum, steel, brass, wire",container
A & R Scrap Metal Recycling CompanyA Scrap Metal Buyer in Montana,2541746979,,https://www.armetalrecyclers.com/Montana.html,,,,United States,"A & R Recycling Company, Scrap Metal Buyer in Montana, Recycling Service, Scrap Buyer","copper, aluminum",
M & M Iron and Recycling,0349095502,info@scrapmonster.com,https://www.scrapmonster.com/company/m-m-iron-and-recycling/153055,,,,United States,"M & M Iron And Recycling. Scrap Metal Recycling Company in United States,Montana,Cut Bank , 405 E Railroad St  59427. Waste Recycling Company","copper, aluminum, steel, iron, brass","pickup, container"
Home - Modern Recycling,(406) 540-1122,,https://recyclingmt.com/,,,,United States,"Got junk? We’ll take it off your hands for free and pay you cash! We offer junk car removal across Montana and provide scrap metal recycling, container, and roll-off bin services for residential, commercial, and industrial clients.","copper, aluminum, steel, iron, brass, wire","pickup, container"
every day starts at sunrise,(701) 572-5493,605a7baede844d278b89dc95ae0a9123@sentry-next.wixpress.com,https://www.bordersteelandrecycling.com/,,,,United States,New Steel Sales and Metal Recycling,"steel, iron, wire",container
Scrap Metal Buyers in Fontana CA,(951) 733-6603,electricalsurplusbuyers@gmail.com,https://electricalsurplusbuyers.com/scrap-metal-buyers-in-fontana-ca/scrap-metal-buyers-in-fontana-ca/,,,,United States,Getting rid of excess electrical equipment & need 24/7 Scrap Metal Buyers in Fontana CA? Electrical Surplus Buyers (951) 733-6603.,"copper, steel, iron, wire","container, processing"
Current Scrap Metal Prices in Montana,8564832105,,https://scrapvisor.com/state/price-state-montana/,,,,United States,"Check the latest scrap metal prices in Montana 2025. Compare daily rates for steel, aluminum, copper, lead, brass, zinc, and more from trusted local scrap yards across the USA.","copper, aluminum, steel, iron, brass, wire, cable",container
Montana Scrap Metal Prices - USA,5247816020,,https://www.priceofscrapmetals.com/montana/,,,,United States,"Find the Latest Scrap Metal Prices in Montana today. Check the current scrap price for copper, steel, aluminum, brass, gold and other ferrous and non-ferrous materials.","copper, aluminum, steel, iron, brass, wire","container, processing"
"Scrap Metal Prices in Montana, United States",0349095502,info@scrapmonster.com,https://www.scrapmonster.com/scrap-yards/prices/montana/state/3391,,,,United States,"Scrap Prices in Montana. United States Scrap Metal Prices,Copper Scrap Price, Bronze Scrap, Aluminum Prices. Scrap Yards in Montana","copper, aluminum, steel, iron, brass","pickup, container"
Nebraska Scrap Metal Buyers & Recycling Centers,(308) 760-0509,,https://scrapvisor.com/nebraska/,,,,United States,"Find trusted scrap metal buyers and recycling centers in Nebraska. View up-to-date scrap metal prices, explore our interactive map of local scrap yards, and connect with reputable companies for fast and profitable scrap sales.","copper, aluminum, steel, iron, brass, wire, cable","pickup, container, demolition, processing"
scrap metals,8002495151,parts@andersenwrecking.com,http://andersenwrecking.com/scrap_metal.html,,,,United States,Andersen Wrecking Co. is proud to be one of the Midwest's leading scrap metal recycling centers offering the best recycling prices in Nebraska. Click to learn more.,"copper, aluminum, steel, iron, brass",container
"Recycling Scrap Metal | Lincoln, Nebraska",(402) 470-2510,,https://sadoff.com/scrap-metal-recycling-center-locations/lincoln-ne/,,,,United States,"Sadoff Iron & Metal is a buyer of ferrous, non-ferrous and electronic scrap metal. A recycling center is located at 4400 W Webster Street, Lincoln, NE 68524","steel, iron","pickup, container"
Nebraska,1747741523,,https://iscrapapp.com/yards-in/nebraska/,,,,United States,"Locate the scrap yards and salvage yards in Nebraska on the iScrap App in minutes. You can get access to current scrap prices, ask for containers for materials, and request auto parts for repairs.","copper, aluminum, steel, iron, brass, battery, wire, cable","pickup, container, processing"
Downtown Recycling,402-345-1692,,https://iscrapapp.com/yards/nebraska-omaha-downtown-recycling/,,,,United States,"Downtown Recycling, Scrap Metal Yard in Omaha, Nebraska","copper, aluminum, steel, iron, brass, battery, wire, cable","pickup, container"
Nebraska,1747741523,,https://iscrapapp.com/scrap-laws/nebraska/,,,,United States,Get the latest Nebraska Scrap Metal Laws on the iScrap App with regulations and expectations before you bring your scrap into your yard.,"copper, aluminum, steel, iron, brass, battery, wire, cable",container
"Omaha Scrap Yards, NE",1747741523,,https://iscrapapp.com/scrap-yards/omaha-ne/,,,,United States,"Don't worry looking for scrap metal yards. Find the closest Omaha Scrap Yards within minutes on the iScrap App. You will be able to find scrap metal prices, contact information, directions and more.","copper, aluminum, steel, iron, brass, battery, wire, cable","pickup, container, demolition"
Wyoming,1747741523,,https://iscrapapp.com/yards-in/wyoming/,,,,United States,Get information from the scrap yards and salvage yards in Wyoming on the iScrap App including current scrap prices. You can also request containers for larger scrap metal jobs and auto parts for repair.,"copper, aluminum, steel, iron, brass, battery, wire, cable","pickup, container"
"Capital City Metal Recycling - Lincoln, Nebraska (NE) @ ProcessRegister.com",(402) 465-5555,,https://www.processregister.com/Capital_City_Metal_Recycling/Supplier/sid261529.htm,,,,United States,"

Capital City Metal Recycling - Lincoln, Nebraska (NE) @ ProcessRegister.com
















Skype







Capital City Metal Recycling

Click Here To EMAIL INQUIRY
Contact: Marty Fortney - Owner
Web: http://www.capitalcitymetalrecycling.com
E-Mail: 

capitalcitymetalgmailcom
Address: 2120 Cornhusk","copper, aluminum, steel, iron, brass, wire","container, processing"
"Top 20 Best Recycling Centers in Nebraska, United States",(402) 645-8066,,https://www.recyclingmonster.com/recycling/united-states/nebraska/3392,,,,United States,"TOP 20 BEST Recycling Centers in Nebraska, United States - Updated 2025 - RecyclingMonster - Watts Salvage, Midwest Auto used parts, Gubbels Salvage, Abe's Trash Service, Star City Recycling, H&H Boothill, United Auto Recyclers, Stapleton Salvage, Larrys Auto Recycling, Mclean Auto Salvage and Sales","copper, aluminum, steel, iron, brass, battery",container
Commercial Recycling,1671737217,,https://www.norfolkwasteconnections.com/services/commercial/commercial-recycling,,,,United States,"Champion a greener future with advanced commercial recycling services from Waste Connections of Nebraska, tailored for businesses.","aluminum, steel, iron","pickup, container, demolition, processing, sorting"
Capital City Metal Recycling,6362641567,,http://www.shopinlincoln.com/Capital-City-Metal-Recycling/675219.htm,"Address: 2120 Cornhusker Hwy Lincoln , Nebraska 68521",,,United States,"

	Capital City Metal Recycling in Lincoln, Nebraska 68521 - shopinlincoln.com



































Can't find it?Try another city!





List Your Lincoln Business
Update Your Listing
Why Advertise With Us


Testimonials


You're here:  
                            
Lincoln
> Enviro",iron,
Nebraska Scrap Metal Prices - USA,5247816020,,https://www.priceofscrapmetals.com/nebraska/,,,,United States,"Find the Latest Scrap Metal Prices in Nebraska today. Check the current scrap price for copper, steel, aluminum, brass, gold and other ferrous and non-ferrous materials.","copper, aluminum, steel, iron, brass, wire",container
All Metals Market Inc. - Home,1522174974,,https://www.allmetalsmarket.com/,,,,United States,"All Metals Market Inc. is a three generation family owned&amp;#x2F;operated Scrap Metal Recycling facility in Fremont, Nebraska with commercial and industrial roll off containers.","steel, iron",container
,4023936620,office@scrapcentralrecycling.com,http://www.scrapcentralrecycling.com/index.html,,,,United States,"















Scrap Central


































 




				About 

 

Why Scrap Central
Who We Are
Join Our Team
Community Involvement




				Services 

 

Industrial Wire Processing
Commercial Scrap
Manufacturing Scrap
Electronic Recycling
Container Services
What We Recycle



Reque",wire,"container, processing"
HOME | Nevada Recycling,2545352419,605a7baede844d278b89dc95ae0a9123@sentry-next.wixpress.com,https://www.nevadarecycling.com/,,,,United States,"The Benefits of recycling are numerous. Recycling and reusing materials saves energy, conserves natural resources, prevents pollution and reduces the volume of discards that are thrown into our landfills. Nevada Recycling is here for all of your business recycling needs. ","steel, iron",container
(775) 461-1280,(775) 461-1280,,http://www.recyclingnevada.com/,,,,United States,"Universal Service Recycling Provides Scrap Metal Recycling Services Throughout the Carson City, NV Area.","copper, aluminum, steel, brass, wire",container
WESTERN METALS RECYCLING,1752909374,,https://wmrecycling.com/,,,,United States,"




Western Metals Recycling – WMR








































Sell Your Scrap

Scrap Metal
Industrial Scrap
Junk Car
MyScrapInfo


Locations

Denver, CO
Grand Junction, CO
Plymouth, UT
Provo, UT
Salt Lake City, UT
Sparks, NV


Careers
About WMR

Safety
Environment
Community
Fast Facts
","copper, aluminum, steel, iron, brass, wire","container, demolition"
Recycling Nevada - C&S Waste Solutions,1747939701,,https://candswaste.com/recycling-nevada/,,,,United States,"








Recycling Nevada - C&S Waste Solutions


















































































































Choose a location below
 


Home
About

Mission
History
Team
Sustainability
Careers


Services

Residential
Commercial
Recycling
Green Was","copper, steel, iron, brass",container
Where Can I Recycle & Take My Waste?,702-979-1280,NEVADARECYCLES-SUBSCRIBE-REQUEST@LISTSERV.STATE.NV.US,https://ndep.nv.gov/nevada-recycles/recycle/where-can-i-recycle,,,,United States,"Striving to preserve and enhance the environment of the state in order to protect public health, sustain healthy ecosystems, & contribute to a vibrant economy.","copper, aluminum, steel, iron, brass, battery","pickup, container, demolition"
Nevada Scrap Metal Buyers & Recycling Centers,(775) 200-0369,,https://scrapvisor.com/nevada/,,,,United States,"Find trusted scrap metal buyers and recycling centers in Nevada. View up-to-date scrap metal prices, explore our interactive map of local scrap yards, and connect with reputable companies for fast and profitable scrap sales.","copper, aluminum, steel, iron, brass, wire, cable","pickup, container, demolition"
"Reliable Metal Recycling 
in Claremont, NH",1752356959,,https://americanrecyclingnh.com/,,,,United States,"








Home - American Recycling



















































































Skip to content







 







Home
Services
 

 

Home
Services
 








 
Contact Us







(603) 542-8755 














Industrial Scrap Metal Recycling and Removal 



Reliabl","copper, aluminum, iron, wire","pickup, container, demolition, processing"
"North Country Recycling: Tamworth, New Hampshire: Scrap Metal Yard",1409407031,,https://www.northcountryrecyclingllc.com/,,,,United States,"For all your scrap metal and recycling needs, come to North Country Recycling in Tamworth, New Hampshire today.","copper, aluminum, steel, iron, brass",container
MAC Metals,42475,,https://macconstructionnh.com/mac-metals,,,,United States,"MAC Metals scrap yard is dedicated to improving the environment by helping to reuse, reduce, & recycle used metals locally. ","copper, aluminum, steel, iron, brass, wire, cable","container, demolition"
Scrap Metals Inc - Home,603.396.6282,,http://www.scrapmetalsinc.net/,,,,United States,"








Scrap Metals Inc - Home









Business Hours
Mon-Thurs: 8:00 am to 4:30 pm Friday : 8:00 am to 4:00 pm
Saturday : 8:00 am to  12pmSunday : Closed
Tel.603.396.6282
128 East Glenwood St., Nashua, NH 03060
Get Directions



HomeAboutServicesProductsInventory For SaleAluminumAutomotiveElectr","aluminum, steel",container
,1752932451,,https://www.manchestermetalsrecycling.com/,,,,United States,"

 
",,
New Hampshire Scrap Metal Buyers & Recycling Centers,(603) 631-0730,,https://scrapvisor.com/new-hampshire/,,,,United States,"Find trusted scrap metal buyers and recycling centers in New Hampshire. View up-to-date scrap metal prices, explore our interactive map of local scrap yards, and connect with reputable companies for fast and profitable scrap sales.","copper, aluminum, steel, iron, brass, wire, cable","pickup, container, demolition"
Recycling Services for Everyone,(603) 585-5078,,https://aurumrecycling.com/,,,,United States,"


Aurum Recycling – Electronics & Non-Ferrous Metal Recycling



































Skip to content 






 














 




							10 Lamy Drive						


						Goffstown, NH 03045
					













 




							Call Us						


						603-585-5078					













 




							Emai",iron,container
Get Paid to Recycle Instead of Paying to Fill a Landfill,1686140874,,https://northeastmetalsalvage.com/,,,,United States,"Northeast Metal Salvage is a fully licensed and permitted scrap yard in 
Whitefield, NH. We offer instant payment for a variety of scrap and 
metal-based items for recycling.","wire, cable","container, processing"
"Make Money off Your Scrap Metal by Visiting a Scrap Yard Near Londonderry, NH andthe Surrounding Areas",(603) 537-1000,info@example.com,https://www.ssmetalrecyclingnh.com/,,,,United States,"Sell your scrap metal for cash! Visit our scrap yard in Londonderry, NH. Call (603) 537-1000 today to learn more and get a free estimate.",iron,container
A & R Scrap Metal Recycling CompanyA Scrap Metal Buyer in New Hampshire,2541746979,,https://www.armetalrecyclers.com/New_Hampshire.html,,,,United States,"A & R Recycling Company, Scrap Metal Buyer in New Hampshire, Recycling Service, Scrap Buyer","copper, aluminum",
New Hampshire Scrap Metal Prices - USA,5247816020,,https://www.priceofscrapmetals.com/new-hampshire/,,,,United States,"Find the Latest Scrap Metal Prices in New Hampshire today. Check the current scrap price for copper, steel, aluminum, brass, gold and other ferrous and non-ferrous materials.","copper, aluminum, steel, iron, brass, wire",container
New Jersey Scrap Metal Buyers & Recycling Centers,(609) 427-6116,,https://scrapvisor.com/new-jersey/,,,,United States,"Find trusted scrap metal buyers and recycling centers in New Jersey. View up-to-date scrap metal prices, explore our interactive map of local scrap yards, and connect with reputable companies for fast and profitable scrap sales.","copper, aluminum, steel, iron, brass, wire, cable","pickup, container, demolition"
We Pay Cash For Your Scrap Metal,(973) 826-2745,,https://rockawayrecycling.com/,,,,United States,"Scrap Yard in Rockaway, New Jersey buying all types of scrap metal; Copper, Brass, Wire, Cable, Aluminum, & more. Updating Today's Scrap Prices Online.","copper, aluminum, steel, iron, brass, wire, cable","pickup, container, demolition, sorting"
We’d love to work with you.,1599529024,inquiry.fmr@fortunegroup.net,https://www.fortunemetalrecycling.com/,,,,United States,"






Fortune Metal Recycling



















































0































































        Skip to Content
      
























        Our Services
      



        Gallery
      



        Company
      



        Contact",,"container, processing"
Somerset Recycling,6646537948,,https://www.somersetrecyclingnj.com/,,,,United States,"Somerset Recycling offers top dollar on scrap metal, and offers scrapyard services including cash for cars, u pick it parts and container services.","copper, aluminum, steel, iron, brass","container, demolition"
scrap yards,(718) 297-6200,,https://www.fyple.com/company/scrap-yards-rjkwnpf/,175-15 Liberty Avenue Queens Jersey City 11433 NY United States,,,United States,"CCC Scrap is a trusted name in the scrap industry; it has been ruling this industry for the past 25 years. It’s the dedication, hard work an...","copper, aluminum, iron, brass",container
Junk Scrap Yards in New Jersey,7303359673,bruce283@optonline.net,https://junkscrapyard.com/state-province/new-jersey/,,,,United States,Junk Scrap Yards in New Jersey,iron,"container, demolition"
Junk Scrap Yards in Florham Park,7303359673,bruce283@optonline.net,https://junkscrapyard.com/location/florham-park/,,,,United States,Junk Scrap Yards in Florham Park,iron,"container, demolition"
River Road RecyclingPREMIUM YARD,(856) 661-8181,cwang926@gmail.com,https://iscrapapp.com/yards/us-new-jersey-pennsauken-river-road-recycling/,,,,United States,"River Road Recycling, Scrap Metal Yard in Pennsauken, New Jersey","copper, aluminum, steel, iron, brass, battery, wire, cable","pickup, container"
Best Price RecyclingOPEN NOW,609-427-3800,bestpricerecycling@gmail.com,https://iscrapapp.com/yards/us-new-jersey-dennisville-best-price-recycling/,,,,United States,"Best Price Recycling, Scrap Metal Yard in Dennisville, New Jersey","copper, aluminum, steel, iron, brass, battery, wire, cable","pickup, container"
CM METALS,(973) 366-2716,605a7baede844d278b89dc95ae0a9123@sentry-next.wixpress.com,https://www.cmmetalsnj.com/,,,,United States,"CM Metals is a reliable scrap yard and recycling center serving Morris County and North Jersey areas. We offer services for selling copper, steel, aluminum, and brass near you. Contact us for all your scrap metal needs , we are a transparent and environmentally friendly recycling solutions.","copper, aluminum, steel, iron, brass, wire","container, demolition"
New Jersey Metal Recycling Since 1947,908-722-2288,,https://www.kleinrecycling.com/,,,,United States,"Klein Recycling is a trusted source for metal recycling solutions, guided by honesty, integrity, and dependability. Explore our services and contact us today!","copper, aluminum, steel, iron, brass, wire","container, demolition, processing"
Industrial and Commercial Scrap Metal Recycling,1692877302,Info@Hcmetals.Com,https://hcmetals.com/,,,,United States,"H&C Metals is a scrap metal recycling center in Newark, NJ. Visit our facility to recycle your scrap metal or schedule a commercial pickup today.","copper, aluminum, steel, iron, brass, battery","pickup, container, demolition, processing, weighing"
CliftonMetalsRecycling,(973) 883-7027,buyer@cliftonmetals.com,https://www.cliftonmetals.com/,,,,United States,"Clifton Metals buys and sells a wide range of scrap metal, offering competitive rates to all of our clients. Clifton metals is one of the best open and close scrap yard for scrap dealer.","copper, aluminum, steel, iron, brass, wire","container, demolition, processing"
Home of honest Weightand Dependable Service,6207301890,your@email.com,https://www.beaconmetalco.com/,,,,United States,"There's no quantity too big, or too small, for our experienced team to handle! We have two locations in Freehold and Amboy, NJ. Call us today 732-727-2300 and 732-462-0543.","copper, aluminum, steel, iron, brass","container, demolition"
Scrap Metal Recycling,1745890638,,https://www.mazzarecycling.com/scrap-metal-recycling/,,,,United States,"Scrap Metal Recycling NJ, Scrap Metal Prices Near NJ - Mazza Recycling Services","copper, aluminum, steel, iron, brass, wire","container, processing, sorting, weighing"
,(908) 756-0900,,https://www.federalmetalsandalloys.com/,,,,United States,"Federal Metals and Alloys purchases aluminium, copper, lead, zinc, nickel, titanium, cobalt, chromium and precious metals","copper, aluminum, steel, iron, brass, wire",container
"Metal Recycling Facility inSussex County, NJ, & Beyond",973-347-4545,info@raimoscrapmetal.com,https://raimoscrapmetal.com/,,,,United States,"Trust the metal recycling facility in Sussex County, NJ, which provides onsite services for appliances, cars, and much more. Visit RaimoScrapMetal.com to find out about our services.","copper, aluminum, steel, iron, brass","pickup, container, demolition, weighing"
Recycling,034 330.5670,stuart.newman@ucnj.org,https://ucnj.org/recycling/scrap-metal/,,,,United States,"Please download the Recycle Coach app and set reminders for upcoming events.  Locations Visit any of these two locations for the dates below 9 am to Noon Rain or shine Rahway River Park in Rahway (Service Yard) Emergency Services Complex 151 Kenilworth Blvd in Cranford 2025 Schedule Thursday, April ","copper, aluminum, iron, brass, battery, wire",container
"Scrap Metal in Saddle Brook, NJ",1619627197,michael@curciosm.com,https://www.curcioscrapmetal.com/,,,,United States,"Contact Curcio Scrap Metal Inc. in Saddle Brook, New Jersey, for more information on our metal recycling. Call 973-478-3133 today!","copper, aluminum, steel, brass, wire, cable","container, demolition"
Roswell Recycling Center,575-623-5555,enorris@recyclingroswell.com,https://iscrapapp.com/yards/us-new-mexico-roswell-roswell-recycling-center/,,,,United States,"Roswell Recycling Center, Scrap Metal Yard in Roswell, New Mexico","copper, aluminum, steel, iron, brass, battery, wire, cable","pickup, container"
Metal Recycling Center in Los Angeles,(818) 771-0510,tmjunkermoval@gmail.com,https://www.tmscrapmetals.com/,,,,United States,"Metal recycling in L.A. Top prices for copper, brass, stainless steel, aluminum wires, aluminum cans, plastic & glass bottles, and more. (818) 771-0510.","copper, aluminum, steel, iron, brass, wire, cable","container, demolition"
New Mexico Computer Recyclers,0349095502,Megan@NMcomputerRecyclers.com,https://www.scrapmonster.com/scrap-yard/new-mexico-computer-recyclers/49055,,,,United States,"New Mexico Computer Recyclers  Scrap Yard. Recycling Centers in 5445 Edith Blvd NE d,,Albuquerque,New Mexico, United States-ZIP:87107. ","copper, aluminum, steel, brass","pickup, container"
"How to Get to Scrap yard. in New York - New Jersey by Subway, Bus or Train?",9999999999,,https://moovitapp.com/index/en/public_transit-Scrap_yard-NYCNJ-site_23097603-121,,,,United States,"How to Get to Scrap yard. in New York - New Jersey by Subway, Bus or Train?Skip to main content USANew York - New JerseyScrap yard.How to Get to Scrap yard. in New York - New Jersey by Subway, Bus or Train?StartEndSearchGet directions in the appDirections to Scrap yard. (New York - New Jersey) with ","wire, cable",container
Scrap Yard NYC,1586143163,,https://www.linkedin.com/company/scrap-yard-nyc,,,,United States,Scrap Yard NYC | 3 followers on LinkedIn. ,,container
Roswell Scrapyard – New Mexico USA – 2016,8220072057,,https://theairchive.net/roswell-scrapyard-new-mexico-usa-2016/,,,,United States,"   Roswell Scrapyard - New Mexico USA - 2016 - The Airchive 2.0       


Airplane ModelsCabins & CockpitsManufacturers and MaintenanceBoneyardsMenusSafety CardsMemorabilia & BrochuresTimetables & Route MapsAirportsMuseumsEventsSpecial Flights & EventsAirways MagazineCaleb & Calder Foundation2C Media",,container
"Recycling Services in Santa Fe County, NM",1696457046,,https://www.recycling-services.net/recycling-in-santa-fe-county-nm/,,,,United States,"Looking for Recycling Services in Santa Fe County, NM? Find addresses, phone numbers, fax numbers, hours & services for Santa Fe County Recycling Services",,container
"USA (Cobb, Georgia) - E-Waste Recycling Services - Deadline October 8,2020, Recycling Services RFP USA , Recycling Services RFP New Mexico",5390208494,,https://www.rfpmart.com/229018-usa-cobb-georgia-e-waste-recycling-services-rfp.html,,,,United States,"





USA (Cobb, Georgia) - E-Waste Recycling Services - Deadline October 8,2020, Recycling Services RFP USA , Recycling Services RFP New Mexico










































































Home 
User Login & Register 
About RFPMart LLC
RFP Categories 
RFP Locations 
Off",iron,"pickup, container, sorting"
RestaurantUsed Cooking Oil Collection and RecyclingServicesin New Mexico,(971) 254-2033,customerservice@mahoneyes.com,https://www.mahoneyes.com/restaurant-used-cooking-oil-collection-and-recycling-services-in-new-mexico/,,,,United States,Call Mahoney at (800) 892-9392 to schedule your Restaurant Used Cooking Oil Collection and Recycling Services. We offer coverage across the state of New Mexico.,iron,"pickup, container"
New Mexico Scrap Metal Prices - USA,5247816020,,https://www.priceofscrapmetals.com/new-mexico/,,,,United States,"Find the Latest Scrap Metal Prices in New Mexico today. Check the current scrap price for copper, steel, aluminum, brass, gold and other ferrous and non-ferrous materials.","copper, aluminum, steel, iron, brass, wire",container
2272-NM New Mexico Tech Scrap Metal Onsite Online Auction,(806) 376-1121,brad.strong@nmt.edu,https://www.bentleysauction.com/auctions/10745-2272-nm-new-mexico-tech-scrap-metal-onsite-online-auction,,,,United States,"►This auction contains a 3 lots of assorted scrap metal including HVAC unit, refrigerators/freezers, gates / panels, sheet metal, test chassis, chain link fence","wire, cable","pickup, container, processing"
TikTok - Make Your Day,7528787957,example@example.com,https://www.tiktok.com/discover/scrap-metal-collectors,,,,United States,TikTok - Make Your Day ,,container
Welcome to Two Brothers Scrap Metal Inc.,1732556825,,https://www.twobrothersscrapmetal.com/,,,,United States,"Two Brothers Scrap Metal offers scrap metal services to Long Island, New York City and the surrounding areas including Upstate New York and New Jersey.","copper, aluminum, steel, iron, brass, wire",container
Arrow ScrapArrow Scrap,1803260067,,https://www.arrowscrap.com/,,,,United States,"Arrow Metal & E-Waste Recycling is the convenient, dependable e-waste & scrap metal recycling service provider located conveniently in West Babylon & Holbrook, NY.","copper, aluminum, steel, wire","container, demolition, processing"
Full Service Ferrous & Non-Ferrous Scrap Yard,(718) 366-4017,email@example.com,https://www.tntscrap.com/,,,,United States,"Sell your scrap to TNT Scrap. We pay top dollar for your recyclable scrap metal. We provide recycling containers, roll-off services, trailer and barge services to make it easy for Brooklyn, NY area businesses and construction sites to recycle valuable scrap metals like aluminum, copper and stainless","copper, aluminum, steel, brass, wire","container, processing"
Scrap Metal Recyclers in Bronx New York,2545352419,605a7baede844d278b89dc95ae0a9123@sentry-next.wixpress.com,https://www.americanscrapmetal.nyc/,,,,United States,"American Scrap Metal is a leading scrap metal recycling facility located in the Bronx, NY, servicing the five boroughs and Westchester County.","copper, aluminum, steel, iron, brass, wire",container
Convenient Location,(347) 937-8737,info@superscrapny.com,https://www.superscrapny.com/,,,,United States,"Super Scrap Inc. is a full-service scrap metal recycling company. We 
provide a range of services from pick-up and container service to 
demolition services.","copper, aluminum, steel, iron, brass, wire","pickup, container, demolition, processing"
NY Scrap Metal,(516) 726-3112,contact@liscrapmetal.com,https://www.scrapmonster.com/scrap-yard/ny-scrap-metal/54727,,,,United States,"NY Scrap Metal Scrap Yard. Recycling Centers in ,Nil,Merrick,New York, United States-ZIP:11566. ","copper, aluminum, steel, brass","pickup, container"
"Ironlak now available at SCRAP YARD, New York City!",3333333333,,https://ironlak.com/ironlak-now-available-at-scrap-yard-new-york-city/,,,,United States,"Ironlak now available at SCRAP YARD, New York City! – Ironlak Spray Paint, Markers & Art Supplies        Skip to content   Main Menu  Spray PaintMenu ToggleLimited Edition & Special Release ProductsIronlak Acrylic Spray Paint 400mlIronlak Basic Spray Paint 400mlCaps and NozzlesPaint MarkersStrikersC",iron,container
Upstate NY Scrap Yard Opens after Blaze,1562080303,,https://www.isssource.com/upstate-ny-scrap-yard-opens-after-blaze/,,,,United States,"








Upstate NY Scrap Yard Opens after Blaze - ISSSource
































































 



 


 





























Home
Archives
Focal Points

Technology Update
Company/Product News
Training and Certification
Government
Incidents
Research
Careers


N","steel, iron",container
Arrow ScrapArrow Scrap,9515852720,,https://www.arrowscrap.com/services/scrap-metal-recycling,,,,United States,"Arrow is your full-service scrap metal recycling solution. We make the recycling process quick, convenient, and fair, ensuring our staff is friendly and courteous to all customers.","copper, aluminum, steel, iron, brass, wire, cable","pickup, container, processing"
Home,3861222426,,https://www.empirerecycling.com/,,,,United States,"





Home






















Our Services


Metals We Buy


Non-Ferrous Metals
Ferrous Metals
What We Don't Take
Our Process
Environmental Impact




About Empire


Our History
Work for Empire!
Empire Family of CompaniesDivision Contact Info
Company News
Fundraising
Community Involvement




Loc","copper, aluminum, steel, iron",container
We Buy All Scrap Metal,1675351005,,https://rubiconrecycling.co/,,,,United States,Get top-dollar cash payments on all scrap metal and vehicle purchases at Rubicon Recycling. We offer premium full-service recycling services. Contact us today.,"copper, aluminum, iron, brass",container
Allocco RecyclingAllocco Recycling,718-349-3094,info@alloccorecycling.com,https://www.alloccorecycling.com/,,,,United States,"Allocco is New York's leading center for aggregate, scrap metal and construction debris recycling services. Our state-of-the-art, technology-driven facilities are equipped to handle your recycling needs quickly and efficiently.","aluminum, iron","container, demolition, processing"
New York Scrap Metal Buyers & Recycling Centers,(914) 436-4704,,https://scrapvisor.com/new-york/,,,,United States,"Find trusted scrap metal buyers and recycling centers in New York. View up-to-date scrap metal prices, explore our interactive map of local scrap yards, and connect with reputable companies for fast and profitable scrap sales.","copper, aluminum, steel, iron, brass, wire, cable","pickup, container, demolition, processing"
We Buy Your Scrap,1751892537,,https://metalrecyclingservices.com/,,,,United States,"




Metal Recycling Services | MRS








































Sell Your Scrap

Household Scrap
Junk Car
Non-Ferrous/E-Scrap


Industrial Scrap

Dispatch
MyScrapInfo


Locations

Gastonia, NC
Monroe, NC
Whiteville, NC


Careers
About

Affiliates
Community
Environment
Fast Facts
Leadersh","aluminum, steel, iron, brass","container, demolition"
Scrap Metal Raleigh Recycling Garner NC | 919-772-9190 | Fair Prices Fast Service,919-772-9190,,https://www.ncscrapmetal.com/,,,,United States,"Environmentally Friendly Scrap Metal Recycling in Raleigh | Since 1975 | Call 919-772-9190 or Visit Us at 1529 West Garner Road Garner, NC 27529","copper, aluminum, steel, iron, brass","container, demolition"
The Strong Arm of the Scrap Business!,(828) 685-8831,charliesstrongarm@gmail.com,https://charliesmetalrecycling.com/,,,,United States,We are a family owned metal recycling facility that has been serving all of Henderson County and surrounding areas for over 40 years. We pay for scrap!,aluminum,container
"SERVICE,SECOND TO NONE.",2046688489,,https://alwaysbuyingscrap.com/,,,,United States,"Our Durham, NC commercial recycling facility is open 6 days a week. We take scrap metal and offer roll-off containers, scrap pickup, & more.","copper, aluminum, steel, iron, brass, battery, wire, cable","pickup, container, demolition, processing"
Community Metal Recycling Services Garner NC - Raleigh NC | TT&E Community Services,(919) 772-9190,,https://ncscrapmetal.com/communityservice.html,,,,United States,Aluminum Can Recycling | Community Service | Recycling Programs | Community Projects | Kid Friendly,"aluminum, iron",container
Contact Us,2545352419,info@southernmetals.com,https://www.southernmetals.com/carolina-beach-nc,,,,United States,"Southern Metals Recycling is the Carolina Beach area's go-to place to recycle metal, auto parts, and household appliances and removal services.","copper, aluminum, steel, iron, brass, battery, wire","container, demolition"
Contact Us,2545352419,info@southernmetals.com,https://www.southernmetals.com/wilmington-nc,,,,United States,"Southern Metals Recycling is your go-to place in the Wilmington NC area to recycle metal, auto parts and household appliances. We offer removal services and wholesale opportunities. Learn about the different types of materials we accept.","copper, aluminum, steel, iron, brass, battery, wire","container, demolition"
BGL Announces the Sale of Raleigh Metal Recycling to Elite Waste Services,9857001192,info@bglco.com,https://www.bglco.com/press-release/bgl-announces-the-sale-of-raleigh-metal-recycling-to-elite-waste-services/,,,,United States,"Read about BGL’s Metals & Metals Processing team providing financial advisory services for Raleigh Metal Recycling, ferrous and nonferrous scrap metal recycler.",iron,"container, processing"
North Carolina Scrap Metal Prices - USA,5247816020,,https://www.priceofscrapmetals.com/north-carolina/,,,,United States,"Find the Latest Scrap Metal Prices in North Carolina today. Check the current scrap price for copper, steel, aluminum, brass, gold and other ferrous and non-ferrous materials.","copper, aluminum, steel, iron, brass, wire",container
North Carolina Claims Against Good Faith Purchasers of Scrap Metal,1600351960,julie@inclinedigitalmarketing.com,https://www.chaplingonet.com/north-carolina-claims-against-good-faith-purchasers-of-scrap-metal/,,,,United States," 


North Carolina Claims Against Good Faith Purchasers of Scrap Metal – Chaplin & Gonet















































Skip to content 





























 



Virginia

804.643.0133















 



North Carolina

704.728.0001



















Insurance Subrogation
",iron,container
Metals Companies in North Carolina,0349095502,info@scrapmonster.com,https://www.scrapmonster.com/companies/region/united-states/north-carolina/metals,,,,United States,"Metals Companies in North Carolina,United States Local Metals Companies","copper, aluminum, steel, iron, brass","pickup, container"
Live Scrap Metal Prices,0349095502,info@scrapmonster.com,https://www.scrapmonster.com/,,,,United States,"ScrapMonster provides daily scrap metal prices in USA, China, UK & India. Free scrap marketplace,recycling news, junk yard & recycling companies directory.","copper, aluminum, steel, iron, brass, wire, cable","pickup, container, sorting"
Home,1519876956,,https://rmimetal.com/,,,,United States,Residual Materials Inc. is your full service metal recycling center. Residual Materials Inc (RMI) purchased obsolete main frame computer systems and their related equipment. We have now extended our scope of recycling to include public and industrial scrap.,"copper, aluminum, steel, brass","pickup, container"
"Welcome to Bernath Recycling : Scrap metals, electronics, & batteries",(701) 361-5821,BernathConstructionInc@yahoo.com,https://bernathrecycling.com/,,,,United States,"Recycling of all scrap metals, electronics, and batteries.","copper, aluminum, steel, iron, brass, battery, wire, cable",container
MATERIALS WE PROCESS,024922-1024,,https://robertsonmetalllc.com/,,,,United States,"





Robertson Metal Recycling LLC  – Buyers, Brokers, Recyclers




































Skip to content




Robertson Metal Recycling LLC 
Buyers, Brokers, Recyclers








Home
About Us
Services
Contact Us
Roll Off Services
Materials We Purchase







 
ROBERTSON METAL RECYCLING LLC","copper, aluminum, steel, brass","container, demolition, processing"
MinnKota Recycling,2698872634,,https://www.minnkotarecycling.com/,,,,United States,"MinnKota Recycling offers recycling services for paper, plastic, aluminum, 
steel and tin cans. We also provide secure document destruction for your 
sensitive materials.","aluminum, steel","container, processing"
North Dakota,1747741523,,https://iscrapapp.com/yards-in/north-dakota/,,,,United States,"View the scrap yards and salvage yards in North Dakota through the iScrap App. You can request containers for scrap metal, see scrap prices, and request auto parts from the local yards.","copper, aluminum, steel, iron, brass, battery, wire, cable","pickup, container, demolition, processing"
South Dakota,1747741523,,http://iscrapapp.com/yards-in/south-dakota/,,,,United States,"The scrap yards and salvage yards in South Dakota can be the right place to bring your scrap metal to. Find scrap prices, request containers, and more through the iScrap App.","copper, aluminum, steel, iron, brass, battery, wire, cable","pickup, container, processing"
Earth Recycling,(701) 852-0738,,https://iscrapapp.com/yards/us-north-dakota-minot-earth-recycling/,,,,United States,"Earth Recycling, Scrap Metal Yard in Minot, North Dakota","copper, aluminum, steel, iron, brass, battery, wire, cable","pickup, container"
Bernath RecyclingPREMIUM YARDCLOSED TODAY,701-361-5821,bernathconstructioninc@yahoo.com,https://iscrapapp.com/yards/us-north-dakota-fargo-bernath-recycling/,,,,United States,"Bernath Recycling, Scrap Metal Yard in Fargo, North Dakota","copper, aluminum, steel, iron, brass, battery, wire, cable","pickup, container"
Scrap Yards - North Dakota Solid Waste and Recycling Association,1646154306,,https://www.ndswra.org/scrap-yards.html,,,,United States,"

Scrap Yards - North Dakota Solid Waste and Recycling Association












































				Home
			



				About
			





			Contact
		





			Board Members
		





			Meeting Minutes
		





			Bylaws
		





			Newsletter
		







				Education
			





			Disposal
		>


",,container
Northern Metal Recycling,(701) 323-0785,help@mapquest.com,https://www.mapquest.com/us/north-dakota/northern-metal-recycling-354118063,,,,United States,"Get more information for Northern Metal Recycling in Bismarck, ND. See reviews, map, get the address, and find directions.","copper, aluminum, steel, iron, cable","pickup, container, demolition, sorting"
"DNJ Recycling of Drakesboro, LLC",0349095502,info@scrapmonster.com,https://www.scrapmonster.com/company/dnj-recycling-of-drakesboro-llc/182803,,,,United States,"DNJ Recycling Of Drakesboro, LLC. Scrap Metal Recycling Company in United States,Kentucky,Drakesboro, 401 S John Prine Ave 42337. Waste Recycling Company","copper, aluminum, steel, brass","pickup, container"
"Scrap Metal Prices in North Dakota, United States",0349095502,info@scrapmonster.com,https://www.scrapmonster.com/scrap-yards/prices/north-dakota/state/3399,,,,United States,"Scrap Prices in North Dakota. United States Scrap Metal Prices,Copper Scrap Price, Bronze Scrap, Aluminum Prices. Scrap Yards in North Dakota","copper, aluminum, steel, iron, brass, wire","pickup, container"
,2020011014,,https://deq.nd.gov/Publications/WM/ScrapMetalAndAutoRecyclersList.pdf,,,,United States,"%PDF-1.7
%����
1 0 obj
<>/Metadata 2001 0 R/ViewerPreferences 2002 0 R>>
endobj
2 0 obj
<>
endobj
3 0 obj
<>/ExtGState<>/XObject<>/ProcSet[/PDF/Text/ImageB/ImageC/ImageI] >>/Annots[ 17 0 R] /MediaBox[ 0 0 792 612] /Contents 4 0 R/Group<>/Tabs/S/StructParents 0>>
endobj
4 0 obj
<>
stream",,
Scrap Metal Laws By State,4242228080,sales@logicnine.com,https://nexusrecycle.com/scrap-metal-laws-by-state.php?state=ND&name=North+Dakota,"Business Address: 19197 Golden Valley Rd #333 , Santa Clarita , California , 91350 , USA Office: 424-222-8080 Email: sales@logicnine.com","Business Address: 19197 Golden Valley Rd #333 , Santa Clarita , California , 91350",US,United States,Nexus can help you learn about the North Dakota Scrap Metal Laws with important information to know as a scrap yard purchasing metals in the state.,iron,container
Recycling,701-328-5150,deq@nd.gov,https://deq.nd.gov/WM/Recycling/,,,,United States,"

	Waste Management - North Dakota Department of Environmental Quality







 
























 

Select Language
Afrikaans
Albanian
Amharic
Arabic
Armenian
Azerbaijani
Basque
Belarusian
Bengali
Bosnian
Bulgarian
Catalan
Cebuano
Chichewa
Chinese (Simplified)
Chinese (Traditional)
Corsican",iron,container
Bismarck Scrap Metal Removal ~ North Dakota,(678) 884-4738,,https://goloadup.com/bismarck/scrap-metal-removal/?srsltid=AfmBOooiQhPpwD0h0c9dEe599vx3Z-F4JP54w2olQFx9ucIqV8Gzg3aR,,,,United States,"We offer fast and affordable scrap metal pickup in Bismarck, ND. Our Loaders are background-checked and ready to haul away your junk with care and efficiency.",iron,"pickup, container, processing"
Resource Metal Recycling | Scrap Metal Recycler | Macedonia Ohio,(330) 908-0400,,https://www.resourcemetalrecycling.com/,,,,United States,"Resource Metal Recycling provides scrap metal recycling services to commercial, industrial, and residential customers.  We pride ourselves on being a clean and friendly facility located in Macedonia Ohio.","copper, aluminum, steel, iron, brass",container
"We Buy Non-Ferrous, Ferrous, and E-Scrap",1751037518,,https://rmrecycling.com/harrison-ohio/,,,,United States,"





HARRISON OHIO | River Metals Recycling













































Sell Your Scrap

Household Scrap
Junk Car
E-Scrap
Industrial Scrap


Industrial Scrap

Dispatch
MyScrapInfo


Locations

Indiana

Greensburg
New Albany
Seymour/North Vernon


Kentucky

Ashland
Danville
Glasgow ","copper, aluminum, steel, iron, brass",container
"COLUMBUS, OHIO scrap metal recycLing",1699997763,,https://ihsrecycling.com/,,,,United States,"Looking to recycle metal or find a scrap yard in Columbus, Ohio? We offer competitive scrap metal prices and comprehensive steel recycling services. Get in touch today!","copper, aluminum, steel, iron, brass, wire, cable",container
Speedie Recycling,1749228065,info@speedierecycling.com,https://www.speedierecycling.com/,,,,United States,"We are a professional scrap metal recycling facility based in Dover, Ohio offering scrap metal recycling, scrap vehicle recycling and roll off containers.","copper, aluminum, steel, iron, brass, wire","pickup, container"
Geauga County'sTop Metal Recycler:Honest Scales Recycling,4406323083,paul@honestscales.com,https://honestscalesrecycling.com/services/metal-recycling/,,,,United States,"Discover Geauga County's top metal recycler at Honest Scales Recycling. With years of experience and a commitment to exceptional service, we offer top dollar payouts for your scrap metal. Whether you're a homeowner cleaning out the garage or a contractor with leftover materials, turn your scrap into","copper, aluminum, steel, iron, brass, wire","container, processing"
American Recycling Services of Ohio LLCPREMIUM YARD,330-680-4121,GCarpenter@ARSOLLC.com,https://iscrapapp.com/yards/us-ohio-alliance-american-recycling-services-of-ohio-llc-premium/,,,,United States,"American Recycling Services of Ohio LLC, Scrap Metal Yard in Alliance, Ohio","copper, aluminum, steel, iron, brass, battery, wire, cable","pickup, container"
Recycling,1709722630,,https://exhibitbusiness.com/category/recycling/,,,,United States,"
















Recycling Archives - Exhibit Business


































































Business
Security
Exhibit Business
Cleaning Service
Education
Electrician












 










Recycling














								Recycling Metal in Cleveland, Ohio – Converting W","aluminum, steel, iron, battery",container
Appliances Recycling Locations Scrap Metal Recycling,2545352419,605a7baede844d278b89dc95ae0a9123@sentry-next.wixpress.com,https://www.ncowaste.org/appliances-metal,,,,United States,"



























































Appliances / Metal  | NCOSW District





















top of pageHomeAbout NCONCO Board DirectorsPolicy CommitteeNCO TeamSolid Waste PlanAnnual District ReportSurveysFacility DesignationsLinksIndividual County Recycling ProgramsAllen Co","copper, aluminum, steel, iron, brass",container
"A & R  Scrap Metal Recycling CompanyA Scrap Metal Buyer in Canton        , Ohio",2541746979,,https://www.armetalrecyclers.com/scrap-metal-buyer-canton-ohio.html,,,,United States,"A & R Scrap Metal Recycling Company, scrap metal buyer in Canton   , Ohio, scrap metal recycler, recycle scrap metal, scrap metal prices, scrap buyer, Canton        , Ohio, CO","copper, aluminum",
Tag:scrap metal buyers columbus ohio,1617558478,,https://paytop4clunkers.com/tag/scrap-metal-buyers-columbus-ohio/,,,,United States,"




scrap metal buyers columbus ohio Archives | PayTop4Clunkers : Junkyard in Columbus Ohio































































Skip to content



 

Home
blog
Service Areas

Columbus
Dublin
FRANKLIN COUNTY
Gahanna
Lewis Center
Pataskala
Westerville
New Albany
Upper Arlin",,container
Don’t Trash Your Treasure: Finding Scrap Metal Buyers in Los Angeles,(866) 786-3825,scrap@ptmetals.com,https://www.ptmetals.com/blog/finding-scrap-metal-buyers-los-angeles/,,,,United States,"Did you know that old appliances, construction debris, and even those rusty car parts taking up space in the garage could be worth money?  Scrap metal","copper, aluminum, steel, iron, brass, wire","pickup, container, demolition, processing, sorting, weighing"
YOUR TRUSTED SCRAPMETAL BUYERS IN MELBOURNE,1732098100,info@manhari.com.au,https://manharirecycling.com.au/services/scrap-metal-collectors-victoria/,,,,United States,Looking to sell scrap metal in Melbourne? Manhari provides efficient scrap metal collection services and great rates. Turn your scrap into cash today!,"copper, steel, iron","pickup, container, processing"
Used Car Parts,1133470069,larecyclingok@gmail.com,https://www.laautorecycling.com/used-car-parts/scrap-metal-recycling,,,,United States,LA's Recycling Center provides used car parts and recycling services for Oklahoma City and the surrounding areas. Contact us today!,"copper, aluminum, steel, iron, wire, cable",container
"Al's Metal Recycling Oklahoma City, scrap yard, CASH FOR SCRAP, prices",2545352419,605a7baede844d278b89dc95ae0a9123@sentry-next.wixpress.com,https://www.cashforscrap.net/,,,,United States,"We buy ALL METALS & pay top dollar. (405)702-IRON Copper, cars, appliances, brass, aluminum, steel and more. A cleaner, faster and friendlier way to sell scrap.","copper, aluminum, steel, iron, brass",container
"Scrap Management IndustriesOklahoma City, OK",1655949744,info@smirecyclers.com,https://smirecyclers.com/locations/oklahoma-city-ok-scrap-yard,,,,United States,"Scrap yard SMI in Oklahoma City, OK, buys and recycles ferrous & nonferrous scrap metal. Get cash for your scrap metal. Prices fluctuate; contact us for rates.","copper, aluminum, steel, iron, brass","container, demolition, processing, weighing"
Turn your scrap into cash!,7759179440,,https://www.derichebourgrecyclingusa.com/,,,,United States,"






Derichebourg | Home


















































win a $100 gift card

















                                    About
                                

-What Set Us Appart
-Subscribe and Earn
-FAQ
-News




                                    Services
         ","copper, aluminum, steel, iron, brass, wire, cable",container
Oklahoma Electronic Salvage,0349095502,info@scrapmonster.com,https://www.scrapmonster.com/scrap-yard/oklahoma-electronic-salvage/49096,,,,United States,"Oklahoma Electronic Salvage Scrap Yard. Recycling Centers in 1225 West Reno Ave,,Oklahoma City,Oklahoma, United States-ZIP:73106. ","copper, aluminum, steel, iron, brass, wire","pickup, container"
Oklahoma Scrap Metal Prices - USA,5247816020,,https://priceofscrapmetals.com/oklahoma/,,,,United States,"Find the Latest Scrap Metal Prices in Oklahoma today. Check the current scrap price for copper, steel, aluminum, brass, gold and other ferrous and non-ferrous materials.","copper, aluminum, steel, iron, brass, wire",container
What We Buy,7276549324,info@standard-iron.com,https://www.standard-iron.com/metal-recycling,,,,United States,"Standard Iron & Metal Co., LLC. in Oklahoma City, Oklahoma offers numerous services to our customers. Call (405) 232-4216 to speak with one of our experts.","copper, aluminum, steel, iron, brass, battery",container
Oklahoma Scrap Metal Buyers & Recycling Centers,(918) 426-1171,,https://scrapvisor.com/oklahoma/,,,,United States,"Find trusted scrap metal buyers and recycling centers in Oklahoma. View up-to-date scrap metal prices, explore our interactive map of local scrap yards, and connect with reputable companies for fast and profitable scrap sales.","copper, aluminum, steel, iron, brass, wire, cable","pickup, container, demolition"
"10 Best Metal Recyclers in Oklahoma City, OK [Update 2025]",9444444444,,https://oklahomaweek.com/metal-recyclers-in-oklahoma-city/,,,,United States,Got old metal lying around? Turn it into cash while helping the planet! Oklahoma City’s metal recyclers are here to make it easy for you. Whether you’re a,"copper, aluminum, steel, iron, brass",container
A & R Scrap Metal Recycling CompanyA Scrap Metal Buyer in Oklahoma,2541746979,,https://www.armetalrecyclers.com/Oklahoma.html,,,,United States,"A & R Recycling Company, Scrap Metal Buyer in Oklahoma, Recycling Service, Scrap Buyer","copper, aluminum",
All Metals Recycling,2545352419,605a7baede844d278b89dc95ae0a9123@sentry-next.wixpress.com,https://www.allmetalsrecycling.shop/,,,,United States,"All Metals Recycling provides the best prices in OKC! You can check out prices, rules and how to contact us today!",iron,container
Tulsa,(918) 437-5377,myCMC-logo@2x.png,https://www.cmcrecycling.com/locations/tulsa,"6565 N. MacArthur Blvd. Suite 800 Irving , TX 75039",6565 N. MacArthur Blvd. Suite 800 Irving,TX,United States,"





Tulsa | CMC Recycling





















Skip to content











Locations

























 


Search



Submit Search




 

About Us


Sell Your Scrap


Individual / Commercial Recycling


Industrial Recycling


Scrap Metal Dealers




Why Recycle


Locations


Alabama



Alexa","copper, aluminum, steel, iron, brass, wire, cable",container
Navigation Top Tasks,000000-0000,action.center@okc.gov,https://www.okc.gov/Services/Water-Trash-Recycling/Bulky-Waste,,,,United States,"Bulk waste. Bulky trash. Big trash. Whatever you call it, the City of Oklahoma City is likely able to collect it. Take a look at what we accept in our monthly bulky program, along with guidelines to set it out right.",iron,"container, demolition"
Scrap Yards in Portland,0349095502,info@scrapmonster.com,https://www.scrapmonster.com/scrap-yard/united-states/oregon/portland/,,,,United States,"Scrap Yards in Portland, Oregon, United States. Portland Recycling Centers Details and Pick Up,Drop Off,Curbside service. Nearest Scrap yards","copper, aluminum, steel, brass, battery","pickup, container"
What I Saw Riding My Bike Around Today,1752932789,,https://whatisawridingmybikearoundtoday.com/2013/04/26/scrap-metal-at-cambridge-iron-and-metal-recycling-center-at-odonnell-s-haven/,,,,United States,"Finally, I had an afternoon free enough to ride a bicycle around, so after work and talk and work, I took the Surly out for a ride. We went down the hill with traffic and then a left and a right and a left again to Fells Point and past all the new construction, gravel…",iron,container
NW Metals Inc,0349095502,nwmetalsinc@gmail.com,https://www.scrapmonster.com/scrap-yard/nw-metals-inc/59318,,,,United States,"NW Metals Inc Scrap Yard. Recycling Centers in 9537 N Columbia Blvd.,,Portland,Oregon, United States-ZIP:97203. ","copper, aluminum, steel, iron, brass","pickup, container"
Oregon Companies,0349095502,info@scrapmonster.com,https://www.scrapmonster.com/companies/region/united-states/oregon,,,,United States,"Waste & Recycling, Metals, Mining & Energy Companies in Oregon,United States Local Company Directory,Buyers,Suppliers in Oregon  Traders Directory","copper, aluminum, steel, iron, brass","pickup, container, demolition"
Junk Scrap Yards in Oregon,7303359673,caleb@peach-street.com,https://junkscrapyard.com/state-province/oregon/,,,,United States,Junk Scrap Yards in Oregon,"copper, aluminum, steel, iron, brass","pickup, container, demolition"
Metal recycling business attracts a new competitor,2842284338,,https://djcoregon.com/news/2014/03/06/metal-recycling-business-attracts-new-competitor/,,,,United States,"Nate Miller is hoping that his new company, Northwest Metal Buyers, can differentiate itself by sorting materials in separate drop boxes, operating a large truck with a crane and a scale, and paying cash in hand.","copper, aluminum, steel, iron","pickup, container, demolition, sorting"
Scrap Metal Recycling,1714515346,,https://industrialsurplusoregon.com/pages/scrap-metal-recycling,,,,United States,"Buy and sell scrap metal in Eugene, OR! Open Mon-Fri, 8 AM-4 PM. We buy all types of metal, offer competitive payouts, and make eco-friendly recycling simple!",iron,"container, processing"
RS Davis Recycling,503-655-5433,,https://iscrapapp.com/yards/us-oregon-clackamas-rs-davis-recycling/,,,,United States,"RS Davis Recycling, Scrap Metal Yard in Clackamas, Oregon","copper, aluminum, steel, iron, brass, battery, wire, cable","pickup, container"
Metro Metals - Quality Scrap Metal & Recycling Services,1742582183,info@metrometalsnw.com,https://www.metrometalsnw.com/,,,,United States,"A powerhouse provider of metals recycling in the Western US and Canada, we 
advance sustainability by transforming scrap metals into valuable new 
resources.","steel, iron","container, processing"
"Bob's Metals, Inc.",7018331243,sales@bobsmetals.com,https://www.bobsmetals.com/,,,,United States,"Bob's Metals, Inc. is a scrap metal recycling company that services industrial, manufacturing and service companies in Oregon and Washington. The company is open to the public and welcomes residential homeowners' metal recycling at it's Portland, Oregon facility.  ","copper, aluminum, steel, iron, cable","pickup, container, processing, sorting"
Metal Recycling,503-255-2299,info@farwestrecycling.com,https://farwestrecycling.com/materials/metal-recycling,,,,United States,"
       Materials | Far West Recycling                     +503-255-2299 info@farwestrecycling.com                MENU Toggle navigation      HOME  ABOUT  Our Locations Our History  Our Mission Our People FAQs   Careers Services COMMUNITY   United Way  Young Audiences Lewis And Clark College RESOURC","copper, aluminum, steel","pickup, container, processing"
Location details,(503) 287-8861,,https://www.oregonmetro.gov/tools-living/garbage-and-recycling/find-a-recycler/recyclers/350,,,,United States,"

Location details | Metro








































Skip to page content



 Go to the main menu
 Go to the search form



  





Metro
 




Main menu

▼Open menu▲Close menuParks + Venues+Open this submenu−Close this submenuParks+Open this submenu−Close this submenuOxbow Regional Pa","copper, aluminum, iron, brass, battery, wire","pickup, container"
Metal recycling,(503) 234-3000,,https://www.oregonmetro.gov/tools-living/garbage-and-recycling/recycling-home/metal-recycling,,,,United States,"You can recycle cans, foil, scrap metal and anything else that is all metal at home.","copper, aluminum, steel, iron, brass","container, weighing"
RECYCLING,(800) 309-5865,,https://cherrycitymetals.com/,,,,United States,"Cherry City Metals- Complete Metal Recycling and Scrap Metal Processing in Salem OR, Corvallis, and Eugene Oregon. Click to find out how we can help today!","steel, iron","pickup, container, processing"
"Lincoln High Scrap Metal Drive, 1942",657051.3903,,https://www.oregonhistoryproject.org/articles/historical-records/lincoln-high-scrap-metal-drive-1942/,,,,United States,"



Lincoln High Scrap Metal Drive, 1942





































Skip to main content



Oregon History Project














Oregon History Project


Close








Home



Historical Records
Search 1000+ OHP archival records


History Project Exhibits
Some thoughts and examples about O",,container
Recycling in Corvallis,(541-754-0444,,https://www.corvallisoregon.gov/publicworks/page/recycling-corvallis,,,,United States,Republic Services (541-754-0444) provides residential curbside collection of solid waste and recycling in Corvallis. Collection of your co-mingled recycling occurs the same day as you solid waste collection.,,container
Penn Mar Recycle,717-235-6200,,https://iscrapapp.com/yards/us-pennsylvania-shrewsbury-penn-mar-recycle/,,,,United States,"Penn Mar Recycle, Scrap Metal Yard in Shrewsbury, Pennsylvania","copper, aluminum, steel, iron, brass, battery, wire, cable","pickup, container"
"Industrial Scrap Metal Recycling Center in Ephrata, PA",(717) 684-8506,chads@lifexmarketing.com,https://recycleyourmetal.com/scrap-metal-recycling/ephrata-pa/,,,,United States,"Looking for reliable metal scrap recycling in Ephrata, PA? Get up-front pricing, fast service, and prompt payment with Sahd Metal Recycling.","copper, aluminum, steel, iron, brass, battery, wire, cable","pickup, container, sorting, weighing"
Weiner Iron & Metal – Pennsylvania Scrap Recycling,(570) 622-6543,,https://weinermetals.com/pennsylvania-scrap-recycling,,,,United States,"Weiner Iron & Metal purchases aluminum, copper, brass, stainless scrap iron, waste paper, ferrous, & non-ferrous metals. Materials are for recycling.","copper, aluminum, iron, brass, wire",container
Pennsylvania,1747741523,,https://iscrapapp.com/yards-in/pennsylvania/,,,,United States,"Locate the Pennsylvania scrap yards and salvage yards listed on the iScrap App today. You can find scrap prices, request auto parts from the app, and ask about container drop offs for your scrap.","copper, aluminum, steel, iron, brass, battery, wire, cable","pickup, container, demolition, processing"
Got Scrap Metal?,1749741970,info@sullivanscrap.com,https://sullivanscrap.com/,,,,United States,"






Home - Sullivan's Scrap Metal




































































 










Skip to content 






Click here to learn about the necessary precautions we’re taking in response to the COVID-19 outbreak. 












Home
Services

Accepted Metals
Scrap Metal D",iron,"pickup, container, demolition, processing"
"Scrap Metal Recycling, Waste Hauling, and Dumpster Rentals",1746035676,,https://eschneiderscrap.com/,,,,United States,"Scrap metal recycling, waste hauling & dumpster rentals. E. Schneider & Sons, Allentown, Easton, & Hellertown, Pennsylvania","copper, aluminum, steel, iron, brass","pickup, container, demolition, processing"
Pennsylvania Scrap Metal Buyers & Recycling Centers,(570) 343-8282,,https://scrapvisor.com/pennsylvania/,,,,United States,"Find trusted scrap metal buyers and recycling centers in Pennsylvania. View up-to-date scrap metal prices, explore our interactive map of local scrap yards, and connect with reputable companies for fast and profitable scrap sales.","copper, aluminum, steel, iron, brass, wire, cable","pickup, container, demolition"
Great Metal Recycling,(484) 623-4888,,http://greatmetalrecycling.com/,,,,United States,"In Walnutport, we are Pennsylvania scrap metal recycling experts, specializing in ferrous and non-ferrous metals for commercial and industrial businesses.","copper, aluminum, steel, iron, brass, wire","container, processing"
"Industrial & Demo Scrap Metal Recycling Center in Lancaster, PA",(717) 684-8506,,https://recycleyourmetal.com/,,,,United States,"When it comes to scrap and metal recycling for your business, are you facing these challenges:","copper, aluminum, steel, iron, brass, battery, wire, cable","pickup, container, sorting, weighing"
