name,phone,email,website,address,city,state,country,description,materials,services
United Scrap Metal Buyers and Recyclers – Committed to Making a Positive Impact in the Lives of Others,1174335649,,https://unitedscrap.com/,,,,United States,"


United Scrap Metal Buyers and Recyclers – Committed to Making a Positive Impact in the Lives of Others











































 








EnglishEspañolPolskiCustomer Log InGet a QuoteSchedule PickupEnglishEspañolPolskiWho We AreBusiness DiversityCommunity EngagementOur PromiseC",,"pickup, container"
RECYCLINGREDEFINED,1752928724,,https://www.sarecycling.com/,,,,United States,Your car still has VALUE. If you have an old car or damaged car that you’re ready to get rid of. WE WILL PAY CASH FOR IT TODAY!,"copper, aluminum, steel, iron, brass","container, demolition, processing"
Metal Recycling Center in Los Angeles,(818) 771-0510,tmjunkermoval@gmail.com,https://www.tmscrapmetals.com/,,,,United States,"Metal recycling in L.A. Top prices for copper, brass, stainless steel, aluminum wires, aluminum cans, plastic & glass bottles, and more. (818) 771-0510.","copper, aluminum, steel, iron, brass, wire, cable","container, demolition"
Factoria Recycling & Transfer Station,6379884362,,https://kingcounty.gov/en/dept/dnrp/waste-services/garbage-recycling-compost/solid-waste-facilities/factoria,,,,United States,"























Factoria Recycling & Transfer Station - King County, Washington


Skip to main content


            close
        

KingCounty.gov is an official government website. Here's how you knowexpand_moreexpand_less








                                    account_balance
   ",iron,"container, processing"
We Recycle Scrap Metal,651-454-9215,recycle@jrsadvancedrecyclers.com,https://jrsadvancedrecyclers.com/,,,,United States,We Recycle Scrap Metal,,container
Pricing for Scrap Metal,1764444095,info@reliablerecyclingcenter.com,https://www.reliablerecyclingcenter.com/pricing/,,,,United States,"We pay cash for steel, copper, brass, stainless steel, aluminum, lead, and batteries. Check out our estimated pricing for scrap metal. Call to learn more.","copper, aluminum, steel, iron, brass, wire",container
"Metal, Appliances and Electronics",(703) 228-5000,descontactcenter@arlingtonva.us,https://www.arlingtonva.us/Government/Programs/Recycling-and-Trash/Residential/Curbside-Recycling-Trash/Electronics-Metal,,,,United States,"Have the County recycle your old metal, appliances and electronics.",iron,"pickup, container"
Metal Recycling,6381882733,,https://www.kauai.gov/Government/Departments-Agencies/Public-Works/Solid-Waste/Recycling/Metal-Recycling,,,,United States,"Puhi Metals Recycling FacilityThe Puhi Metals Recycling Facility is operated by Resource Recovery Solutions. The mission of the Puhi Metals Recycling Facility is to accept and recycle abandoned, untaxed, derelict and junked motor vehicles, white goods, scrap metal, and other...","copper, aluminum, steel, battery, cable",container
J3 Metals Recycling Center,0349095502,info@scrapmonster.com,https://www.scrapmonster.com/company/j3-metals-recycling-center/162217,,,,United States,"J3 Metals Recycling Center . Scrap Metal Recycling Company in United States,Texas,Orange, . Waste Recycling Company","copper, aluminum, steel, brass","pickup, container"
"Rather Recycling – Copper Scrap Metal, Recycling Center & Scrap Yards in Birmingham AL at 323 Finley Blvd, Birmingham, AL 35204",1674700345,icons-ffffff@2x.png,https://www.u-pull-it.com/junkyards-directory/rather-recycling-copper-scrap-metal-recycling-center-scrap-yards-in-birmingham-al-at-323-finley-blvd-birmingham-al-35204/,,,,United States,"Rather Recycling - Copper Scrap Metal, Recycling Center & Scrap Yards in Birmingham AL Recycling center at 323 Finley Blvd, Birmingham, AL 35204","copper, aluminum, steel, iron, brass",container
"Cash For Scrap Metal in Mt. Airy, MD",1752069963,info@reliablerecyclingcenter.com,https://www.reliablerecyclingcenter.com/about-us/service-areas/scrap-metal-recycling-mt-airy-md/,,,,United States,"Received cash for scrap metal in Mt. Airy, MD. Get paid to recycle! Call Reliable Recycling to learn more. We also offer roll-off containers!","copper, aluminum, steel, iron, brass, wire",container
A & R  Scrap Metal Recycling CompanyA Scrap Metal Buyer in Moreno Valley,2541746979,,"https://www.armetalrecyclers.com/Moreno_Valley,_California.html",,,,United States,"A & R Scrap Metal Recycling Company, scrap metal buyer in Moreno Valley, scrap metal recycler, recycle scrap metal, scrap metal prices, scrap buyer, Moreno Valley, CA","copper, aluminum",
Taney Co Metal & Recycling,(417) 546-6700,,https://www.salvage-parts.com/junk-yards/taney-co-metal-amp-recycling,"Location: USA , Missouri, Taney, Taneyville Address: 381 Central Ave, Taneyville, MO 65759 Phone: +1 417-546-6700 Website: Last update: September 23, 2024","Location: USA , Missouri, Taney, Taneyville Address: 381 Central Ave, Taneyville",MO,United States,"Check the info on Taney Co Metal & Recycling, which is located in Taneyville (Missouri).",,container
D & L Recycling,(330) 225-7507,help@mapquest.com,https://www.mapquest.com/us/ohio/d-l-recycling-22613018,,,,United States,"Get more information for D & L Recycling in Valley City, OH. See reviews, map, get the address, and find directions.","copper, aluminum, steel, iron, brass, wire","pickup, container, processing"
PROUDLY SERVING SAN ANTONIO FOR OVER 20 YEARS.,0055507007,user@domain.com,http://longhornrecycling.com/,,,,United States,"






Longhorn Recycling





























































































Sign In
My Account




















              Home
            

About


Recycling




            Services
          

Resources


            Contact
          





Back

","copper, aluminum, steel, iron, brass, wire","pickup, container, processing"
Zore’s Recycling,317-244-0700,,https://www.zoresrecycling.com/blog/are-you-searching-for-local-metal-recycling-centers-in-indianapolis/,,,,United States,"





Are You Searching for Local Metal Recycling Centers in Indianapolis? | Zore’s Recycling	























Skip to primary content


Zore’s Recycling



 

Search




Main menu
Blog Home Page
Visit our Website
 





Post navigation
← Previous
Next →



Are You Searching for Local Metal R","copper, iron","pickup, container, processing"
Welcome to the Ultimate Scrap Showdown!,(713) 862-5588,,https://cdscrapmetal.com/,,,,United States,Discover scrap metal recycling services at C&D Scrap Metal. We offer competitive pricing and efficient processing for all types of metal waste. Call us today.,"copper, aluminum, steel, iron, brass, wire","container, processing, weighing"
USA Locations,(708) 730-1400,,https://scrapmetalservices.com/usa-locations/,,,,United States,Scrap Metal Services have many locations with recycling centers in USA with two of them open to the public. For more info call 708-730-1400.,"steel, iron","container, demolition, processing"
We Buy Your Scrap,1751892472,,https://rmrecycling.com/,,,,United States,"





River Metals Recycling | RMR












































Sell Your Scrap

Household Scrap
Junk Car
E-Scrap
Industrial Scrap


Industrial Scrap

Dispatch
MyScrapInfo


Locations

Indiana

Greensburg
New Albany
Seymour/North Vernon


Kentucky

Ashland
Danville
Glasgow (Speedway R","copper, aluminum, steel, iron, brass, wire","container, demolition"
Recycling,4549394706,,https://www.pacific-steel.com/recycling/,,,,United States,We create a customized program to meet your needs to make steel and metal recycling convenient for consumers and commercial customers. Learn more today.,"copper, aluminum, steel, iron, brass, wire, cable","pickup, container"
CMCRecycling,2146894300,myCMC-logo@2x.png,https://www.cmcrecycling.com/,"6565 N. MacArthur Blvd. Suite 800 Irving , TX 75039",6565 N. MacArthur Blvd. Suite 800 Irving,TX,United States,"





Home | CMC Recycling




















Skip to content











Locations

























 


Search



Submit Search




 

About Us


Sell Your Scrap


Individual / Commercial Recycling


Industrial Recycling


Scrap Metal Dealers




Why Recycle


Locations


Alabama



Alexand","copper, steel","container, processing"
Scrap Metal Recycling,651-454-9215,recycle@jrsadvancedrecyclers.com,https://jrsadvancedrecyclers.com/scrap-metal-prices/,,,,United States,Scrap Metal Recycling,"copper, aluminum, steel, iron, brass, battery, wire",container
Metal Recycling Los Angeles,(818) 771-0510,info@tmscrapmetals.com,https://www.tmscrapmetals.com/metal-recycling-los-angeles/,,,,United States,"Metal recycling in Los Angeles, CA. We pay top prices for scrap metal. Need your scrap picked up? We offer mobile recycling and can come to you. Call today!","copper, aluminum, steel, iron, brass, wire",container
Got Metal? Scrap it!,111.9989945,,https://www.evtrecycling.com/,,,,United States,"We buy and properly dispose of all types of scrap metals, from copper and aluminum to brass and steel. Find out what types of metal we buy.","copper, aluminum, steel, iron, brass, wire","container, processing, weighing"
Scrap Metal Yards and Dealers in USA,(410) 546-1111,admin-contacted@proton.me,https://metalrecap.com/,,,,United States,Scrap Metal Yards and Dealers in the USA: Where to Sell Scrap for the Best Price: ✓ Locations ✓ Prices per lb ✓ Business Hours ☎ Phone Numbers,"copper, aluminum, steel, iron, brass, battery, wire, cable","pickup, container, demolition, processing"
Scrap Yards in United States,0349095502,info@scrapmonster.com,https://www.scrapmonster.com/scrap-yard/united-states,,,,United States,"Scrap Yards in United States - Metal,Automotive,Electronics and Plastic Recycling Centers in United States states and cities, Yard contact details","copper, aluminum, steel, iron, brass, battery, wire","pickup, container, processing"
Best Metal Recycling Centers in the United States,(800) 468-7272,,https://www.recyclingmonster.com/recycling/metal/1,,,,United States,"BEST Metal Recycling Centers in the United States - Updated 2025 - RecyclingMonster - Wasatch Metal Recycling, Arvada Recycling, SA Recycling , Action Metals Recyclers, C&D Scrap Metal Recyclers, United Scrap Metal Inc, Belson Steel Center Scrap,Inc, American Metals Company, Cohen, Denver Scrap Meta","copper, aluminum, steel, iron, brass, battery, wire, cable","container, processing"
Top Metal Recycling Companies in United States,7351392515,,https://ensun.io/search/metal-recycling/united-states,,,,United States,"Discover all relevant Metal Recycling Companies in United States, including Trademark Metals Recycling and Real Alloy","copper, aluminum, steel, iron, brass, battery, wire","pickup, container, demolition, processing, sorting, weighing"
Scrap Metal Recycling Near Me,1752928859,,https://www.recyclingcenternear.me/recycle-metal-near-me/,,,,United States,"Find the nearest metal recycling center near you and get paid for your scrap metal. Ferrous and non-ferrous metal. Steel, copper, aluminum, iron, brass. All types of metal accepted: scrap, pipe, wire, siding","copper, aluminum, steel, iron, brass, battery, wire, cable","container, sorting"
AXIS RECYCLING,2545352419,axisrecycling@sbcglobal.net,https://www.axisrecycling.com/,,,,United States,Scrap Metal Recycling: Commercial and  walk in customers. Family owned and operated. axisrecycling.org,"copper, aluminum, steel, iron","pickup, container, processing"
Scrap Metal Recycling Center,4110341396,,http://scrapmetalrecyclingcenter.com/scrap-metal-in-connecticut-buyers-suppliers-disposal-recycling-and-waste-management/,,,,United States,Scrap Metal in Connecticut – How Is Metallic Waste Managed ? Scrap Disposal Scrap metal that is generated in the United States in general and Connecticut in,"copper, aluminum, steel, iron","container, processing"
Scrap recycling,(239) 320-1193,,https://fl.biznet-us.com/firms/scrap_recycling/,,,,United States,"



Scrap recycling - Florida














 



Florida




Companies:71,348 Products and Services:2,324 

Articles and publications:1,354 Tenders & Vacancies:11 



Sign in










Is your Company in our Directory?






Companies



 
Products and Services

 

 
Tenders

 

 
Vacancies

 

 
Ar",aluminum,container
Scrap Yards in United States,0349095502,info@scrapmonster.com,https://www.scrapmonster.com/scrap-yard/united-states/,,,,United States,"Scrap Yards in United States - Metal,Automotive,Electronics and Plastic Recycling Centers in United States states and cities, Yard contact details","copper, aluminum, steel, iron, brass, battery, wire","pickup, container, processing"
Scrap Metal Recycling Facts,1739163994,,https://www.articlespace.org/scrap-metal-recycling-facts/,,,,United States,"In recent years, the public has been more educated as to the importance of recycling as many materials as possible in order to deflect from having an","copper, aluminum, steel, iron, battery","container, demolition, processing, weighing"
Residential Metal Recycling Services,(713) 862-5588,,https://cdscrapmetal.com/residential-metal-recycling/,,,,United States,"Recycle household appliances, brass fixtures, and more. Enjoy competitive pricing and friendly service at our four Houston locations. View our locations.","copper, aluminum, steel, iron, brass",container
Scrap Metal Recycling Gallery,1692877302,Info@Hcmetals.Com,https://hcmetals.com/what-we-accept/gallery/,,,,United States,Have some scrap metal you would like to get rid of but are not sure if we accept them? Check out our scrap metal recycling gallery to learn more!,"copper, aluminum, steel, iron, brass, battery, wire, cable","container, demolition, processing"
How Companies that Buy Scrap Metal Are Improving the Environment,(708) 730-1400,,https://scrapmetalservices.com/tag/scrap-metal-recycling-center/,,,,United States,"


 




Scrap Metal Recycling Center Archives | Scrap Metal Services

































































Skip to content 



 



 
 
Home
About 




History Meet The Team Safety Core Values Sustainability Careers Press Releases

Services 




Steel Mill Services Non-Fe","steel, iron","container, demolition, processing"
Established Scrap Metal Recycling,1206783171,,https://www.unionbaygroup.com/listings/established-scrap-metal-recycling,,,,United States,"This listing is for a long-established, profitable, and reputable scrap metal recycling operation located in Northwest Indiana. In continuous operation for over","copper, aluminum, steel, brass","container, processing"
Today’s Scrap Prices & Local Scrap Yards,1747741523,,https://iscrapapp.com/,,,,United States,Stay up to date with current scrap metal prices. Maximize your profits with the latest market trends & locate scrap yards in the US & Canada.,"copper, aluminum, steel, iron, brass, battery, wire, cable",container
Scrap Metal Miami: Reliable Metal Recycling Near Me,1727289835,info@usascrapmetalsandrecycling.com,https://usascrapmetalcompany.com/,,,,United States,Highest Prices Paid Guaranteed! USA Scrap & Recycling is the recognized leader for value in metals waste-stream management in Miami-Florida.,"copper, aluminum, steel, iron, brass, cable","container, processing"
"Scrap Yard in Philadelphia, PA Serving NJ, DE, PA, and NY",(856) 356-2516,,https://sgt-scrap.com/,,,,United States,"Need a scrap yard in Philadelphia, PA or the surrounding areas? With pickup and drop-off for NJ, DE, PA, and NY, Sgt. Scrap is here to pay for your scrap metal.","copper, aluminum, steel, iron, brass, wire","pickup, container"
United States Scrap Yards Finder,0349095502,info@scrapmonster.com,https://www.scrapmonster.com/scrap-yards,,,,United States,"Recycling Centers near you. Scrap Yards to Recycle Metal, Automotive, Plastic, Waste, Paper,Batteries,Construction,Hazardous, Household and Electronics Waste. Scrap Yard in United States and Canada","copper, aluminum, steel, iron, brass, battery","pickup, container, demolition, processing"
Scrap Yards & Scrap Prices in USA & Canada,1747741523,,https://iscrapapp.com/yards-in/,,,,United States,"See all of the Scrap Yards listed on the iScrap App in the US & Canada. View company information, current scrap prices, request containers, pickups, & more.","copper, aluminum, steel, iron, brass, battery, wire, cable","pickup, container"
Scrap Yards in New York,0349095502,info@scrapmonster.com,https://www.scrapmonster.com/scrap-yard/united-states/alabama/new-york/,,,,United States,"Scrap Yards in New York, Alabama, United States. New York Recycling Centers Details and Pick Up,Drop Off,Curbside service. Nearest Scrap yards","copper, aluminum, steel, brass, battery","pickup, container"
Scrap Yards in Portland,0349095502,info@scrapmonster.com,https://www.scrapmonster.com/scrap-yard/united-states/oregon/portland/,,,,United States,"Scrap Yards in Portland, Oregon, United States. Portland Recycling Centers Details and Pick Up,Drop Off,Curbside service. Nearest Scrap yards","copper, aluminum, steel, brass, battery","pickup, container"
Stone Security Service,0349095502,stnscrtservice@gmail.com,https://www.scrapmonster.com/scrap-yard/stone-security-service/59220,,,,United States,"Stone Security Service Scrap Yard. Recycling Centers in 5 Penn Plaza  19th Floor,,New york,Alabama, United States-ZIP:NY 10001. ","copper, aluminum, steel, brass","pickup, container"
Trashformers,0349095502,trashformerstx@gmail.com,https://www.scrapmonster.com/scrap-yard/trashformers/62708,,,,United States,"Trashformers Scrap Yard. Recycling Centers in No Brick and Mortar,,McKinney,Texas, United States-ZIP:75070. ","copper, aluminum, steel, brass","pickup, container"
NYOPENDATA,1643743604,,https://www.nyopendata.com/5183913-scrap-yard-holdings-llc,,,,United States,"SCRAP YARD HOLDINGS, LLC is a business entity registered in the state of New York under the legal form of DOMESTIC LIMITED LIABILITY COMPANY.  It can be found in the register by the DOS ID 5183913. The company was established and set into the register at 9th August 2017 and its current status is ACT",,container
scrap yards,(718) 297-6200,,https://www.fyple.com/company/scrap-yards-rjkwnpf/,175-15 Liberty Avenue Queens Jersey City 11433 NY United States,,,United States,"CCC Scrap is a trusted name in the scrap industry; it has been ruling this industry for the past 25 years. It’s the dedication, hard work an...","copper, aluminum, iron, brass",container
Scrap Yards New York City,(718) 297-6200,,https://www.fyple.com/company/scrap-yards-new-york-city-ri6zkv7/,175-15 Liberty Avenue Queens New York NY United States,,,United States,The emerging necessity of sustainable growth has marked the metal recycling process as a critical aspect for us. We at CCC Scrap have vowed ...,"copper, aluminum, iron, brass",container
Real Time Press Release Distribution,2644536267,info@americanscrapmetal.com,https://realtimepressrelease.com/press-releases-tagged-with/scrap-yard/,,,,United States,"




Scrap yard | Real Time Press Release Distribution







































Real Time Press Release Distribution

Search


Primary Menu
Skip to content






Search for:



 






Tag Archives: Scrap yard




Environment, Industrial

Getting The Most Cash At The Scrap Yard

August","copper, aluminum, steel, iron, brass, battery, wire, cable",container
Home,(800) 463-4797,,https://www.triplemmetal.com/,,,,United States,Triple M Metal is the North American leader in scrap metal. Have scrap metal you don’t know what to do with? Bring it to a Triple M Metal yard near you!,"copper, aluminum, steel, iron",container
,1497756424,scrap@metalconversions.com,https://www.metalconversions.com/,,,,United States,"






Metal Conversions















































                        Home
                      



                        About
                      



                        Buying
                      



                        Selling
                      



  ","copper, aluminum, steel, iron, brass, wire, cable","container, processing"
AMERICAN SCRAP METAL SERVICES,1619590516,americanscrapmetal@comcast.net,https://www.scrapmanchicago.com/,,,,United States,"Contact American Scrap Metal for our Scrap Metal pick up services in Alsip, IL","copper, aluminum, steel, iron, brass, wire","pickup, container, demolition"
Scrap Yards Near Me | Scrapyard Near Me,1725034300,,https://www.scrapyardnearme.co/,,,,United States,Scrap Yards Near Me is the #1 platform for your local recycling junkyard prices and needs. Discover the best scrap yard near me today! Offering the best prices.,"copper, aluminum, steel, iron, brass, wire, cable","pickup, container, demolition, processing"
Central Belt Salvage-We offer the best car Scrapyard,07946 135229,info@centralbeltsalvage.co.uk,https://centralbeltsalvage.co.uk/scrap-yard/,,,,United States,"If you’re looking for a reliable car scrap yard in the Central Belt area, look no further than Central Belt Salvage. We understand that finding a reliable and",iron,"container, demolition"
Ross Scrap Yard,1574280550,,https://www.company-listing.org/ross_scrap_yard.html,,,,United States,"




Ross Scrap Yard ,United States










 COMPANY-LISTING.ORG 
  








Home
Add new company listing







Rubber & PlasticsPlastic Raw MaterialsUnited States Ross Scrap Yard




Ross Scrap Yard





Company Details

Business Type : Trading Company
Location : 400 W Harper Rd 97838 Hermiston ",,
Scrapyard Near Me,01843 800800,enquiries@reclamet.co.uk,https://www.reclamet.co.uk/scrapyard-near-me/,,,,United States,"Scrapyard Near Me Open Today, For Metal, Car, Parts, Nearby Scrap Yard. Birchington, Dover, Ramsgate, Margate, Canterbury, Deal, Folkestone.",cable,"pickup, container, demolition, processing"
Massive fire breaks out at Kuwait scrap yard amid extreme heat and strong winds,1113250065,gnsmtp@gnonline.onmicrosoft.com,https://gulfnews.com/world/gulf/kuwait/massive-fire-breaks-out-at-kuwait-scrap-yard-amid-extreme-heat-and-strong-winds-1.500203608,,,,United States,More than 200 firefighters combat massive blaze at Kuwait scrap yard amid strong winds,"iron, wire",container
Call the scrap yard. We have a labor model to be picked up.,1028050688,,https://www.restaurantbusinessonline.com/workforce/call-scrap-yard-we-have-labor-model-be-picked,,,,United States,"Sweet & Sour: The restaurant business has grappled with labor challenges for about 40 years now, but never a situation as trying as the",iron,container
Scrap Trade & Scrapyard Near You,(815) 622-7298,,https://scrapvisor.com/find-scrap-yards/,,,,United States,"Find trusted scrap metal buyers and recycling centers in the USA. Get up-to-date prices, view an interactive map, and connect with reputable companies for fast, profitable scrap sales.","copper, aluminum, steel, iron, brass, wire, cable","pickup, container, demolition"
Locate a Local Scrapyard Near Me,4183031888,,https://scrapyards.io/,,,,United States,"






Home – Scrap Yards Near Me

































































































 



Skip to content

















Home
Search
About
Scrap Metal Prices
Blog
Account
 



+ Add Listing

























Toggle Menu
























L","copper, aluminum, steel, iron, brass, battery","container, demolition, processing"
Current Scrap Metal Prices in the United States,3085852732,,https://www.recyclingmonster.com/scrap-metal-prices,,,,United States,"Scrap Metal Prices in the United States & Canada as of 12/31/1969. Daily price movements, historical price charts & city wise data","copper, aluminum, steel, iron, brass, wire, cable",container
Our Company Commitment,1751305011,,https://metalrecyclingservices.com/about/,,,,United States,"




About | Metal Recycling Services








































Sell Your Scrap

Household Scrap
Junk Car
Non-Ferrous/E-Scrap


Industrial Scrap

Dispatch
MyScrapInfo


Locations

Gastonia, NC
Monroe, NC
Whiteville, NC


Careers
About

Affiliates
Community
Environment
Fast Facts
Leader",iron,container
WESTERN METALS RECYCLING,1752909374,,https://wmrecycling.com/,,,,United States,"




Western Metals Recycling – WMR








































Sell Your Scrap

Scrap Metal
Industrial Scrap
Junk Car
MyScrapInfo


Locations

Denver, CO
Grand Junction, CO
Plymouth, UT
Provo, UT
Salt Lake City, UT
Sparks, NV


Careers
About WMR

Safety
Environment
Community
Fast Facts
","copper, aluminum, steel, iron, brass, wire","container, demolition"
Scrap Metal Recycling Companies in United States,0349095502,info@scrapmonster.com,https://www.scrapmonster.com/companies/scrap-metal-recycling/country/united-states/397,,,,United States,"Scrap Metal Recycling Companies, Buyers, Suppliers in United States United States Traders Directory","copper, aluminum, steel, iron, brass, battery, wire","pickup, container, processing"
"MD Metal Recycling Services, Inc.",2545352419,605a7baede844d278b89dc95ae0a9123@sentry-next.wixpress.com,https://www.mdmetalrecycling.com/,,,,United States,MD Metal Recycling Services - providing solutions for your scrap metal recycling business. Buying aluminum and other non-ferrous metals. ,"aluminum, iron",container
Recycle with USRI,(215) 338-5050,info@unitedstatesrecycling.com,https://unitedstatesrecycling.com/,,,,United States,United States Recycling Inc. offers a complete range of solutions to recyclable material generators in the Tri-State area and beyond.,"aluminum, iron",container
Aluminum Producer and Scrap Metal Recycler,5876159866,,https://www.metalsourcellc.com/,,,,United States,Providing full-service scrap and metal recycling services for individuals and businesses throughout Indiana.,"copper, aluminum, steel, iron",container
Metal Recycling,1751302415,myCMC-logo@2x.png,https://www.cmc.com/en-us/what-we-do/america/metal-recycling,"6565 N. MacArthur Blvd. Suite 800 Irving , TX 75039",6565 N. MacArthur Blvd. Suite 800 Irving,TX,United States,CMC Recycling is a leader in the recycled metals industry—we buy and sell ferrous and nonferrous metal and support everyone from the general public up through to major manufacturers who produce recyclable metal as a byproduct of their operations. Learn more today!,"steel, iron, wire, cable","container, processing"
We Buy Your Scrap,1751892537,,https://metalrecyclingservices.com/,,,,United States,"




Metal Recycling Services | MRS








































Sell Your Scrap

Household Scrap
Junk Car
Non-Ferrous/E-Scrap


Industrial Scrap

Dispatch
MyScrapInfo


Locations

Gastonia, NC
Monroe, NC
Whiteville, NC


Careers
About

Affiliates
Community
Environment
Fast Facts
Leadersh","aluminum, steel, iron, brass","container, demolition"
Metal Recycling Plants In United States,1611803661,,https://www.enfmetal.com/directory/plant/United-States,,,,United States,List of American metal recycling plants - showing companies in United States that process metal waste into new materials.,"aluminum, steel",container
Your Premier Precious Metals Refiner,(800) 551-0083,,http://www.midstatesrecycling.com/,,,,United States,"Accurate, transparent gold, silver, platinum, and palladium refining for jewelers and businesses. Trusted U.S refinery with high returns and full support.",copper,"container, processing"
Scrap Metal Recycling,1748929278,Asset-2@3x-8.png,https://questrmg.com/metal-recycling/,,,,United States,Quest provides a nationwide scrap metal recycling customized for your operation that delivers maximum return and environmental compliance.,"copper, aluminum, steel, iron, brass, battery, wire","container, processing, sorting"
"Scrap Metal Recycling in the US- Market Research Report
                        (2014-2029)",4072512935,info@ibisworld.com,https://www.ibisworld.com/united-states/market-research-reports/scrap-metal-recycling-industry/,,,,United States,"Expert industry market research on the Scrap Metal Recycling in the US (2014-2029). Make better business decisions, faster with IBISWorld's industry market research reports, statistics, analysis, data, trends and forecasts.","copper, aluminum, steel, iron","container, processing, sorting"
Environmental Services,1111208860,,https://aandsmetal.com/environmental-services,,,,United States,"


A&S Metal Recycling - Environmental Services





















Home
About Us

History
About Us
Our Mission
Compliances
Mexico Division
Industry Affiliations
Careers


Services

Management Consulting
Metal Processing
Scrap Metal Services
Brokerage
Certified Destruction


Products

Ferrous Metal",iron,"container, processing"
A&S Metal Recycling,1757319443,,https://aandsmetal.com/,,,,United States,"


A&S Metal Recycling


















Home
About Us

History
About Us
Our Mission
Compliances
Mexico Division
Industry Affiliations
Careers


Services

Management Consulting
Metal Processing
Scrap Metal Services
Brokerage
Certified Destruction


Products

Ferrous Metal
Non-Ferrous Metal
High Temp",iron,"container, processing"
"Metal Recycling Services In South Bend, Indiana - South Bend Junk Removal",1740011246,,https://www.southbendjunkremoval.com/metal-recycling.html,,,,United States,"

Metal Recycling Services In South Bend, Indiana - South Bend Junk Removal












































































 


				Home
			



				Services
			





			Special Hauling Services
		>






			Apartment Complex Cleanout
		





			Attic Cleanup Service
		


","copper, aluminum, steel, iron, brass","pickup, container"
Recycling Services/ Resource Metal Recycling,(330) 908-0400,,https://www.resourcemetalrecycling.com/recycling-services,,,,United States,"Resource Metal Recycling offers scrap metal recycling services to the general public as well as trade contractors, industrial and automotive industries.","copper, aluminum, steel, iron, brass, wire",container
Recycling | JSI Metal Recycling | United States,5811658444,605a7baede844d278b89dc95ae0a9123@sentry-next.wixpress.com,https://www.jsimetal.com/,,,,United States,"JSI Metal Recycling pays cash for your scrap! With our certified scales, we will aim to be the best metal recycler in Central Arkansas. ","copper, aluminum, iron, brass","pickup, container"
Metal/Scrap Metal Recycling Services,(513) 800-2999,info@IH-R.com,https://ih-r.com/metal-scrap-metal-recycling/,,,,United States,"Discover reliable metal recycling services at Industrial Hauling Recycling. Our sustainable solutions cater to your industrial needs, promoting a greener future.","copper, aluminum, steel, iron, brass, cable","container, sorting"
"WEEDVILLEBranch Yard​1817 Redwood Ave.Weedville, PA  15868",2545352419,605a7baede844d278b89dc95ae0a9123@sentry-next.wixpress.com,https://www.noveyrecycling.com/,,,,United States,"Welcome to Novey Recycling, Inc. We are a family business serving Central PA since 1906. A Scrap Metal Recycling and Auto Salvage Facility providing Roll Off Container Service ","copper, aluminum, steel, iron, brass",container
"Texas Metal Recycling Company, Services Nationwide.",1743619629,nationalscrapmetal@yahoo.com,https://agmetalrecycling.com/,,,,United States,"





Scrap Metal: Scrap Metal Recycling Services | Houston Scrap Metal | Scrap Metal Near Me | Texas's Metal Recycling  | Metal Scrap Near Me Houston - Scrap Metal Junkyard




























(214) 502-5030
nationalscrapmetal@yahoo.com















Home
About
Services
Contact
 


Select ","copper, aluminum, steel, brass","container, weighing"
"6 REGIONAL COMPANIES, 70 RECYCLING FACILITIES",1745523011,,https://djj.com/recycling/,,,,United States,"We operate 6 regional companies with over 60 nationwide scrap metal recycling facilities, as well as many self-serve used auto part stores (U-Pull-&-Pay).","steel, iron",container
National Scrap Metal Services,(973) 826-2745,,https://rockawayrecycling.com/scrap-metal-pickups/scrap-services-across-the-united-states/,,,,United States,"Get in contact with Rockaway Recycling for your Industrial Scrap Metal needs throughout the United States. We offer services to some of the largest processors. We can help with removal of scrap metal from demolitions, liquidations, rip-outs, and more. Contact us today to get started and start scrapp","copper, aluminum, steel, iron, battery, wire, cable","pickup, container, demolition"
Rating Top 26 Companies in Scrap Metal Recycling,9488471075,,https://www.inven.ai/company-lists/top-26-scrap-metal-recycling-companies,,,,United States,Discover the top players in scrap metal recycling like Schnitzer Steel and Sims Metal Management. Tap into comprehensive data and reviews outlining industry trends,"copper, aluminum, steel, iron, brass, wire, cable","container, demolition, processing, sorting"
AnyScrap Anywhere Anytime,(208) 562-1200,info@umrecycling.com,https://umrecycling.com/,,,,United States,"








Home | United Metals Recycling






















































































HomeHistory
Environmental Commitment


ServicesBin Exchange
MOBILE SHREDDING
Scrap Management
Transportation
Processing
Converter Reclaim
Copper Reclaim
Electronics Recycling","copper, aluminum, iron, wire","pickup, container, demolition, processing"
Metal Recyclingfor Your Business,833.910.1544,,https://recoverusa.com/recycling-services/metal-recycling/,,,,United States,"Recover offers industrial and scrap metal recycling services for industries throughout the United States. We accept aluminum, copper, brass, steel & more.","copper, aluminum, steel, iron, brass, wire, cable",container
Austin Metal and Iron,512-272-8111,,https://austinmetalandiron.com/contact-us/metal-recycling-services-west-lake-hills-tx,,,,United States,"Austin Metal & Iron offers metal recycling services at our location in West Lake Hills, TX. We accept aluminum, brass, copper, iron, and more. Call today!","copper, aluminum, steel, iron, brass","pickup, container"
"Peel Scrap Metal Recycling Serving Southern Ontario, including Mississauga, Brampton, Etobicoke, Burlington, Oakville, Milton & Georgetown",(905) 612-1288,info@peelscrapmetalrecycling.com,https://www.peelscrapmetalrecycling.com/recycling-services/,,,,United States,Our recycling services are more than meets the eye. We heavily invest in the equipment & machinery to meet a wide range of client needs. Call us at 905 825-1288/612-1288.,"copper, aluminum, steel, iron, brass, wire, cable","container, demolition, processing"
The Professional Recycling Service That You Need,1741100753,,https://jacksonmetalrecyclingok.com/,"Claremore , OK 74019",Claremore,OK,United States,"Jackson Metal Recycling is an illustrious company that works in Claremore, OK, 74019. Contact us for an exceptional recycling service!",,container
"Industrial Metal Recycling Services in Terre Haute, IN",1706674942,webinquiries@bryantindustries.net,https://www.bryantindustries.net/industrial-metal-recycling,,,,United States,"Need reliable industrial metal recycling services in Terre Haute, IN? Call Bryant Industries at (217) 431-0551 for efficient recycling solutions.","copper, aluminum, steel, iron, brass, wire","pickup, container, demolition, processing, sorting, weighing"
Recycling Services,3333333333,bigcountryrecycling@gmail.com,https://metalrecyclingsanangelotx.com/recycling-services/,,,,United States,"From aluminum containers to stainless steel, copper products & scrap cars, Big Country Recycling LLC will give you a great price. Bring us your assorted metals!","copper, aluminum, steel, iron, brass, wire","container, processing"
ABOUT,018 323 248,ricks_recycling@hotmail.com,https://www.ricksrecycling.net/,,,,United States,"Rick's Recycling, Inc. is a full-service scrap metal recycler and CRV buy-back center serving Bakersfield and its surrounding areas.","copper, aluminum, steel, iron, brass, wire",container
"DNJ Recycling of Drakesboro, LLC",0349095502,info@scrapmonster.com,https://www.scrapmonster.com/company/dnj-recycling-of-drakesboro-llc/182803,,,,United States,"DNJ Recycling Of Drakesboro, LLC. Scrap Metal Recycling Company in United States,Kentucky,Drakesboro, 401 S John Prine Ave 42337. Waste Recycling Company","copper, aluminum, steel, brass","pickup, container"
Current Prices,954-488-0700,,https://scrapmetalbuyers.com/current-prices,,,,United States,"







Current Prices - Scrap Metal Recycling Yard Houston TX





























































Skip to content















 
+954-488-0700














Facebook-square
 



Linkedin
 



Link
 























 









Sell to us
Current Prices
About Us
Cont","copper, aluminum, steel, iron, brass, wire, cable","pickup, container"
We Stand United,708-780-6800,,https://unitedscrap.com/contact-us/,,,,United States,"


Contact Us – United Scrap Metal Buyers and Recyclers



































 








EnglishEspañolPolskiCustomer Log InGet a QuoteSchedule PickupEnglishEspañolPolskiWho We AreBusiness DiversityCommunity EngagementOur PromiseCore ValuesSustainabilitySafety and ComplianceQEHS & Policy",,"pickup, container"
About Us,954-488-0700,,https://www.scrapmetalbuyers.com/about-us,,,,United States,"







About Us - Scrap Metal Recycling Yard Houston TX





























































Skip to content















 
+954-488-0700














Facebook-square
 



Linkedin
 



Link
 























 









Sell to us
Current Prices
About Us
Contact
 
","copper, aluminum, steel, iron, brass, wire, cable","pickup, container, processing"
Leading Minnesota Scrap Metal Buyer – Minneapolis St. Paul,6127216244,,https://www.lederbros.com/scrap-metal-buyer,,,,United States,"Minnesota leading scrap metal buyer purchases all metals at competitive prices and market rates in Minneapolis St Paul. We buy iron, steel, aluminum and copper.","copper, aluminum, steel, iron, brass","container, demolition, processing"
Scrap Buy Requests6 scrap offers listed,0349095502,info@scrapmonster.com,https://www.scrapmonster.com/buyoffers,,,,United States,"Scrap Buyers near your place, Scrap Metals, Plastics, E-Waste, Paper Buy Offers from United States, China, Canada , Europe and India, Price per KG, MT and Tonne","copper, aluminum, steel, iron, brass","container, sorting"
OVERSEAS SCRAP METAL INC,0349095502,info@scrapmonster.com,https://www.scrapmonster.com/company/overseas-scrap-metal-inc/122875,,,,United States,"OVERSEAS SCRAP METAL INC. Plastic Recycling Company in United States,New Jersey,Greeley,  52nd Avenue Ct 80634. Waste Recycling Company","copper, aluminum, steel, brass","pickup, container"
"Find Verified
                                            Metal Scraps
                                                                                            Buyers, Importers and Buy Leads",089298 00770,,https://www.go4worldbusiness.com/buyers/metal-scraps.html,"52B, First Floor, Okhla Phase-3
                        New Delhi, INDIA
                        110020",New Delhi,IN,United States,"          Sell Metal Scraps in bulk to verified buyers and importers. Connect with businesses actively looking to buy wholesale Metal Scraps at best prices.
    ","copper, aluminum, steel, iron, brass, cable","container, sorting"
Machine Shop Scrap Buyers - Manufacturing Scrap Metal Buyers,5088724393,info@framinghamsalvage.com,https://www.framinghamsalvage.com/machine-shop-scrap-buyers.html,,,,United States,We are the best machine shop scrap buyers and we purchase the byproducts of your manufacturing production. We work with manufacturing facilities throughout the New England area and purchase the byproduct of their production. We understand that the manner in which we serve our customers is equally as,"copper, iron","pickup, container, demolition, processing"
Scrap Metal Prices in the United States,5247816020,,https://www.priceofscrapmetals.com/terms-and-conditions/,,,,United States,Terms of Service for priceofscrapmetals.com.,cable,container
The Important Role of Scrap Metal Buyers Philadelphia,1747038135,,https://www.earticlessite.com/the-important-role-of-scrap-metal-buyers-philadelphia/,,,,United States,Recycling and reusing metal is not something that began with the recent Sustainable Living Movement. Scrap Metal Buyers Philadelphia have been picking up,"copper, aluminum, steel, iron, brass, battery","pickup, container, demolition, processing, weighing"
Scrap Metal For Cash!,1086543488,accounts@worldmetalbuyers.com,https://www.worldmetalbuyers.com/,,,,United States,"Scrap Metal Buyer in Fenton, MO that buys aluminum, brass, bronze, carbide, copper, electric motors, lead, tin, magnesium, nickel, stainless steel, steel, cast iron, zinc.","copper, aluminum, steel, iron, brass","container, processing"
The world of secondary raw materials at your fingertips,0316 440025,office@metaloop.com,https://www.metaloop.com/,,,,United States,"Unlock the value of your scrap metal with Metaloop. Transparent processes, strategic partnerships, and scalable solutions tailored to you.","copper, aluminum, steel, iron, wire","pickup, container, processing"
Scrap Metal Buyers in San Diego,(951) 733-6603,electricalsurplusbuyers@gmail.com,https://electricalsurplusbuyers.com/scrap-metal-buyers-in-san-diego/,,,,United States,Getting rid of excess electrical equipment & need 24/7 Scrap Metal Buyers in San Diego? Electrical Surplus Buyers (951) 733-6603.,"copper, steel, iron, wire","container, processing"
A & R Scrap Metal Recycling CompanyScrap Metal Buyer in Atlanta,2541746979,,https://www.armetalrecyclers.com/Atlanta.html,,,,United States,"A & R Scrap Metal Recycling Company, scrap metal buyer in Atlanta, scrap metal recycler, recycle scrap metal, scrap metal prices, scrap buyer, Atlanta, GA","copper, aluminum",
"Find Verified
                                            Brass Scrap
                                                                                            Buyers, Importers and Buy Leads",089298 00770,,https://www.go4worldbusiness.com/buyers/united+states/brass-scrap.html,"52B, First Floor, Okhla Phase-3
                        New Delhi, INDIA
                        110020",New Delhi,IN,United States,"          Sell Brass Scrap in bulk to verified buyers and importers. Connect with businesses actively looking to buy wholesale Brass Scrap at best prices.
    ","copper, aluminum, steel, iron, brass, wire, cable","container, processing, sorting"
,832 356 8014,,https://texassalvageandsurplusbuyers.com/gulf-coast-scrap-metal-buyers-832-356-8014-free-quote/,,,,United States,"










GULF COAST SCRAP METAL BUYERS. 832 356 8014 FREE QUOTE - Texas Salvage and Surplus Buyers






































































							Houston Texas - Salvage - Demolition - Equipment Movers - Land Clearing - Trucking - Oilfield Salvage - Marine Salvage - R","copper, steel","pickup, container, demolition"
"scrap metal buyers at 7923 Glenview Dr, Houston, TX 77061",1674700345,icons-ffffff@2x.png,https://www.u-pull-it.com/junkyards-directory/scrap-metal-buyers-at-7923-glenview-dr-houston-tx-77061/,,,,United States,"scrap metal buyers Scrap metal dealer at 7923 Glenview Dr, Houston, TX 77061",,"container, weighing"
LMS Metal Buyers,0349095502,info@scrapmonster.com,https://www.scrapmonster.com/company/lms-metal-buyers/135866,,,,United States,"LMS Metal Buyers. Scrap Metal Recycling Company in United States,Illinois,East Saint Louis, 808 Walnut Ave  62201. Waste Recycling Company","copper, aluminum, steel, brass","pickup, container"
Austin scrap metal buyers,4150215752,info@bordersbrothers.com,https://www.allamericanrecycle.com/tag/austin-scrap-metal-buyers/,,,,United States,"









Austin scrap metal buyers Archives | All American Recycling









































 








		Skip to content







Call 512-243-1183   










 





Main Menu
 


HomeAboutMenu Toggle

Team Facility FAQs Community Our Reviews Review Us
ServicesMenu Toggle

Why Choo","copper, aluminum, steel, iron, brass",container
Scrap Metal Buyers Near Me 77076,(713) 697-2999,donbuntin1@gmail.com,https://astrocityscrap.com/scrap-metal-buyers-near-me-77076/,,,,United States,"Scrap Metal Buyers Near Me 77076, Astro City proudly accepts brass, copper, aluminum, and more. Call today!","copper, aluminum, steel, iron, brass, wire","container, weighing"
Anderson Recycling Emerges the Leading Local Scrap Metal Buyers in Sandstone,8349233976,,https://www.prlog.org/13001120-anderson-recycling-emerges-the-leading-local-scrap-metal-buyers-in-sandstone.html,,,,United States,"Anderson Recycling Emerges the Leading Local Scrap Metal Buyers in Sandstone. Anderson Recycling is a leading scrap metal recycling service in Sandstone, offering a quick and hassle-free scrap metal and junk cars buying process. Contact Anderson Recycling to learn more about its services. - PR130011","copper, steel, iron, wire","pickup, processing"
The History of U.S. Scrap Metal Recycling from Paul Revere to Rosie the Riveter,1320582485,,https://www.cohenusa.com/blog/the-history-of-u-s-scrap-metal-recycling-from-paul-revere-to-rosie-the-riveter/,,,,United States,"The history of scrap metal in the U.S. dates back as far as the founding fathers. Weaponry, ammunition and war vehicles are all forms of recyclable scrap.","copper, aluminum, steel, iron","container, weighing"
Scrap Metal Products and Services in United States - ZipLeaf,2173998293,contact@tulsacatalyticconvertorbuyer.comWebsite,https://www.zipleaf.us/Products/Scrap-metal,,,,United States,Find local scrap metal products and services in United States's best business directory.,"copper, aluminum, steel, iron, brass, wire","pickup, container, processing"
Andy Scrap Metal LTD - Andy Scrap Metal LTD,1741164882,info@andyscrapmetalltd.com,https://andyscrapmetalltd.com/,,,,United States,"Scrap Metal Near Me at Andy Scrap Metal Ltd, we are dedicated to transforming scrap metal into valuable resources for a sustainable future. With our","copper, aluminum, steel, iron, brass, battery, wire",container
How Are Scrap Metal Prices Determined?,(708) 730-1400,,https://scrapmetalservices.com/tag/scrap-metal/,,,,United States,"


 




Scrap Metal Archives | Scrap Metal Services


































































Skip to content 



 



 
 
Home
About 




History Meet The Team Safety Core Values Sustainability Careers Press Releases

Services 




Steel Mill Services Non-Ferrous & Ferrous ","copper, aluminum, steel, iron, brass, wire","container, demolition, processing, sorting"
Best Places to Find Scrap Metal for Your Hustle | | Express Informer,7701165757,,https://expressinformer.com/best-places-to-find-scrap-metal-for-your-hustle/,,,,United States,One of the more lucrative and eco-friendly side gigs you can participate in is scrapping metal and flipping them for profit. Several tons of scrap metal is,"copper, aluminum, steel, iron, cable","container, processing"
Preston Free scrap metal collection,2942675164,support@webador.com,https://www.chorley-free-scrap-metal-collection.com/,,,,United States,"










Chorley Free scrap metal collection


















 





 

 
Preston Free scrap metal collection    











 


Preston Free scrap metal collection    







            Home        





            Services Offered        





            Scrap Metal Recycling Information    ","copper, steel, iron, brass","pickup, container"
Scrap Metal Collection Burton upon Trent,2545352419,605a7baede844d278b89dc95ae0a9123@sentry-next.wixpress.com,https://www.scrapmetalcollection.net/burtonupontrent,,,,United States,"Professional scrap metal collection in Burton upon Trent. We provide fast, eco-friendly scrap removal services. Contact us to schedule a collection today!","copper, steel, iron, brass, cable","pickup, container, processing, sorting"
879 ads Cars Wanted,1416928546,,https://www.gumtree.com/p/cars-wanted/-free-scrap-metal-collection-/1479539973,,,,United States,"Looking to sell your car? Cars wanted ✅ Shop hassle-free with Gumtree, your local buying &amp; selling community.","iron, battery",container
Man And Van Bolton - Manchester,2025071913,,https://www.manandvantree.co.uk/man-and-van-bolton-free-scrap-metal-collection-bolton_i20519,,,,United States,"Reliable Man and Van removals in Bolton for house moves, office relocation, and deliveries. Fast, affordable, and fully insured service.","copper, aluminum, brass, wire, cable","pickup, container"
"""scrap metal collection"" in Western Cape",8252589475,,https://www.gumtree.co.za/s-western-cape/scrap+metal+collection/v1l3100001q0p1,,,,United States,Find scrap metal collection in Western Cape! View Gumtree Free Online Classified Ads for scrap metal collection and more in Western Cape.,"copper, aluminum, steel, brass, wire, cable","container, processing"
Scrap Metal Removal,(844) 438-5364,,https://www.jdogjunkremoval.com/scrap-metal-removal/,"1021 Old Cassatt Rd, Suite 100 · Berwyn , PA 19312","1021 Old Cassatt Rd, Suite 100 · Berwyn",PA,United States,"Got scrap metal to get rid of? Call JDog Junk Removal & they'll pick it up, haul it away, & dispose of or recycle it. No job is too big or small.","copper, aluminum, steel, iron, brass","container, demolition"
"Scrap Yard Finder, Waste Management & Scrap Metal Prices",(305) 781-6185,,https://www.recyclingmonster.com/,,,,United States,"Recycling Centers Finder, Search and find recycling centers near you that accept and recycle products and materials , Unites States Scrap Metal Prices, Recycling Tips,News","copper, aluminum, steel, iron, brass",container
The Ultimate Guide: Who Will Pick Up Scrap Metal for Free?,1752617955,,https://www.simpli.com/lifestyle/ultimate-guide-will-pick-scrap-metal-free,,,,United States,One of the first places to start when seeking someone to pick up your scrap metal for free is by contacting local scrap metal collectors.,iron,"pickup, container"
Dakar Companies,0349095502,info@scrapmonster.com,https://www.scrapmonster.com/companies/region/senegal/dakar,,,,United States,"Waste & Recycling, Metals, Mining & Energy Companies in Dakar,Senegal Local Company Directory,Buyers,Suppliers in Dakar  Traders Directory","copper, aluminum, steel, brass, cable","pickup, container"
Scrap,6882703280,,https://www.lalanguefrancaise.com/dictionnaire/definition/scrap,,,,United States,"Définition de scrap : dictionnaire, étymologie, phonétique, citations littéraires, synonymes et antonymes de « scrap »","steel, wire",container
Traduction de scrap,1490103426,,https://www.larousse.fr/dictionnaires/anglais-francais/scrap/609822,,,,United States,"scrap - Traduction Anglais-Français : Retrouvez la traduction de scrap, mais également sa prononciation, la traduction des expressions à partir de scrap : scrap, scrap, scrap, ....",iron,container
"Le scrap, Version Française, en 5 étapes clés.",2666666666,,https://www.agnesvousraconte.com/2020/11/12/le-scrap-version-francaise-en-5-etapes-cles/,,,,United States,"Histoire du scrapbooking, en France avec 5 étapes clés : émergence d'un nouveau loisir créatif américain à un scrap français.",,container
▾Dictionnaire anglais-français,1000070180,,https://www.linguee.fr/anglais-francais/traduction/scrap.html,,,,United States,"De très nombreux exemples de phrases traduites contenant ""scrap"" – Dictionnaire français-anglais et moteur de recherche de traductions françaises.","steel, iron, wire","container, processing, sorting"
Metal,1322254015,,https://developer.apple.com/metal/,,,,United States,"





















Metal Overview - Apple Developer

































View in English






















Global Nav Open Menu


Global Nav Close Menu




Apple Developer










Search



Cancel








Apple Developer




News




Discover




Design




Develop




Distribut",,container
Metal,1322254015,,https://developer.apple.com/cn/metal/,,,,United States,"





















Metal 概览 - Apple 开发者

































View in English






















打开菜单


关闭菜单




Apple Developer










搜索



关闭搜索








Apple Developer




新闻




探索




设计




开发




分发




支持




账户





















								关闭搜索
							






在“”范围内搜索。
快捷",,container
资源,1322254015,,https://developer.apple.com/cn/metal/resources/,,,,United States,"





















资源 - Metal - Apple 开发者






























View in English






















打开菜单


关闭菜单




Apple Developer










搜索



关闭搜索








Apple Developer




新闻




探索




设计




开发




分发




支持




账户





















								关闭搜索
							






在“”范围内搜索。
快捷链",,container
Accelerated PyTorch training on Mac,1322254015,,https://developer.apple.com/metal/pytorch/,,,,United States,"





















Accelerated PyTorch training on Mac - Metal - Apple Developer



























View in English






















Global Nav Open Menu


Global Nav Close Menu




Apple Developer










Search



Cancel








Apple Developer




News




Discover




Design


",iron,container
Metal 的新功能,1322254015,,https://developer.apple.com/cn/metal/whats-new/,,,,United States,"





















新功能 - Metal - Apple 开发者





























View in English






















打开菜单


关闭菜单




Apple Developer










搜索



关闭搜索








Apple Developer




新闻




探索




设计




开发




分发




支持




账户





















								关闭搜索
							






在“”范围内搜索。
快捷链",,"container, processing"
What’s new in Metal,1322254015,,https://developer.apple.com/metal/whats-new/,,,,United States,"





















What’s New - Metal - Apple Developer






























View in English






















Global Nav Open Menu


Global Nav Close Menu




Apple Developer










Search



Cancel








Apple Developer




News




Discover




Design




Develop




Distribu",,"container, processing"
Get started with tensorflow-metal,1322254015,,https://developer.apple.com/metal/tensorflow-plugin/,,,,United States,"





















Tensorflow Plugin - Metal - Apple Developer

























View in English






















Global Nav Open Menu


Global Nav Close Menu




Apple Developer










Search



Cancel








Apple Developer




News




Discover




Design




Develop




Distri",iron,container
Metal sample code,1322254015,,https://developer.apple.com/metal/sample-code/,,,,United States,"





















Metal Sample Code - Apple Developer













View in English






















Global Nav Open Menu


Global Nav Close Menu




Apple Developer










Search



Cancel








Apple Developer




News




Discover




Design




Develop




Distribute




Support



",iron,"container, processing"
Contact Us,325.7912837,,http://allscrap.biz/,,,,United States," 






All Scrap Metal Recycling Home - All Scrap Metal Recycling



































































Home
About Us
Items We Buy
Contact









 





Scrap Metal Recycling 

Our full service metal recycling center offers the flexibility you need at competitive pric",,"pickup, container, demolition"
Metal recycling dallas tx,(214) 421-9981,cropped-Clean-up-services-page-Customized-recycling-logo@2x-32x32.png,https://www.actionmetalsrecyclers.com/,,,,United States,"Choose Action Metal Recyclers for top-notch metal recycling in Dallas, TX. Contact us now for great rates and more information.","copper, aluminum, steel, iron, brass, battery, wire","container, demolition"
"Recycling Centers Near You – Auto, Scrap & Metal Recycling",(888) 853-0481,,https://usjunkyards.com/junkyards-recycling-center/,,,,United States,"Locate local recycling centers for metal, electronics, cars, and more. Connect with verified junkyards and eco-friendly recyclers across the U.S.","copper, aluminum, steel","container, processing"
Dames Non Ferrous Metal Recyclers Ltd Home,089039 94012,,https://www.recycleinme.com/rim-dames/home,,,,United States,"Dames Non Ferrous Metal Recycling is a well established, constantly growing, family-run metal recycler business. Our aim is to provide the best possible...","copper, steel",
Premier Metal Buyers,1675114284,,https://www.linkedin.com/company/premiermetal,,,,United States,"Premier Metal Buyers | 527 followers on LinkedIn. Your trusted one-stop shop for customized, efficient, and cost-effective metal recycling services. | The first call for metal recycling, asset destruction and plant liquidation services... A woman owned business started in 2009 with the idea or reduc","aluminum, steel, iron","container, demolition, sorting"
TikTok - Make Your Day,2059602903,example@example.com,https://www.tiktok.com/@masonmetals,,,,United States,TikTok - Make Your Day ,steel,container
TABLE OF CONTENTS,1678306038,mymail@mailservice.com,https://www.aimrecyclingco.com/spring-cleaning-with-aim-recycling,,,,United States,Spring is near. Get ready to declutter your space & earn some extra money recycling metal scrap. ,"copper, aluminum, steel, iron, brass, wire",container
RecycledMetals,2609693500,,https://www.steeldynamics.com/recycled-metals/,,,,United States,"





Recycled Metals | Steel Dynamics




































































Careers
Team Members













Our Company

History
Leadership
Awards
Careers
Team Members


Products

Steel

Flat Roll Steel
Long Products Steel


Steel Joists and Deck
Recycled Metals
Proc","copper, aluminum, steel, iron, brass, wire","container, processing, sorting"
Live Scrap Metal Prices,0349095502,info@scrapmonster.com,https://www.scrapmonster.com/,,,,United States,"ScrapMonster provides daily scrap metal prices in USA, China, UK & India. Free scrap marketplace,recycling news, junk yard & recycling companies directory.","copper, aluminum, steel, iron, brass, wire, cable","pickup, container, sorting"
Monrovia Recycling Center,0349095502,info@scrapmonster.com,https://www.scrapmonster.com/company/monrovia-recycling-center/13353,,,,United States,"Monrovia Recycling Center. Scrap Metal Recycling Company in United States,California,Monrovia, 145 W Duarte Blvd  91016. Waste Recycling Company","copper, aluminum, steel, brass","pickup, container"
Studdard Scrap Metal’s Post,7195870528,,https://www.linkedin.com/posts/studdard-scrap-metal_scrapmetalrecycling-metalrecycling-recycle-activity-7195870528094547968-L6mC,,,,United States,"Have you ever wondered what happens after you drop off your metal to our scrap yard?  Read below to find out more about the cycle of recycling!
#scrapmetalrecycling #metalrecycling #recycle #metal #scrapmetal #scrap #houma #louisiana #morgancity ","aluminum, steel, iron, wire","container, sorting"
Top 10 Metal Scrap Exporters in the USA,846-7423006,info@tradeimex.in,https://www.usimportdata.com/blogs/top-metal-scrap-exporters-in-usa,,,,United States,"The top 10 biggest metal scrap exporters in the USA include Nucor Corporation ($34.7 billion), Sims Metal Management ($2.5 billion), and Commercial Metals Company ($1 billion), all with over 1.5 million tons of metal scrap exports annually.","copper, aluminum, steel, iron",container
Current Prices,954-488-0700,,https://scrapmetalbuyers.com/current-prices/,,,,United States,"







Current Prices - Scrap Metal Recycling Yard Houston TX





























































Skip to content















 
+954-488-0700














Facebook-square
 



Linkedin
 



Link
 























 









Sell to us
Current Prices
About Us
Cont","copper, aluminum, steel, iron, brass, wire, cable","pickup, container"
Metal Recycling | Suburban Scrap Metal Co | United States,0684054685,kelly@suburbanscrap.com,https://www.suburbanscrap.com/,,,,United States,"Welcome to Suburban Scrap! We give cash for your scrap metal. We take copper, brass, steel and aluminum and more! Come recycle your leftover metal with us today.","copper, aluminum, steel, iron, brass, wire","pickup, container, processing"
United States Scrap Metal Prices,0349095502,info@scrapmonster.com,https://www.scrapmonster.com/scrap-metal-prices/united-states,,,,United States,"Scrap Metal Prices in United States. Current Scrap Metal Recycling Prices collected from USA Scrap Yards, brokers and exporters. Daily Prices on Non Ferrous, Ferrous, Scrap Precious Metals and Electronic Scrap. Scrap Prices are updated Daily around 12 EST","copper, aluminum, steel, iron, brass, battery, wire","pickup, container"
Menu,(866) 337-7687,,https://www.fptscrap.com/,,,,United States,"














































































Call Toll Free:

1-866-FERROUS


















Menu



Home
About

News
Mission, Vision and Core Values
Company History
Financial Strength
Meet the Staff
Cleveland Cliffs
Strategic Alliances


Metal Recycling

Purchasin","steel, iron","container, processing"
Buy Scrap Metal,(800) 463-4797,ferrousinquiries@triplemmetal.com,https://www.triplemmetal.com/buy-scrap-metal/,,,,United States,"Interested in buying scrap metal? From foundries to steelmakers, our traders are equipped to service all your scrap metal needs!","copper, aluminum, steel, iron, brass","container, demolition, processing, sorting"
Get Top Dollar for Scrap Metal Recycling,1658768693,,https://glescrap.com,,,,United States,"Scrap metal recycler with locations throughout Florida & Michigan, GLE Scrap Metal offers top dollar for your metal.","copper, aluminum, iron","pickup, container, demolition, processing"
Top 10 U.S. Scrap Industry Companies in 2025: Market Dynamics Furthering Ecological Responsibility,(303) 800-4326,sales@sphericalinsights.com,https://www.sphericalinsights.com/blogs/top-10-us-scrap-industry-companies-in-2025-market-dynamics-furthering-ecological-responsibility,,,,United States,Explore the top 10 U.S. scrap industry companies in 2025 and see how market trends are driving sustainability and ecological responsibility.,"copper, aluminum, steel, iron, wire","container, processing, sorting"
Get Top Dollar for Scrap Metal Recycling,1658768693,,https://glescrap.com/,,,,United States,"Scrap metal recycler with locations throughout Florida & Michigan, GLE Scrap Metal offers top dollar for your metal.","copper, aluminum, iron","pickup, container, demolition, processing"
SCRAP METALRECYCLERS,(856) 583-1830,,https://us.emrgroup.com/sell-to-us/sectors-we-serve/scrap-metal-recycling,,,,United States,EMR USA offer the best prices and service to other scrap metal yards looking for a reprocessing partner.,"copper, iron, cable","container, demolition, processing"
Sell To Us,1752776646,,https://www.sarecycling.com/sell-to-us/,,,,United States,SA Recycling provides local collection and recycling of metals arising from manufacturing processes and site clearance and demolition projects. Local metal,"copper, aluminum, steel, brass","container, demolition"
Welcome to T & T Recycling,4445535400,,http://tandtrecycling.com/,,,,United States,"


Welcome to T and T Recycling of Southern Illinois * Metal Recycling * Recycle your Scrap Metal * Southern IL * Hurst IL * Benton IL








home
about us
metals
roll offs / trailers
contact us















What kind of metals we buy
Click here to browse our list of ferrous and and non-ferrous m","steel, iron",container
Metal Recycling Services - Gastonia,3085852732,,https://www.recyclingmonster.com/recycling-center/metal-recycling-services-gastonia/34652,,,,United States,"Metal Recycling Services - Gastonia, Recycling Center at 5401 S. York Highway, Gastonia, North Carolina, United States - Open hours, accepting materials, scrap prices, phone number and location address","copper, aluminum, steel, iron",container
Top Dog Waste Solutions Services Local Commercial Customers With Metal Recycling Services,(202) 335-3939,,https://companies.einnews.com/pr_news/782187099/top-dog-waste-solutions-services-local-commercial-customers-with-metal-recycling-services,,,,United States,Top Dog Waste Solutions Provides Metal Recycling Services for Local Commercial Clients.,"copper, aluminum, steel, iron, brass, wire",
Urban Metal Recycling,(718) 629-1371,help@mapquest.com,https://www.mapquest.com/us/new-york/urban-metal-recycling-urban-429467970,,,,United States,"Get more information for Urban Metal Recycling in Brooklyn, NY. See reviews, map, get the address, and find directions.","copper, aluminum, steel, iron, brass, wire, cable","pickup, container, demolition, processing, weighing"
,832 356 9014,,https://texassalvageandsurplusbuyers.com/scrap-metal-buyer-832-356-9014-small-or-big-loads/,,,,United States,"










SCRAP METAL BUYER . 832 356 9014 SMALL OR BIG LOADS. - Texas Salvage and Surplus Buyers





































































							Houston Texas - Salvage - Demolition - Equipment Movers - Land Clearing - Trucking - Oilfield Salvage - Marine Salvage - Recy","copper, steel","pickup, container, demolition"
Scrap Metal Recycling Centers Open Near Me,6345299017,,https://ccenterfood.blogspot.com/2022/01/scrap-metal-recycling-centers-open-near.html,,,,United States,"





















Scrap Metal Recycling Centers Open Near Me































































Community Center Food



Community Center Food Images









 Menu


 Home














Home » open » 
recycling » 
scrap
 » Scrap Metal Recycling Centers Open Near Me

","copper, aluminum, steel, iron, brass","pickup, container, sorting"
Scrap MetalPick Up Services,1752093150,support@jiffyjunk.com,https://www.jiffyjunk.com/junk-removal-services/scrap-metal-pick-up/,,,,United States,Scrap metal pick up service in a jiffy! Efficient & reliable metal pick up experts. We make scrap metal removal easy for you - get a quote on site!,"copper, aluminum, steel, iron, brass","pickup, container"
Recycling Metal Scrap,1749500413,why-your-organization-needs-a-professional-data-erasure-partner-500x383@2x.jpg,https://1greenplanet.com/general/recycling-metal-scrap/,,,,United States,"






Recycling Metal Scrap - 1 Green Planet















































 









 


Skip to content




 (425) 996-3513
Pick UpDrop OffPick UpDrop OffToggle NavigationIT Asset DispositionRecycle ElectronicsOur ProcessBIN ProgramCertificationsIndustries We ServeHospitality Ind","copper, aluminum, steel, iron, brass, wire","pickup, container, processing"
